random_number,language_name,iso8601,country,language_code,longitude,company,bank_country,latitude
3761807,Interlingue,1977-06-05T01:01:56,New Zealand,ps,-114.028838,Jenni and Sons,CH,-71.309021
521514,Kalaallisut,2007-07-14T04:24:01,Slovenia,mni,-55.055660,"Huber, Rey and Küng",CH,7.944190
8755,Malay,1999-09-13T00:59:01,Tajikistan,pap,-146.652131,Kohler Group,CH,3.8460625
9346,Mongolian,2011-04-03T17:25:01,People's Republic of China,zh,-90.379207,"Berger, Eichenberger and Hermann",CH,-30.6371435
512150,Rundi,2000-11-23T07:13:25,Tuvalu,ks,-57.470879,Sidler-Steiger,CH,56.9509785
728,German,1976-04-04T16:07:52,Romania,ff,-162.204902,"Lustenberger, Frei and Meyer",CH,-6.5296055
82750,Kirghiz,2010-07-08T07:01:20,Lesotho,st,82.092505,Portmann-Hofmann,CH,-22.964949
47974,Haitian,1997-05-22T06:30:51,The Gambia,pa,175.620320,Studer LLC,CH,9.184331
5817267,Inuktitut,2015-06-27T06:58:02,Brazil,ast,-100.036094,"Wagner, Hirt and Berger",CH,-81.179885
5425087,Hausa,2001-11-10T15:30:29,Zambia,lo,125.857414,Friedli Inc,CH,74.6910745
92522,Kongo,1991-12-09T02:57:52,Laos,nso,158.858612,Frei-Bühler,CH,-3.016882
967987,Sindhi,1970-12-17T21:54:05,Indonesia,ta,128.526332,Hoffmann Inc,CH,89.0644495
0,Twi,1982-03-14T22:57:47,Seychelles,he,-30.867999,"Wirth, Burri and Ott",CH,-58.4876385
59955947,Tamil,1989-04-25T19:39:59,People's Republic of China,szl,49.542990,Huber Group,CH,54.945856
309,Avestan,2023-08-11T05:36:52,Antigua and Barbuda,fy,112.665441,Lehmann LLC,CH,-43.5459015
1957713,Komi,1992-02-23T03:29:52,Saint Lucia,hy,-23.002903,Schärer-Herzog,CH,3.983918
321748,Interlingue,2011-07-11T02:24:29,Haiti,be,-65.916492,Sutter-Kaiser,CH,57.438559
195,Sango,1975-06-12T00:58:27,Kenya,ro,30.840949,Friedli-Studer,CH,-59.5223845
5,Mongolian,1990-10-29T06:56:47,Italy,nan,164.427313,Schnyder-Gfeller,CH,38.275082
745,Bislama,1993-08-19T21:23:58,Nepal,tn,-125.857325,Jäggi PLC,CH,-73.066795
2659,Church Slavic,2010-06-13T17:43:21,Djibouti,es,-11.259242,Senn-Rey,CH,-88.0118115
23,Maori,1978-09-28T15:36:57,New Zealand,nl,17.869855,Lustenberger LLC,CH,51.6075815
8308,Dzongkha,1996-08-13T17:17:18,Uganda,mr,-164.199142,"Braun, Hofer and Hoffmann",CH,66.633824
43372278,Tigrinya,1977-04-28T20:37:44,Bulgaria,km,-169.091728,Käser-Wegmann,CH,-58.3932515
87,Latvian,2012-03-27T21:17:31,Bahrain,hne,34.484402,Schneider and Sons,CH,46.7480155
9171440,Marshallese,1975-02-25T09:36:42,Uzbekistan,ne,4.925396,"Suter, Bühlmann and Felber",CH,-56.383612
140,Sichuan Yi,2005-06-29T11:43:06,Bahamas,tn,157.498052,Stutz Group,CH,-36.880484
0,Basque,1970-06-12T23:54:39,Qatar,he,116.357755,Herzog Ltd,CH,26.2724365
819563031,Latin,1989-11-07T00:20:44,Andorra,wae,129.018567,"Scherrer, Furrer and Zingg",CH,71.649112
635,Kurdish,2004-09-27T19:39:29,Morocco,lv,20.110126,Bosshard-Arnold,CH,-1.9014065
74299,Samoan,2004-04-10T14:48:50,Venezuela,sd,19.217591,Herzog-Hofmann,CH,85.9581715
3,Latin,1991-09-13T04:38:48,Denmark,af,80.212661,Giger-Baumgartner,CH,70.895561
10490,Kazakh,1979-09-11T02:17:51,Belgium,so,92.029710,"Pfister, Schmid and Michel",CH,86.593152
5621135,Marathi,2014-12-20T01:25:47,Bahamas,ka,47.571803,Kern Inc,CH,-41.550406
84,Luba-Katanga,1975-09-02T03:41:23,Lesotho,sa,50.441009,Hirt Ltd,CH,-70.1386535
245910,Luba-Katanga,1975-12-26T19:15:42,Ethiopia,hu,28.670960,Bättig Inc,CH,-16.440809
46636,Corsican,2000-10-23T20:32:00,Malawi,he,-43.476157,Frei-Vogt,CH,-83.5730085
86,Pushto,2006-06-06T10:54:51,Mongolia,doi,37.133591,"Frei, Zürcher and Schwarz",CH,67.537778
763668642,Luba-Katanga,1973-12-26T08:15:46,Nauru,unm,30.488159,Staub-Stucki,CH,-6.4310185
70876,Kuanyama,1979-06-11T14:46:56,Thailand,az,-170.253897,"Hofer, Lüscher and Pfister",CH,-18.834416
265419,Gujarati,1984-07-25T11:22:20,Paraguay,nds,36.051700,"Schaub, Wehrli and Favre",CH,-66.3001395
305,Irish,1973-12-26T16:51:29,Madagascar,kok,-60.474765,"Hauser, Braun and Stucki",CH,66.317864
8706555,Navajo,2004-11-25T15:01:11,Grenada,wo,104.611557,Stutz-Schäfer,CH,63.003719
5380,Oriya,1996-09-08T17:31:52,Costa Rica,gu,174.162582,"Widmer, Fuchs and Schnyder",CH,3.072397
971,Akan,2018-03-11T11:28:07,Denmark,zu,-48.670559,Roos and Sons,CH,71.7918935
3296311,Macedonian,2000-10-19T02:15:23,Sri Lanka,ckb,105.580572,Zingg Group,CH,-63.2544985
116081,Interlingua,1974-09-25T12:15:38,Jordan,unm,-51.782910,"Schmidt, Schumacher and Kägi",CH,-22.002462
48941,Bosnian,1978-12-18T09:36:09,Nepal,fur,93.338200,"Siegrist, Vogt and Rüegg",CH,23.4135165
43053,South Ndebele,2004-06-05T19:39:11,Solomon Islands,am,92.238590,Brun Ltd,CH,44.4257395
69111516,Portuguese,2014-05-05T16:51:30,Swaziland,hne,-27.030395,"Siegrist, Hofmann and Winkler",CH,77.9634605
308138639,Malay,2013-07-11T01:49:15,Saint Lucia,ka,-127.515789,Grob Group,CH,-16.621142
41961096,Indonesian,2022-11-19T02:06:52,Uruguay,bem,174.706175,Gross LLC,CH,68.213032
849,Latin,1972-06-16T22:25:49,Morocco,hu,148.899660,Aebi-Hermann,CH,-16.4329255
154249,Malayalam,1995-12-01T20:54:46,Saudi Arabia,ps,135.253628,"Benz, Ferrari and Pfister",CH,28.010786
77754,Arabic,2017-05-09T18:43:31,Bahrain,so,84.808592,Winkler Inc,CH,80.977445
77777234,Gujarati,2011-06-28T10:03:31,Ethiopia,doi,-62.255213,Seiler and Sons,CH,42.3839285
74466,Aymara,2015-09-27T12:35:16,Zimbabwe,nb,-3.946058,Marti Inc,CH,-52.932863
994,Samoan,1989-05-12T20:50:50,Uganda,nds,40.411603,"Spörri, Lanz and Spörri",CH,-47.855253
142839029,Navajo,2022-09-13T16:04:19,Romania,uz,-61.075753,"Siegrist, Schürch and Schwab",CH,35.0526505
4180088,Georgian,1974-03-27T22:41:24,Sri Lanka,mn,-87.491037,Hunziker-Meyer,CH,-23.065125
9,Luxembourgish,1991-04-03T11:42:44,Papua New Guinea,gu,167.948617,Steffen Ltd,CH,29.6283825
3069529,Turkish,2007-04-11T16:18:36,Georgia,byn,109.835959,Aebi and Sons,CH,-2.934902
31375,Finnish,1976-08-28T16:11:09,Portugal,tt,-28.661172,Blaser Ltd,CH,-67.835244
29629976,Navajo,2000-07-24T21:27:41,Spain,ja,-139.121712,"Erni, Steffen and Hofmann",CH,-81.1398785
89,Manx,2004-12-31T07:39:04,Israel,cv,-33.488109,Geiger-Huber,CH,30.3382265
315201067,Hebrew,2004-06-07T04:34:26,Serbia,niu,80.192757,Aebi-Koch,CH,12.4069775
9504033,"Sotho, Southern",2015-09-25T00:56:56,Qatar,lv,31.137568,Leu Group,CH,38.185843
303747,Kikuyu,1979-05-13T05:03:39,Mali,fo,-134.722361,"Giger, Häfliger and Gut",CH,32.044519
5,Nauru,1975-04-15T14:14:12,Libya,uz,-169.596520,"Burri, Schlatter and Wüthrich",CH,27.549344
57202639,Bengali,1996-10-03T10:44:10,East Timor,oc,-159.305860,Schmid Inc,CH,-37.575955
2698870,Nepali,1981-11-29T10:38:03,Swaziland,tt,-23.889477,Blum LLC,CH,-2.3890185
899564,Ukrainian,1993-04-19T16:59:30,Peru,om,64.594482,Jenni-Schaub,CH,-67.7704245
23792291,Maori,2021-10-29T23:51:12,Malawi,fr,109.123244,"Ziegler, Schoch and Haas",CH,84.5356005
90,Avaric,1971-11-14T08:22:39,Oman,nl,68.254617,Felber Ltd,CH,-4.326682
20,Kurdish,1990-11-04T00:10:11,Guinea-Bissau,mni,-72.229917,Bolliger-Jenni,CH,-46.1578625
5696069,Luba-Katanga,2007-06-13T21:44:01,Kiribati,fo,-47.162199,Braun Group,CH,16.3851595
532119282,Western Frisian,1986-05-06T11:00:30,Mexico,mk,-26.091869,"Hunziker, Brunner and Wolf",CH,-8.9903125
35,North Ndebele,2010-01-13T07:25:48,Kenya,es,173.147018,"Wolf, Lehmann and Schwab",CH,72.6542255
9373199,Kazakh,1986-06-25T23:05:53,Hungary,niu,58.243280,"Michel, Stadelmann and Hofmann",CH,69.292454
1808720,Quechua,1984-06-24T22:29:29,Malta,ne,-87.616963,Seiler Inc,CH,-40.0390475
23307732,Tigrinya,1971-03-22T10:15:36,Djibouti,sl,171.163219,"Meyer, Geiger and Brun",CH,-25.4908255
472954,Persian,1986-12-05T06:30:32,Finland,ar,-28.396137,"Jäggi, Beck and Bolliger",CH,51.1941645
4,Yoruba,1980-11-11T17:56:40,Libya,sq,164.349724,Stucki Ltd,CH,86.891358
886211430,Hausa,1971-05-01T08:19:24,Jordan,ga,-18.568745,"Gloor, Schoch and Wirz",CH,61.8981485
83542,Catalan,1984-04-17T08:07:55,Nauru,nb,88.647848,Steinmann and Sons,CH,-87.858809
4664,Basque,2001-08-12T13:18:44,Germany,br,105.122632,"Walter, Blaser and Schaller",CH,-85.9660485
4414,Javanese,1991-12-03T09:49:41,Dominica,ca,144.519718,Sidler and Sons,CH,63.728111
94333,Tatar,2002-09-26T16:32:12,Monaco,lzh,87.073044,"Stalder, Wehrli and Fischer",CH,-54.0225385
88424,Vietnamese,1974-05-09T20:12:28,Luxembourg,the,177.889016,Näf-Steiger,CH,75.950355
22489511,Corsican,2020-03-17T14:19:45,Kuwait,os,31.284177,Schürch-Steinmann,CH,-49.6014135
42156,Kongo,1989-04-27T12:37:53,Belgium,es,-12.080150,Vogel Inc,CH,-36.190796
746802553,Venda,1971-02-28T15:26:48,Liberia,sl,175.737078,Peter-Albrecht,CH,-12.5782045
51,Wolof,2006-01-18T06:17:24,Poland,mni,91.386623,Schuler-Siegrist,CH,-24.3974715
682226,Croatian,1985-08-13T06:12:25,Eritrea,hy,-85.312038,Bosshard Inc,CH,59.972952
854,Hungarian,2021-08-31T13:41:13,Thailand,gu,-70.871970,Bühlmann-Eichenberger,CH,-86.5745455
5816,Somali,1974-07-02T16:58:54,Iraq,tg,25.198671,Meili and Sons,CH,24.405748
19,Ganda,2013-08-16T12:40:39,Ecuador,szl,-14.588929,"Zbinden, Ziegler and Bader",CH,3.8613005
7,Malayalam,2023-09-01T07:50:42,Iraq,ia,68.575757,Schneider and Sons,CH,2.259180
501658,Ndonga,2021-10-19T04:48:31,Tunisia,rw,35.345677,Roth-Fuchs,CH,45.835884
72791,Kannada,1978-04-23T22:11:28,Kyrgyzstan,vi,131.193601,Grob LLC,CH,-30.6721545
82,Kirghiz,1994-04-25T07:01:56,Sweden,ky,-110.166363,Müller-Marti,CH,88.3755885
209031638,Swahili,2009-03-31T15:46:29,Indonesia,kk,-46.520510,"Seiler, Frey and Wolf",CH,45.4713965
418,Western Frisian,2002-06-03T20:36:11,Venezuela,ig,-80.552858,"Bosshard, Wenger and Lang",CH,-49.2723575
73,Tagalog,2013-12-30T16:42:12,Saint Kitts and Nevis,az,-171.384604,Probst-Bernasconi,CH,-20.6459375
510313145,Marathi,2022-12-13T00:43:38,Russia,ig,-155.553112,"Wirth, Koch and Schenk",CH,67.209820
981589,Lao,1991-02-03T20:15:40,Senegal,li,9.609167,Huber-Bühlmann,CH,-56.8295865
964782624,Maltese,2022-06-22T03:58:38,Mali,lg,90.831378,Weber-Stauffer,CH,25.246517
21666,Twi,2019-10-14T17:50:33,South Korea,th,-99.021084,Ott and Sons,CH,82.314670
76253618,Samoan,2004-04-18T06:33:16,Georgia,bs,178.326890,Ackermann-Bühlmann,CH,-19.4885115
0,Avaric,1984-07-31T07:13:20,Croatia,ha,60.411386,Berger and Sons,CH,30.251259
497285919,German,1981-07-30T18:57:11,Algeria,uk,-159.677411,Forster and Sons,CH,35.9722845
8587977,Inupiaq,1988-09-20T16:51:26,Trinidad and Tobago,wal,98.145845,"Aebi, Felber and Lüscher",CH,-86.6108385
68523496,Tswana,1985-05-12T15:31:26,Equatorial Guinea,ko,-64.316442,Moser PLC,CH,-23.4249595
255551,Galician,1980-04-01T00:25:17,Togo,quz,-67.682304,Scheidegger-Wagner,CH,-6.4090375
477185,Swedish,2005-06-08T17:45:30,Norway,sd,-60.694320,Stucki LLC,CH,10.6335835
976,Azerbaijani,1996-12-21T20:52:58,Turkey,nds,178.492645,"Roth, Zingg and Gerber",CH,-75.5515205
62,Amharic,1997-09-07T04:45:19,Senegal,tig,49.944231,Fehr and Sons,CH,-37.6363585
34217,Zulu,1982-11-20T22:29:27,Serbia,lb,-91.132949,Schnyder-Jost,CH,-44.4225875
6104,Bislama,1976-07-06T16:06:12,Moldova,mhr,69.377813,"Stutz, Bär and Berger",CH,11.3495795
6,Kazakh,1984-05-11T08:17:44,Solomon Islands,bg,-153.053915,Meyer-Eugster,CH,-0.264450
124303,Chinese,2007-11-19T22:25:59,Senegal,mai,110.682906,Imhof-Hofmann,CH,-19.052233
7863386,South Ndebele,2021-04-06T05:44:55,Solomon Islands,hr,139.617243,Schmid-Schenk,CH,-53.167220
105545,Oriya,2007-01-07T15:10:28,Maldives,cs,121.951081,Graf-Wegmann,CH,0.3183895
6,Navajo,1978-01-23T12:17:07,Kiribati,yo,129.741423,"Zehnder, Schaller and Bättig",CH,-40.0054985
554755,Chamorro,2002-11-19T20:21:59,Kiribati,unm,-69.232167,Vogel-Wirth,CH,86.6414235
764002,Sanskrit,2022-07-29T08:28:25,Saint Vincent and the Grenadines,ht,143.781074,Bernasconi-Bosshard,CH,-30.727941
265890237,Tahitian,1981-12-21T23:46:45,Kuwait,hy,-34.854380,"Favre, Blaser and Schär",CH,-60.724738
221,Russian,2016-01-01T06:34:13,Mali,tcy,106.481135,Pfister-Baumgartner,CH,-72.840945
9,Telugu,1981-12-06T12:32:08,North Macedonia,yo,77.686464,"Probst, Bauer and Peter",CH,80.675488
262232,Tsonga,2007-08-12T02:30:06,Kiribati,mk,-172.801138,"Benz, Sutter and Jäggi",CH,-6.122085
541,Tagalog,1984-03-04T07:41:30,Paraguay,bem,115.405913,Leu-Schuler,CH,-76.156673
67557846,Nepali,1998-07-30T11:29:41,Senegal,sl,-148.456243,"Bieri, Bosshard and Lehmann",CH,13.4025515
40471513,North Ndebele,1988-10-27T17:20:38,Belgium,cv,-145.234626,"Erni, Walter and Spörri",CH,-14.2931925
1,Romansh,1997-06-02T07:57:43,Zambia,pl,169.192034,Burri and Sons,CH,36.9121155
2365,Gujarati,2016-04-20T13:39:28,Saint Lucia,li,-145.370013,Steiner-Hartmann,CH,11.6175875
3807471,Assamese,1983-11-02T19:25:34,Belize,tcy,110.618870,Flückiger-Gross,CH,12.4302505
192,Galician,2007-04-04T14:52:41,India,sc,117.861754,Huber Ltd,CH,40.2673595
410101628,Amharic,2005-09-15T20:14:49,Chile,nn,131.587586,Probst-Hodel,CH,3.605563
657812,Cornish,2006-05-27T18:59:46,Kiribati,uk,-20.546147,Braun-Schwab,CH,31.4694685
343900,Czech,2003-10-04T15:51:19,Central African Republic,ur,-163.086388,Bianchi PLC,CH,-57.1825985
52309284,Northern Sami,2018-10-03T14:08:52,Venezuela,ko,-25.932649,Wüthrich Ltd,CH,53.1523005
66,Portuguese,1992-07-05T11:20:50,Ecuador,quz,-102.772857,"Kessler, Meyer and Hunziker",CH,-17.303485
921,Chechen,1999-05-02T07:45:54,South Africa,ha,91.646797,Moser Ltd,CH,48.5271445
7229694,Chuvash,1988-06-26T11:12:18,Albania,id,147.037219,Graf-Schlatter,CH,-9.2606875
5347,Zulu,2012-04-04T13:31:23,Marshall Islands,ast,45.116337,Portmann Group,CH,43.165565
8,Komi,1999-01-21T21:07:32,Latvia,eo,118.009905,"Bauer, Keller and Jost",CH,-32.9830555
2,Kurdish,1972-12-20T18:06:01,El Salvador,gez,-41.833499,Wolf and Sons,CH,-7.1424065
67936529,Igbo,1980-12-15T05:05:58,Dominica,ff,99.643179,Hauser LLC,CH,-73.7808885
766,Amharic,1989-05-22T03:35:46,San Marino,uz,-46.071568,Brun-Vogel,CH,-67.1967335
897,Armenian,2004-04-10T12:28:28,Benin,lg,10.406392,Hirt Group,CH,-17.729898
3,Cornish,2002-09-04T20:02:42,Grenada,oc,37.558619,Näf Group,CH,25.071649
25227,Divehi,2021-03-24T18:10:15,Maldives,aa,110.663755,Leu-Zürcher,CH,-13.169612
788928,Bengali,2004-07-22T11:52:03,Uruguay,ce,-1.008103,"Bühler, Mayer and Scherrer",CH,38.7377855
610976,Igbo,2005-11-05T16:47:27,Cambodia,pap,-138.388705,Meili LLC,CH,-84.599052
49,"Sotho, Southern",1985-05-21T09:02:26,Sudan,da,137.471924,Hug-Schnyder,CH,-65.498155
2177159,Nepali,1971-07-28T15:40:34,Republic of Ireland,ja,60.741411,"Schoch, Schweizer and Stauffer",CH,-28.2691765
3035673,Arabic,2005-09-30T07:52:09,East Timor,mi,-55.322231,"Zbinden, Meister and Blum",CH,28.792034
2,Lithuanian,2019-01-12T01:47:52,Finland,kn,-108.535613,"Sigrist, Gasser and Bolliger",CH,15.398075
984,Malay,1995-09-22T17:19:47,Slovakia,wo,-121.824966,Koch-Schnyder,CH,-6.127642
7439,Shona,1985-05-07T20:07:56,Taiwan,brx,157.161541,Schwarz and Sons,CH,-61.442840
338047526,Uzbek,1978-01-18T08:05:01,Luxembourg,el,8.791785,Favre-Widmer,CH,10.1356765
378,Arabic,1997-10-06T03:26:08,Mexico,doi,174.932535,"Moser, Käser and Steinmann",CH,-47.4944135
42245,Wolof,1985-12-10T11:42:37,France,nhn,157.643965,"Stalder, Koch and Frick",CH,34.173278
808155978,Macedonian,2001-12-27T01:21:20,Israel,yi,-98.047239,Egger Group,CH,62.1319125
667181838,Uzbek,1976-05-29T16:28:11,Lithuania,af,-94.743996,Häfliger and Sons,CH,13.7913735
820805,Sindhi,2012-07-17T05:14:14,Georgia,ur,86.931021,Schnyder PLC,CH,-84.757558
633764143,Estonian,1974-04-12T10:16:43,Madagascar,fr,86.032598,Leu-Kern,CH,21.0401105
48,Central Khmer,2012-04-25T12:55:04,Monaco,ia,-148.544852,"Bader, Maier and Hofmann",CH,34.1762265
737041689,Czech,1977-05-03T06:00:20,Paraguay,sat,-122.644973,"Brun, Zehnder and Stettler",CH,-66.099034
145317009,Breton,1994-12-30T22:06:06,Guatemala,fo,30.630478,"Walter, Vogt and Rüegg",CH,-79.238997
81,Kikuyu,1987-06-02T01:12:14,United States,nb,61.963301,"Betschart, Spörri and Hürlimann",CH,86.685493
11,Cornish,1993-02-27T19:29:06,Federated States of Micronesia,fa,-143.449218,"Frei, Furrer and Zbinden",CH,16.528705
47233,Tatar,1988-05-28T01:59:50,Lesotho,nb,-41.308559,Frei and Sons,CH,-12.3478525
0,Abkhazian,1973-09-15T14:37:20,Poland,iu,2.255264,"Furrer, Fischer and Schweizer",CH,8.0805615
652,North Ndebele,2003-06-26T19:50:16,Seychelles,th,133.327688,"Lehmann, Frei and Fankhauser",CH,-39.8179905
763099115,Ojibwa,1984-10-08T04:23:04,Jordan,sd,3.121834,Küng-Hodel,CH,16.8180605
62,Inuktitut,1973-08-23T23:08:07,Guyana,hu,-54.897677,Schneider Group,CH,40.8392945
2,Navajo,2020-09-26T09:25:15,Tajikistan,shs,115.165377,Furrer-Bucher,CH,52.246787
90503,Serbian,2003-10-04T14:41:50,Cyprus,iu,-95.281503,"Müller, Bosshard and Rüegg",CH,41.6403095
188,Catalan,2006-10-16T20:21:12,Dominican Republic,mr,1.669124,"Graf, Probst and Iten",CH,62.541123
851,Nepali,2017-06-10T16:23:57,Tanzania,ia,137.362312,"Scherrer, Walter and Haas",CH,-41.081093
28162536,Hausa,1994-06-25T17:12:35,Lebanon,li,177.661130,Schweizer-Ferrari,CH,-83.054789
735298878,Slovak,1994-12-31T11:44:56,Brunei Darussalam,lt,-54.438554,Kern-Friedli,CH,-45.4516845
534,Kannada,1984-02-13T13:40:56,Guatemala,lb,-176.809512,Bauer and Sons,CH,54.5285315
91211871,Chechen,1974-02-25T14:28:00,Cuba,li,141.133656,"Frei, Imhof and Schaub",CH,37.043312
54,Gujarati,1983-03-31T00:32:41,Grenada,da,157.413570,Hofstetter PLC,CH,73.130279
268067,Fijian,2014-12-22T07:54:20,Togo,ts,135.160213,Gerber-Lustenberger,CH,-70.2187535
39712544,Slovak,1982-05-30T14:06:25,Lithuania,gu,4.243378,"Steinmann, Betschart and Schumacher",CH,23.1851305
7160646,Interlingua,1981-02-04T08:37:55,Guinea,ne,-153.756373,Lutz Inc,CH,10.819424
752601519,Cornish,1977-08-08T15:17:23,Dominica,eu,74.972072,Fankhauser LLC,CH,-72.1232075
211,Yiddish,1989-06-23T05:31:02,Saudi Arabia,apn,-69.506400,"Ferrari, Müller and Portmann",CH,29.661699
218392858,Turkish,2014-09-03T03:35:47,Trinidad and Tobago,bhb,71.931611,Meili Inc,CH,-37.0751095
7467,Georgian,1971-10-31T04:20:35,Jamaica,ayc,-123.176787,"Zbinden, Kuhn and Roth",CH,-89.288855
78517136,Maltese,1996-08-03T00:02:15,Nepal,yi,-63.473055,"Felber, Schuler and Winkler",CH,72.216267
367,Ukrainian,1998-09-30T05:35:36,Tonga,hu,157.259834,Bianchi-Steinmann,CH,28.815991
9556322,Spanish,2002-04-27T13:18:36,Sri Lanka,mai,68.542159,Grob-Kaiser,CH,30.226574
17773,Finnish,2021-07-08T20:06:51,Nicaragua,szl,-13.489251,Ackermann Ltd,CH,-30.800267
3533754,Yiddish,1978-08-05T04:34:16,Republic of the Congo,ja,72.852690,Peter-Stalder,CH,52.6302285
64684,Corsican,2019-04-16T14:41:45,Slovakia,yi,-113.101571,"Wyss, Albrecht and Bär",CH,-79.997832
21866,Oromo,1982-03-13T07:36:29,Rwanda,ug,-88.716910,Hartmann-Schaub,CH,-80.4369585
682,Chichewa,1983-05-11T08:42:24,Serbia,sd,-50.716883,"Maurer, Leu and Zbinden",CH,-36.939206
92,Bashkir,1984-03-14T01:34:20,Spain,es,-40.940642,Lustenberger Inc,CH,10.907583
18008,Nauru,2017-12-20T01:53:34,Mali,ml,24.525679,Stöckli PLC,CH,-35.285259
4580,Fulah,1976-07-26T08:18:38,Japan,fil,-78.044926,"Lang, Hürlimann and Fankhauser",CH,-29.159075
634,Zulu,1974-06-10T14:59:32,Paraguay,ja,33.716250,Jost-Stucki,CH,-61.006277
1610,Samoan,2013-12-04T09:11:10,Chile,ko,-76.000756,Stutz and Sons,CH,-0.6805505
8596204,Malayalam,2015-03-30T11:27:38,Uganda,ta,-150.014588,Gerber-Frei,CH,-14.312758
20,South Ndebele,2007-08-04T10:42:56,Kingdom of the Netherlands,ur,50.830839,"Gasser, Mayer and Bader",CH,-56.610791
936,Romansh,1998-05-07T16:39:03,Myanmar,ja,-12.778184,Steinmann-Bühler,CH,33.3838935
42920271,Spanish,1992-05-05T23:15:28,South Korea,ln,20.861892,Betschart-Beck,CH,-64.743005
5001,Kirghiz,2015-07-09T21:25:30,Indonesia,iu,2.187834,Gloor-Mäder,CH,17.4075305
57311587,"Sotho, Southern",2010-04-09T07:20:12,New Zealand,ff,-90.026963,Hirt-Thommen,CH,-16.9918825
23,Indonesian,1982-02-16T04:44:56,Papua New Guinea,km,61.374800,"Knecht, Bühler and Kaiser",CH,-86.8255655
9729,Croatian,1984-06-07T22:24:19,Eritrea,sat,59.445431,Schürch-Felder,CH,-84.5994675
862000871,Hebrew,1982-05-16T08:35:36,Bhutan,mn,-1.533958,Koch-Marti,CH,-11.762818
183,Pushto,2011-01-10T22:06:47,Algeria,kn,-163.836517,Hofmann Ltd,CH,43.332792
924,Chinese,2017-09-28T03:26:35,Fiji,nds,-40.543659,"Steiger, Bachmann and Kern",CH,-38.5737375
58,Persian,1987-11-12T13:21:53,Iceland,ast,14.857721,"Zingg, Berger and Tanner",CH,62.200863
98742,Bambara,1982-06-13T13:34:33,Nepal,id,169.104592,Felder LLC,CH,22.3030225
53,Ewe,2023-04-30T12:20:27,Austria,ml,-166.712966,Eugster LLC,CH,46.7051705
440112,Kazakh,1979-11-28T00:39:52,Switzerland,hsb,-46.293235,"Meier, Zürcher and Lutz",CH,39.8586915
249,Chamorro,1987-01-08T13:20:59,Republic of Ireland,ak,-41.592438,"Marti, Eugster and Hofstetter",CH,75.5696745
5,Malay,1995-08-06T16:22:35,Russia,da,-52.739759,Weber Ltd,CH,58.623426
892109289,Sindhi,2022-10-30T21:31:27,Bangladesh,iw,141.714913,"Hirt, Fuchs and Jost",CH,-41.0643905
298598120,Gaelic,2009-11-20T08:27:25,Costa Rica,et,37.109445,"Felder, Moser and Arnold",CH,22.636303
12,Herero,1975-07-02T21:21:51,Mauritania,gd,-44.577393,Mayer Ltd,CH,-47.416503
7560,Afar,1996-09-26T06:30:47,Poland,gl,90.436116,Favre-Moser,CH,45.4117505
75,Marathi,1976-05-18T21:40:00,Nauru,ast,128.057103,Wolf Group,CH,84.5320155
20286532,Northern Sami,1982-12-19T01:56:39,Lebanon,wa,173.667270,Felber-Graf,CH,-63.043780
30789120,Uighur,2010-09-23T16:59:11,Chile,vi,-51.193595,Felber-Stauffer,CH,-49.055117
541569585,Bambara,2008-02-17T13:48:33,United Kingdom,mk,138.860178,"Ernst, Hauser and Ziegler",CH,64.997390
54854,Nepali,1999-12-27T02:59:32,Comoros,apn,52.987053,Kern PLC,CH,-51.467652
16451166,Urdu,2005-10-03T05:17:27,Kenya,st,101.929664,"Albrecht, Lüthi and Schnyder",CH,35.678337
259,Estonian,1988-03-13T14:31:10,Azerbaijan,dz,13.613189,"Kern, Siegrist and Braun",CH,-74.5696675
8971309,Spanish,1977-04-17T19:19:30,Vatican City,mhr,-35.918553,Vogel Inc,CH,-56.6997935
147138408,Faroese,1978-01-27T10:44:42,Gabon,os,125.095242,"Käser, Käser and Stalder",CH,81.1038085
4,Uzbek,2022-07-01T09:53:01,Indonesia,as,100.470640,Bucher Inc,CH,-59.778411
4599989,Amharic,2018-12-26T00:42:26,Greece,wo,-6.614526,Bernasconi-Kuhn,CH,73.257931
0,Kazakh,2015-03-15T15:50:29,Venezuela,ur,-52.532896,"Weibel, Beck and Roos",CH,-15.2131415
20,Lingala,1980-07-28T15:53:03,Brazil,st,-142.623364,"Bernasconi, Schwarz and Baumgartner",CH,47.647991
0,Azerbaijani,2012-08-01T07:14:13,Vatican City,as,133.181954,Schwarz-Roos,CH,4.150181
5,Belarusian,2004-02-27T00:21:04,Iran,be,162.118076,Haas-Hofstetter,CH,22.6193535
58261317,Tigrinya,1981-09-07T12:48:39,Republic of Ireland,dz,128.772291,"Kuhn, Wettstein and Kälin",CH,28.381686
0,Basque,1989-07-06T19:53:23,Ethiopia,ia,-61.311846,Knecht-Blaser,CH,25.3028665
191306,Korean,1997-06-03T14:14:26,Nigeria,tcy,84.401539,Fehr-Wirz,CH,58.3064265
49475257,Aragonese,1989-09-17T21:50:25,Taiwan,ff,-95.240958,Amrein-Schwarz,CH,-47.2506885
2275,Lithuanian,2012-12-01T20:54:56,Comoros,fr,-102.766918,"Lutz, Probst and Kaufmann",CH,-26.187255
921371649,Church Slavic,1996-09-07T11:15:47,Cuba,ts,-113.236538,Kaufmann-Haas,CH,-79.9055225
3,Korean,1975-08-03T07:14:42,Colombia,sc,-46.890583,Vogel LLC,CH,-54.0446785
297326538,Kurdish,1986-12-19T23:22:55,Laos,pap,-100.161440,"Sigrist, Kaufmann and Mäder",CH,-82.5679735
954721564,Yiddish,1997-06-17T01:11:21,Uruguay,tl,121.541124,"Herzog, Steiner and Furrer",CH,16.264697
539967509,Bosnian,1972-08-14T07:01:58,Armenia,lv,-75.411030,"Schaller, Michel and Hunziker",CH,-35.6164035
1538819,Cornish,1990-06-15T20:32:49,Benin,ayc,28.480108,Schärer-Bucher,CH,86.319518
26909207,Tahitian,2007-10-09T05:08:22,Nepal,de,158.492554,"Huber, Blaser and Bosshard",CH,-0.5335955
32924,Chechen,1996-05-31T23:49:57,Cyprus,unm,-10.444919,Bader Inc,CH,-88.3345615
259147,Latvian,2022-11-14T09:03:13,Belize,quz,139.259324,"Lang, Hunziker and Meili",CH,-80.785283
1,Sanskrit,1991-01-15T14:40:29,Iran,bn,117.307829,"Iten, Käser and Meier",CH,-7.144618
818904,Komi,2011-04-24T03:03:35,Kazakhstan,gd,-96.002117,"Bader, Scherrer and Kaufmann",CH,-3.538963
75904,Croatian,2014-04-26T12:43:09,Peru,doi,34.849628,Graf-Imhof,CH,-64.468388
9581504,Sundanese,2007-04-10T02:42:31,Finland,ss,91.648225,Zürcher-Schuler,CH,-87.6070825
319103448,Sindhi,1995-12-15T18:56:25,Croatia,pt,61.668606,Bär Ltd,CH,-50.616651
39695421,Limburgan,1995-08-18T14:58:27,Nicaragua,hu,-51.962124,Kern Group,CH,-80.2723905
959,Oromo,1987-11-24T19:14:25,Liechtenstein,mni,93.468265,Schneider-Winkler,CH,56.3322865
906070431,Limburgan,2022-08-07T00:10:16,Mauritania,gl,-7.203875,Spörri Group,CH,-21.760468
9442813,Japanese,2021-12-23T19:16:28,Gabon,ayc,-176.554943,Ernst Ltd,CH,-45.609336
598,Hiri Motu,1974-12-03T04:57:10,Sudan,fy,-72.697351,"Gross, Meier and Egli",CH,53.9348985
5524596,Kikuyu,1974-04-11T01:22:19,United States,hu,-22.573130,Schaller-Stutz,CH,-83.1246035
802553011,Ganda,1994-08-09T16:50:47,Kyrgyzstan,mni,-71.697691,Zbinden Inc,CH,66.8735125
17914,Aragonese,2023-05-04T11:36:29,Sierra Leone,ht,-112.148695,Ott-Benz,CH,-86.925116
544,Ossetian,2006-03-14T12:31:12,Palau,mag,16.178191,"Eugster, Steffen and Maier",CH,60.5383255
186,Kanuri,1970-01-29T22:37:36,Saint Vincent and the Grenadines,os,-170.623823,"Bühlmann, Kaiser and Wolf",CH,37.779398
2,Central Khmer,1988-12-08T09:01:04,Nauru,pa,42.439798,Isler-Schwarz,CH,-38.692714
1396,Limburgan,2023-02-19T14:08:05,Venezuela,sk,-23.909521,Lang-Gross,CH,-53.305003
759,Swahili,2020-06-29T10:19:27,Nauru,mai,-119.908865,"Brunner, Schmidt and Wirth",CH,-83.2626495
617915,Sichuan Yi,2000-03-22T17:09:23,Dominica,ff,-179.009493,Frey Inc,CH,72.6656905
45204740,Gaelic,2007-12-16T17:29:12,East Timor,uk,6.027071,Seiler-Schärer,CH,55.132587
13048,Chichewa,2005-07-25T07:03:27,Guyana,dv,-125.321650,"Bader, Walter and Sutter",CH,37.359731
9497480,Dutch,1975-10-26T17:33:00,Malta,ps,80.890303,"Hürlimann, Studer and Amrein",CH,43.1380315
220,Slovenian,1986-05-19T00:54:57,Croatia,nds,143.560546,Merz-Sutter,CH,-21.9295865
360163,Kinyarwanda,2022-04-07T03:10:23,Tuvalu,mk,-79.817558,Hermann-Gloor,CH,61.243250
8092,Chechen,1972-12-29T09:12:34,United Arab Emirates,rw,-93.024837,Sigrist-Gfeller,CH,50.1323365
31923,Ido,2010-01-05T11:32:42,Latvia,sat,61.445457,Kaiser Inc,CH,69.7585115
9,Vietnamese,2007-12-27T14:50:22,Jamaica,lzh,-158.402876,Steiger-Keller,CH,-62.050162
3035,Pali,2001-03-29T07:53:13,Equatorial Guinea,tt,15.010880,Hafner-Hermann,CH,7.5440105
4501750,Central Khmer,1995-08-26T00:59:10,Belarus,rw,107.027872,Frick-Kälin,CH,41.7645105
166731,Avestan,2012-06-28T20:13:53,Cuba,ts,71.850423,Flückiger Ltd,CH,-78.878832
16,Central Khmer,1975-11-14T06:06:37,Azerbaijan,lb,-175.719759,Steiner-Siegrist,CH,38.7379275
11,Tagalog,2018-06-20T04:12:47,Republic of Ireland,mk,-73.535563,"Studer, Zingg and Schoch",CH,3.021607
2,Pali,2007-11-01T12:27:30,Moldova,raj,78.123972,"Näf, Baur and Knecht",CH,-48.0352095
70,Yoruba,1990-09-02T09:52:35,Peru,se,163.903927,"Sutter, Rüegg and Jäggi",CH,-56.635700
856669,Azerbaijani,2014-06-06T21:42:27,Kenya,bs,47.836305,Hartmann PLC,CH,-27.640022
7825,Korean,1993-03-24T18:42:43,France,af,-79.928608,"Gerber, Fuchs and Ritter",CH,78.293175
1,Catalan,1990-12-19T11:51:55,Latvia,unm,11.455249,Studer Inc,CH,-10.385162
253644059,Bengali,2020-07-28T09:02:24,Belarus,ak,-151.544073,"Hotz, Hirt and Wyss",CH,-7.154532
263,Aragonese,1982-02-11T07:55:05,Moldova,hu,44.076341,Brunner-Gasser,CH,37.7988955
1156,Divehi,1977-08-11T14:58:52,Syria,raj,-89.329864,"Studer, Staub and Schenk",CH,44.5562495
8228,Assamese,1982-08-26T22:16:19,India,ar,-109.008918,Vogel-Wirth,CH,9.244289
32,Fijian,1980-10-02T22:11:56,Guyana,lg,18.181414,Schumacher PLC,CH,-11.3521385
0,Galician,2011-11-17T09:15:03,Moldova,pa,-43.903601,Christen-Stalder,CH,-5.683543
6581,Avestan,1994-01-17T14:15:26,Dominican Republic,bhb,-147.761211,Ferrari Ltd,CH,-67.4947015
2669474,Finnish,1986-06-23T06:28:49,Saudi Arabia,sid,139.979840,Geiger Inc,CH,-47.8048475
828,Dzongkha,1996-09-29T11:46:35,Afghanistan,lij,-158.537485,Grob-Vogt,CH,62.037601
208802887,Wolof,1970-12-03T12:36:07,Suriname,ps,102.396683,Berger-Berger,CH,-31.929006
411272,Malagasy,1985-10-31T20:33:57,Maldives,ia,8.972365,Egger-Hotz,CH,-31.2991455
129727,Uighur,1980-12-06T20:46:35,Niger,dz,8.999976,Schaller-Marti,CH,32.158113
477,Shona,2001-03-23T10:37:58,Mongolia,my,-106.111981,Stöckli-Meister,CH,-72.725611
8365,Catalan,1973-09-17T03:20:55,Andorra,eu,35.546486,Hess Inc,CH,-4.4368625
493,Hausa,2022-04-04T01:43:03,Ghana,lzh,160.382069,"Vogel, Näf and Frick",CH,36.088349
29196,Luxembourgish,1983-02-23T08:05:35,Federated States of Micronesia,bo,-33.210563,Meyer-Sigrist,CH,42.4966395
908319,Latin,2002-07-19T04:51:23,Myanmar,brx,-72.962008,"Meister, Keller and Sidler",CH,-34.449829
67,Irish,2021-06-13T18:31:59,Israel,dv,174.266913,Rey Ltd,CH,-0.436385
9,Finnish,2023-05-10T02:44:51,Andorra,hne,92.847027,"Meili, Näf and Iten",CH,71.112468
32872850,"Sotho, Southern",1974-03-29T21:05:53,Benin,so,51.310679,Näf-Bühler,CH,-46.251228
4883,Esperanto,1972-03-27T10:52:43,Kazakhstan,ur,-126.907433,"Meister, Meier and Schwarz",CH,45.171838
47159201,Basque,2005-02-10T01:40:27,Nigeria,hak,134.158982,Maier and Sons,CH,57.151982
284084964,Finnish,1982-05-13T18:58:59,Serbia,wa,-152.763459,Thommen-Stocker,CH,23.4396025
90733,Chinese,1996-09-13T01:06:45,Cyprus,an,167.482070,"Bucher, Burri and Tobler",CH,62.851658
3773,Panjabi,1974-08-26T15:38:42,Mozambique,fo,52.017918,"Gut, Thommen and Siegrist",CH,-66.0148415
81712,Sindhi,2005-06-17T23:48:46,Guyana,nds,-16.048851,Schaub Ltd,CH,-76.4032315
68884425,Kanuri,1973-08-27T20:50:52,Montenegro,an,-27.727430,Scheidegger-Pfister,CH,77.551209
642,Hausa,1980-03-25T15:31:58,Maldives,shs,-163.592942,Stadelmann LLC,CH,-39.7370605
3,Kashmiri,1975-07-02T12:48:46,Iceland,yi,33.249308,Jost-Albrecht,CH,76.091802
0,Kinyarwanda,1999-03-27T16:28:50,Swaziland,sv,-58.772681,"Benz, Grob and Flückiger",CH,-22.266846
94819702,Amharic,1993-01-13T00:26:51,Belarus,cs,-48.312077,Steffen Group,CH,70.5481205
1352,Dzongkha,2019-09-08T08:00:09,Bangladesh,mt,40.321724,Meili-Stucki,CH,36.7843535
11137,Cornish,2008-01-01T17:11:44,Maldives,sid,54.396494,"Schaub, Haas and Kägi",CH,57.116344
4910,Lingala,2008-01-16T08:19:08,South Africa,iu,30.867043,Frey-Christen,CH,69.5918665
1557,Abkhazian,1993-09-04T01:48:55,Kazakhstan,doi,-47.025691,Favre-Kuhn,CH,-81.948121
40911850,Gaelic,2019-06-11T13:42:40,Democratic Republic of the Congo,bn,-4.814521,"Graf, Gasser and Bernasconi",CH,-83.4818375
1545351,Thai,2016-04-14T21:22:10,Senegal,es,6.254617,Hodel and Sons,CH,-4.1759285
538035741,English,2015-10-06T15:00:39,Burundi,ko,76.474883,Schuler-Jost,CH,75.4641395
8882956,Amharic,1984-05-10T16:14:55,Greece,hu,-60.077891,Kohler PLC,CH,-87.6327115
916254,Walloon,2018-06-12T21:20:47,Libya,fil,162.761032,Schwab-Herzog,CH,-55.937335
454,Chechen,1988-07-08T14:20:04,Brunei Darussalam,st,44.945935,Stutz-Wehrli,CH,74.6425325
65015,Nauru,1980-05-05T22:05:07,Togo,ckb,78.239993,Lüscher LLC,CH,-57.773826
8443527,Kazakh,2006-10-25T09:59:01,Sri Lanka,uk,-87.640043,"Schmidt, Graf and Schärer",CH,-35.8025685
7310503,Urdu,2005-08-13T15:20:41,Rwanda,om,158.407409,"Hafner, Graf and Felber",CH,19.213695
9476773,Urdu,1981-05-12T14:17:13,Mongolia,ml,-0.478656,Wehrli-Schnyder,CH,-17.8374835
218311,Gujarati,1983-12-25T12:55:18,Bahamas,apn,-93.732214,Stadelmann and Sons,CH,22.588834
256,Ewe,2003-12-18T20:15:09,Moldova,ms,176.155007,"Fankhauser, Michel and Näf",CH,-17.7780555
343811,Pushto,2016-03-05T06:38:43,Saint Lucia,gu,150.981556,Seiler Ltd,CH,-61.5360095
3745722,Limburgan,1990-12-09T09:55:32,Republic of the Congo,se,94.075722,Walter-Gerber,CH,18.068075
2,Walloon,1984-01-22T03:58:38,Belgium,gu,78.929812,"Stettler, Leu and Tobler",CH,-50.4611035
791057856,Inupiaq,2017-10-27T20:50:56,Finland,lo,18.081590,"Walder, Stocker and Knecht",CH,-59.079692
41,"Sotho, Southern",1983-06-05T18:01:10,Republic of Ireland,sk,153.773105,Stutz-Schneider,CH,87.871271
709,Sinhala,1989-07-11T05:30:48,Argentina,ps,-143.476755,"Maier, Hofstetter and Baumgartner",CH,-55.0457045
6,Navajo,1973-04-03T01:19:27,Israel,ms,-25.699830,Käser and Sons,CH,-44.0245265
2,Ido,1999-05-09T19:23:07,Iraq,ca,15.944650,Scherrer and Sons,CH,23.5125625
8102,Slovenian,1974-05-11T20:54:45,Bahrain,brx,166.495033,Geiger-Kägi,CH,-74.554136
1,Tibetan,1979-11-15T10:00:01,Suriname,kn,-46.384409,"Martin, Marti and Wagner",CH,-5.102073
80052809,"Sotho, Southern",1999-03-19T15:29:44,South Korea,bo,154.584795,"Meyer, Schürch and Hofstetter",CH,-17.6271395
49,Danish,1985-10-05T22:19:18,Nigeria,tn,127.482292,"Kuhn, Kuhn and Merz",CH,-5.1152705
161281,Divehi,2001-03-10T05:59:23,Austria,nan,10.620289,Probst Group,CH,11.5416365
60,Gaelic,1987-05-22T02:42:04,Bhutan,ti,-179.442963,"Baumgartner, Tobler and Lanz",CH,-11.055413
76,Chechen,1993-09-10T12:56:01,Uruguay,bo,61.679360,Blaser-Wolf,CH,87.707884
989221802,Central Khmer,1998-03-07T23:16:02,Vietnam,hy,-141.705242,Küng Inc,CH,-76.0810355
46541579,Luxembourgish,1992-03-04T14:46:01,Maldives,bem,82.607489,Ritter-Wehrli,CH,-78.4089995
833538,Interlingua,1975-11-04T03:17:55,Canada,sid,8.445553,Ritter Inc,CH,0.8125115
15995140,Yoruba,1993-03-24T02:04:38,Ghana,gez,-163.232352,"Hasler, Kägi and Bühler",CH,-88.882223
24,Zhuang,1980-03-05T09:45:08,Madagascar,he,36.172050,Stauffer-Bucher,CH,58.3110045
99,Oromo,2017-09-17T16:25:00,Palau,br,-159.760509,"Schaub, Fehr and Fuchs",CH,5.438241
682761168,Galician,2015-03-23T23:18:52,Mauritania,ht,-24.448897,"Frick, Ott and Ott",CH,-60.983404
4672,Vietnamese,1985-12-01T02:59:19,Bolivia,am,9.667110,Keller-Kessler,CH,16.077903
523,Divehi,2019-01-09T13:57:56,Guatemala,ht,149.547236,Erni-Baur,CH,85.4014455
172,Venda,1975-11-04T12:35:58,Bahamas,tn,151.213921,Maier-Sutter,CH,-40.9181225
4,Kashmiri,1988-10-21T00:13:07,Haiti,lb,-10.805073,"Favre, Maier and Schäfer",CH,53.8125215
5,Turkish,1981-06-11T10:08:51,Malawi,aa,-86.761972,Näf-Braun,CH,60.7902095
35999,Tahitian,1979-11-04T19:35:08,Lesotho,the,52.105461,"Kuhn, Meier and Portmann",CH,60.9110455
61,Chamorro,2001-11-22T04:46:58,Brazil,vi,121.870157,Beck PLC,CH,24.3295425
342756425,Mongolian,1998-09-16T23:13:00,Mauritania,rw,-109.488766,"Sidler, Kunz and Stöckli",CH,-33.716253
7,Sichuan Yi,1995-04-21T23:13:10,Zimbabwe,wo,162.601777,"Aebi, Frick and Jost",CH,88.653721
6825,Kannada,1990-01-27T00:12:43,Panama,el,171.539668,Schlatter Ltd,CH,6.5677395
75673,Wolof,1998-02-20T16:02:04,Tonga,sl,-5.446193,Schmidt-Albrecht,CH,64.3042185
718,Abkhazian,1982-03-18T14:03:32,Kingdom of the Netherlands,or,170.620205,Stucki Ltd,CH,-12.260925
416,Interlingue,1976-12-21T18:47:56,Qatar,te,14.997218,Wenger LLC,CH,-5.145726
7737735,Hungarian,1975-06-10T06:08:30,Belize,zh,-112.136527,Steinmann Group,CH,-69.907317
1084269,Danish,2018-03-28T05:37:00,Guinea,nb,-3.921112,Baur LLC,CH,76.0258445
41520312,Hebrew,2011-10-24T07:17:29,Jordan,ber,25.615363,Schwab-Thommen,CH,73.6550275
55970012,Chuvash,2011-10-20T15:29:45,Andorra,mg,-30.883569,"Vogt, Kern and Winkler",CH,38.288588
3,Kuanyama,2018-11-26T22:06:39,Moldova,km,174.986124,Betschart-Schnyder,CH,58.544390
45369,South Ndebele,2017-05-06T05:04:13,Turkey,ms,-78.597135,Wolf-Frei,CH,6.9373635
733,Avaric,2003-10-09T05:48:47,Philippines,vi,-94.032100,Kern Group,CH,-78.485765
1582,Igbo,2005-10-26T20:13:44,Finland,mag,53.678477,Bucher-Martin,CH,24.6333815
345,Kalaallisut,1989-09-19T12:31:28,Uzbekistan,hne,-62.616415,Sutter-Stutz,CH,-20.901071
189,Breton,1984-12-08T20:41:27,Eritrea,si,-100.890665,Stutz Inc,CH,57.556077
84103592,Manx,2013-11-11T23:46:27,Comoros,sq,-177.534583,Hauser LLC,CH,14.3324685
701948113,Dutch,1974-05-29T08:17:04,Kyrgyzstan,fur,141.518601,Suter-Ott,CH,8.465774
960443174,Italian,2007-06-18T19:16:13,Ecuador,or,-42.759484,Forster Ltd,CH,-12.865455
70203,Marshallese,2016-09-11T10:17:09,Italy,gu,-98.438467,"Meyer, Steffen and Kuhn",CH,5.7182805
4,Burmese,1987-01-30T12:33:06,Ukraine,ts,-39.782010,Vogel-Walter,CH,42.8560725
5,Xhosa,2017-12-08T22:59:45,Paraguay,uz,3.719985,Fehr-Sigrist,CH,-36.7996605
6705312,Tatar,1983-10-05T15:40:08,Switzerland,iw,172.344675,Stalder-Stöckli,CH,-49.499474
358284575,Latvian,1970-08-03T17:00:32,Equatorial Guinea,fi,-7.088138,Giger-Kessler,CH,-28.638281
95516,Fijian,1989-12-06T12:03:10,Malawi,ku,167.698225,"Tobler, Huber and Schoch",CH,-3.5404975
91,Tonga,2004-09-12T17:01:02,France,ve,148.567719,"Mettler, Friedli and Kohler",CH,79.331144
3,Hiri Motu,1996-03-03T06:03:42,Germany,ru,-44.195301,Fehr-Bieri,CH,40.0658895
601,Samoan,2013-11-07T03:07:27,Marshall Islands,sk,-27.994112,Schweizer-Scherrer,CH,-5.1274635
9,Persian,1990-03-12T01:12:00,Laos,csb,-148.136119,Kuhn Ltd,CH,-64.568849
22969451,North Ndebele,2003-05-18T02:10:52,Hungary,ve,-45.686023,Iten LLC,CH,-35.142855
751729,Spanish,1990-12-30T18:44:18,Federated States of Micronesia,br,-174.157370,Kälin-Schwarz,CH,-53.7286075
2,Chamorro,1975-01-14T15:35:18,Greece,ks,84.540643,Leunberger and Sons,CH,28.2989915
24676563,Chuvash,2006-02-01T04:51:55,Algeria,mg,56.333411,Senn PLC,CH,-23.968423
95,Pali,1983-09-21T15:39:56,Gabon,apn,-100.669214,Hotz Ltd,CH,19.8569125
5771000,Turkmen,1982-07-07T15:31:29,Taiwan,ha,-49.846439,Bär-Kägi,CH,-80.134722
46,Chechen,1996-11-20T12:25:16,Brunei Darussalam,si,-166.320229,"Gloor, Hauser and Friedli",CH,-87.6836645
959098692,Swedish,1988-07-27T19:33:35,Bulgaria,sa,-159.373747,Betschart-Stutz,CH,-19.942599
719,Hiri Motu,2006-05-09T01:50:51,United Arab Emirates,crh,171.995030,Brunner Ltd,CH,42.419562
202837,Spanish,1992-07-10T18:56:02,Uruguay,af,-89.209157,Fuchs PLC,CH,-59.5264345
67384319,French,2022-01-08T00:53:13,Botswana,ar,157.560514,"Flückiger, Walter and Gerber",CH,-35.0927075
202,Navajo,1988-10-05T11:49:55,Moldova,kw,-48.979329,"Furrer, Steinmann and Iten",CH,-50.2829865
4673255,Pushto,1994-07-25T23:06:15,Jordan,dv,-89.725836,"Bühler, Käser and Ammann",CH,33.593284
71,Ganda,1993-02-08T11:02:10,Slovenia,csb,-126.899468,"Haas, Gut and Bär",CH,-60.169734
91,Maori,2003-11-27T17:39:51,Belgium,se,-66.137456,Steffen-Favre,CH,49.682738
74298,Bashkir,2003-01-02T05:16:21,Philippines,hr,174.353256,Suter-Schwab,CH,22.232484
2176,Luba-Katanga,1998-09-14T10:56:15,Ethiopia,nds,-109.447340,"Isler, Seiler and Fuchs",CH,87.744637
294,Galician,1979-05-13T15:10:32,Sri Lanka,wae,20.503778,Kuhn Inc,CH,23.2416595
1827523,Zhuang,2014-06-09T05:56:17,Honduras,ky,88.402400,Kern-Furrer,CH,69.741658
3,Marshallese,1980-12-02T13:02:53,Maldives,ss,-92.207773,Erni Ltd,CH,-17.472083
5232403,Zhuang,1976-11-08T16:52:25,Nigeria,da,-10.645158,Martin Inc,CH,-70.1053185
99960,Limburgan,2014-09-08T12:11:57,Yemen,lo,133.135052,Stalder-Kunz,CH,38.808816
135,Nauru,1980-01-10T03:51:57,Kyrgyzstan,kok,112.225051,Mayer-Stauffer,CH,33.675061
51276,Kikuyu,2014-06-19T00:20:55,Cape Verde,hsb,-5.573410,"Christen, Baumann and Wagner",CH,-71.6038675
91778674,Bashkir,1998-08-09T12:14:56,Belarus,th,3.862229,Blaser-Sigrist,CH,-18.679239
38058278,Inuktitut,1988-04-23T23:43:17,Vietnam,st,123.277813,Blum Ltd,CH,-83.774546
81,Inuktitut,1972-09-22T04:13:55,Iraq,bhb,38.736377,Wyss PLC,CH,-46.621652
7,Twi,2004-10-17T01:23:47,Palau,ti,88.002841,Berger LLC,CH,74.6746405
773461,Tswana,2012-05-04T11:13:02,Guyana,ms,-24.191334,Schumacher Inc,CH,72.1166855
541,Inupiaq,1970-11-30T05:05:27,The Gambia,ce,61.039444,"Bühler, Lang and Graf",CH,61.3394405
17515,Hindi,2010-03-21T02:56:53,Japan,sa,160.993271,Schürch-Schneider,CH,-2.284500
29966,Panjabi,2006-03-21T00:47:06,Comoros,fy,71.830732,"Aebi, Stalder and Graf",CH,-39.8674285
32,Kuanyama,1981-09-26T04:39:40,Syria,ar,61.161423,Steiner-Burri,CH,12.0408215
8684,Quechua,1986-03-28T15:14:26,Botswana,mk,1.401652,Schwab Ltd,CH,58.475494
4685838,Tajik,1984-01-06T14:57:46,Cyprus,km,-59.940393,"Vogel, Mayer and Hug",CH,-8.772058
6775,French,2011-07-29T09:53:19,Mongolia,the,80.748050,Rüegg and Sons,CH,-10.8635655
317,Shona,1990-05-17T00:55:23,Albania,dv,84.567069,Friedli-Bader,CH,51.2620775
105256,Malayalam,1996-01-22T12:22:49,Samoa,kl,-24.976306,"Wyss, Zingg and Seiler",CH,84.3526285
1811,Thai,1984-05-13T13:53:54,Seychelles,ber,126.885232,Scheidegger-Leunberger,CH,-41.005163
5760,Portuguese,2015-03-29T13:28:21,Marshall Islands,as,-42.282733,Wüthrich PLC,CH,2.146890
92219,Fulah,2019-10-23T21:19:41,Albania,ber,132.643784,Tanner-Flückiger,CH,-46.8418815
3026711,Northern Sami,2011-12-23T12:59:33,Mali,sr,-138.080198,"Ritter, Bernasconi and Ziegler",CH,63.9153115
440,Komi,2023-04-17T05:10:35,Jordan,de,-66.806236,Friedli-Widmer,CH,3.7820845
7140837,Macedonian,2000-06-20T19:22:23,Norway,xh,135.713769,Egli Group,CH,-37.309664
649,Azerbaijani,2010-12-10T14:10:51,Honduras,crh,-2.248021,Leu LLC,CH,-10.1017295
2418,Tahitian,2006-01-20T09:01:49,Bahrain,cy,-0.744240,"Keller, Jost and Käser",CH,34.512184
743123238,Ewe,1978-02-19T07:47:23,South Africa,ar,14.147903,Zürcher Group,CH,-3.489454
46,Serbian,2002-09-30T17:29:20,Iraq,en,89.081035,"Steiger, Siegrist and Grob",CH,75.8386405
80,Turkmen,1990-04-17T16:17:05,Turkmenistan,ht,73.312437,Eugster-Forster,CH,11.990245
67,Welsh,2021-09-14T17:57:06,Kingdom of the Netherlands,eo,22.083221,"Aebi, Schnyder and Ziegler",CH,-40.9272095
842944138,Norwegian,2013-04-29T20:35:01,Portugal,am,-122.325557,Kaiser PLC,CH,87.792926
75508067,Pushto,2022-08-11T17:52:56,Brazil,hy,-3.384628,Zingg-Steiger,CH,39.986881
6,Javanese,2014-05-13T04:57:26,Monaco,wal,-87.484489,Imhof-Stadelmann,CH,-42.127640
5224,Uzbek,1972-07-12T02:07:53,Bahamas,lb,52.289155,Zehnder LLC,CH,29.8232275
21026,Irish,2020-05-23T17:39:26,Palestine,af,75.085943,"Lutz, Fehr and Steiger",CH,-34.3042545
62,Haitian,2011-07-21T01:47:33,Angola,ja,6.699143,Imhof-Arnold,CH,-7.7091445
61965685,Hiri Motu,2020-12-05T14:48:11,Singapore,ve,41.456726,Hafner-Stocker,CH,-0.2491905
83414,Kashmiri,2007-08-25T23:04:12,Saudi Arabia,tn,-50.474056,Hofstetter and Sons,CH,-67.288387
963286643,Rundi,1988-04-14T12:30:13,Comoros,tcy,-141.478067,Wehrli Ltd,CH,71.549911
7986077,Vietnamese,2010-01-18T09:28:43,Libya,da,-130.896194,Senn PLC,CH,29.3371975
24667844,Ojibwa,1998-09-30T12:56:20,Tanzania,yi,-126.444198,Eichenberger-Schnyder,CH,-82.909828
40724,Romanian,1998-04-25T07:34:40,Grenada,li,152.746224,Wegmann-Betschart,CH,74.225124
622000,Ossetian,1993-10-31T22:02:08,Somalia,oc,35.682407,Walter-Wüthrich,CH,70.5940095
8687,Swahili,1990-08-22T18:38:37,Pakistan,se,41.801067,"Meier, Bär and Kohler",CH,-81.777092
4448,Zulu,2018-08-03T19:34:15,India,fy,54.192907,Hug PLC,CH,38.303063
383140661,Chuvash,2017-08-10T19:44:02,Burundi,ga,-179.368745,Egli Group,CH,78.6305235
7,Chinese,2013-10-12T18:36:15,Mongolia,cv,44.590997,"Müller, Fuchs and Sutter",CH,-23.6051895
39797258,Welsh,2018-07-30T10:14:37,Bolivia,ha,79.749471,Roos LLC,CH,-8.298484
735364,Faroese,1989-02-26T23:20:55,Djibouti,xh,-78.504206,Meier-Schlatter,CH,73.738184
9910349,Afar,1976-04-27T12:44:07,Seychelles,ru,0.666974,Vogt LLC,CH,-27.273219
394636,German,1985-12-26T01:43:58,Bulgaria,cs,-133.890254,Stalder-Kunz,CH,68.7093275
438245,Norwegian Nynorsk,1984-05-04T11:36:20,Pakistan,ka,122.002538,Martin-Zehnder,CH,-28.760799
48,Assamese,2009-02-06T09:53:55,Solomon Islands,ko,-164.388253,Stocker LLC,CH,79.672579
2132,Rundi,2011-10-10T14:13:22,Liechtenstein,bhb,40.359852,"Zollinger, Sigrist and Hofer",CH,-8.467095
68854917,Malagasy,2009-07-27T17:53:40,Myanmar,fy,13.187984,Schäfer-Jost,CH,-48.2247775
724,Armenian,1992-10-18T18:12:44,Serbia,ce,88.797062,"Käser, Kessler and Huber",CH,87.5461675
839353,Zulu,1997-05-07T08:19:16,Montenegro,nhn,118.473930,"Bucher, Siegrist and Sidler",CH,44.4835025
53517,Sichuan Yi,2002-04-22T13:55:31,Nepal,lt,-15.650420,Scherrer and Sons,CH,40.132116
58806517,Hindi,2009-01-21T00:02:16,Niger,fo,-72.576719,"Zingg, Fehr and Meier",CH,-34.2649715
5437691,Swati,1970-06-08T14:19:48,Bahamas,mni,-39.941748,Näf Ltd,CH,9.7582275
7437929,Dzongkha,1979-09-17T14:44:21,Estonia,ml,-149.973090,Lang-Aebi,CH,-1.9167745
128948850,Kashmiri,2022-10-10T02:36:38,Madagascar,sd,-135.187724,Walter LLC,CH,17.8410515
580,Latvian,2007-04-04T06:41:07,Laos,tg,126.490553,Ott Ltd,CH,64.1847085
90377744,Thai,2009-12-20T22:38:48,Democratic Republic of the Congo,dv,-50.934639,Ferrari-Hermann,CH,-14.011938
1311452,Afrikaans,2015-12-29T22:30:42,Moldova,si,-134.323399,"Steiner, Baumann and Kern",CH,-10.9903025
86292,Arabic,1993-01-31T08:06:15,Sri Lanka,et,95.653516,Meyer-Felber,CH,9.3903155
59804,Korean,1988-11-15T06:33:40,Chad,mni,100.316366,Pfister Inc,CH,-86.9816985
2,Catalan,1974-05-14T23:32:34,Cyprus,yue,1.300084,Bühlmann PLC,CH,-17.9742075
101986929,Hebrew,2012-01-29T23:31:27,Nigeria,yi,159.175580,"Ziegler, Schuler and Lüthi",CH,71.498115
63940533,Persian,2020-10-31T20:55:33,Namibia,mai,-104.131603,Felber-Furrer,CH,88.102167
38000,Luba-Katanga,2008-06-21T03:03:11,Belarus,tt,0.809434,Brunner and Sons,CH,-2.053322
777643,Bambara,1981-05-05T20:17:47,Latvia,bs,-61.311154,Wirz-Hermann,CH,-74.4063895
1,Catalan,1985-11-09T04:04:54,Montenegro,nn,112.974612,"Schärer, Maier and Baumann",CH,4.9279985
239857884,"Sotho, Southern",2010-06-22T15:16:26,Paraguay,nn,103.250336,"Kälin, Schär and Weber",CH,73.4179995
985749,Kalaallisut,2009-02-03T04:18:48,Uganda,id,-57.322216,"Seiler, Hermann and Hofstetter",CH,16.0714905
6025,Norwegian,2009-10-22T18:38:48,Peru,mi,-36.265680,"Näf, Wettstein and Gross",CH,-22.3399535
80373278,Kanuri,1977-08-30T21:21:35,South Korea,az,-114.720389,"Baur, Kessler and Hotz",CH,69.4868055
2223251,Aymara,1997-05-15T11:33:36,Togo,unm,-141.489628,Fuchs Group,CH,52.1811025
78,Tonga,1974-12-25T15:02:10,Iran,ro,-63.177923,Grob-Schaub,CH,41.4529705
284,Hiri Motu,2008-11-21T17:02:40,North Korea,pl,6.595696,"Hug, Leu and Müller",CH,82.0162235
7,Guarani,2012-01-02T02:56:08,Burkina Faso,kn,-138.192094,Albrecht LLC,CH,75.033721
9412,Tsonga,1990-02-03T03:54:29,Cyprus,mr,-120.125357,"Leunberger, Küng and Keller",CH,15.5532425
351,Abkhazian,2017-11-23T05:54:54,Cambodia,nso,-15.712515,Gut-Schmid,CH,-35.860007
71,Marathi,2006-01-23T02:49:48,Vatican City,ja,129.055179,"Bättig, Schäfer and Gerber",CH,15.4200255
362797201,Sinhala,1999-06-09T06:07:36,South Korea,uk,-105.094734,Seiler and Sons,CH,-32.144831
603,Wolof,2021-08-22T09:42:55,Poland,gu,128.950394,Kaufmann-Maurer,CH,-15.6138025
56592,Hiri Motu,1992-07-02T01:34:57,Honduras,bo,-136.399608,"Mettler, Vogt and Schneider",CH,-28.7988665
86539,Akan,1975-03-21T13:49:52,Iran,sr,-15.981706,"Kuhn, Schumacher and Lüscher",CH,-34.099421
791205,Guarani,1995-12-13T13:24:30,Myanmar,az,-142.835665,Schaller Group,CH,-85.895537
7040530,Yiddish,1982-07-22T21:02:33,Bahrain,nb,-68.186993,Albrecht Group,CH,78.5061335
6,Malay,2019-02-22T12:14:48,Chile,bo,-1.679168,"Näf, Schweizer and Weber",CH,11.863686
22,Marathi,2006-05-15T16:21:55,Togo,kok,43.463959,"Schmidt, Vogel and Jäggi",CH,86.3192795
46288685,Herero,1975-04-28T01:28:00,Finland,as,80.685158,Kern-Tobler,CH,-38.1520575
22,Church Slavic,1997-09-08T18:39:42,Nauru,niu,-171.848717,Mettler Ltd,CH,72.8132025
730,Basque,1976-07-03T10:44:47,Germany,csb,27.300104,Wolf PLC,CH,-70.5835635
65647,Kirghiz,2001-05-30T12:10:43,Brunei Darussalam,wae,-64.996708,"Wirz, Bättig and Frick",CH,-65.9107805
6,Walloon,1984-01-04T23:27:44,Cyprus,eo,-108.960506,"Giger, Stettler and Stutz",CH,-55.703507
893153,Breton,2016-02-14T08:19:56,Cyprus,lv,75.842125,Roos-Meier,CH,-45.5278755
216009265,Romanian,1986-04-19T13:24:03,France,xh,-127.287712,"Ferrari, Merz and Jenni",CH,49.9192445
750296916,Sundanese,2018-05-19T05:57:43,Palestine,gv,-117.855847,Tobler-Weibel,CH,23.2724135
98893619,Polish,2017-07-25T03:38:09,Djibouti,mhr,102.493911,Senn Inc,CH,-54.1590205
136996,Walloon,1985-12-16T14:17:07,Serbia,ps,-91.597249,Maier-Lang,CH,-71.056381
18,Limburgan,1978-06-28T11:30:21,Venezuela,niu,-101.207434,"Schmidt, Hotz and Schweizer",CH,72.700421
43624355,Assamese,1977-07-21T19:51:14,Sudan,eu,72.234671,"Hug, Ziegler and Benz",CH,-74.600319
9,Marshallese,1995-11-11T13:50:46,Comoros,ur,-39.739274,Kessler and Sons,CH,53.1741065
9,Macedonian,1987-01-26T04:38:19,Nauru,gu,-86.424393,Wüthrich PLC,CH,-48.0619645
809700,Ossetian,2021-03-21T15:23:45,Seychelles,ur,-157.003677,Müller-Suter,CH,-52.635897
913301040,Guarani,1975-05-09T04:21:03,Moldova,li,-49.226022,Bühler Group,CH,-22.835790
739435127,Ndonga,2015-11-08T20:05:20,Suriname,aa,11.622204,Herzog Inc,CH,46.6348865
5325397,Inuktitut,2006-01-21T08:32:45,Venezuela,de,-134.601097,"Senn, Maurer and Felder",CH,-18.9650275
2025,Russian,2014-11-10T04:01:13,Vanuatu,an,-26.726796,"Baumann, Stauffer and Christen",CH,-31.928939
8303463,Lithuanian,1972-10-07T20:14:46,Liberia,se,-116.439623,"Forster, Bucher and Lustenberger",CH,88.7905765
591273,Italian,1991-10-27T02:52:57,Rwanda,az,-104.551368,"Forster, Vogt and Mayer",CH,53.2416995
137526,Tibetan,2020-11-26T06:48:12,Belarus,ckb,19.966659,Hoffmann and Sons,CH,52.768001
727,Walloon,1974-01-24T12:18:52,Nicaragua,tk,153.187428,Zehnder-Michel,CH,62.6951875
5932494,Pushto,1978-10-08T05:11:35,Uruguay,brx,86.455434,"Huber, Schnyder and Wyss",CH,18.073855
1301868,Hausa,2010-02-01T05:16:03,Norway,kk,-164.136388,Brun-Gasser,CH,-38.3370905
7,Chinese,2014-07-23T05:20:45,Uruguay,ks,13.651064,"Baumgartner, Meyer and Steiner",CH,-12.9583375
87300,Bashkir,1997-08-30T12:24:04,Philippines,ve,-15.221285,Hofstetter-Sutter,CH,-84.359795
947947970,Komi,2007-06-17T23:20:55,Romania,af,110.297667,Gerber Group,CH,8.797960
6183,Hungarian,2013-05-30T22:30:48,Argentina,hak,-36.923253,Lang-Amrein,CH,75.2832035
67417960,Polish,1970-01-22T14:42:05,El Salvador,sl,87.064691,"Jenni, Schenk and Knecht",CH,49.830221
1304,Slovak,2015-10-05T07:40:08,Maldives,or,17.999446,Wirz-Braun,CH,82.7752955
633,Malayalam,2006-10-29T05:23:52,Seychelles,ast,-53.167669,Hauser Ltd,CH,29.7344095
920,Tibetan,1988-05-21T18:06:30,Libya,doi,139.938784,"Hodel, Gross and Erni",CH,-25.1070795
4093656,Shona,1974-01-13T03:48:38,Indonesia,nan,89.089148,Winkler-Beck,CH,-88.6029755
143850976,Avaric,1976-12-19T20:01:53,Morocco,se,-171.946802,"Egli, Zingg and Wagner",CH,-87.537490
3937338,Ewe,2018-12-25T23:23:49,Mongolia,se,122.699030,Hoffmann Group,CH,31.477575
976339,Azerbaijani,2006-05-30T02:42:27,Chile,se,21.046825,Stöckli PLC,CH,-36.9516515
1988784,Navajo,2005-12-11T19:08:42,Kuwait,lb,8.250276,Albrecht Inc,CH,70.1659295
24827,Latin,1999-03-19T21:53:56,Kingdom of the Netherlands,mi,69.569120,Furrer Ltd,CH,-50.0502945
2452,Ukrainian,2015-02-04T03:01:19,Latvia,tg,142.541316,Haas-Amrein,CH,-19.4845555
50,Hungarian,2012-06-19T04:34:20,Moldova,ca,-25.055732,"Ferrari, Frey and Bauer",CH,36.9788755
7002,Occitan,1989-10-04T06:08:12,Swaziland,si,179.064634,"Studer, Bachmann and Siegrist",CH,37.9805245
46,Burmese,2014-03-10T05:47:31,Indonesia,am,-135.452565,Schärer-Wegmann,CH,-36.539647
31508781,Gaelic,2019-04-05T13:06:06,Marshall Islands,ms,150.649563,Moser-Felber,CH,-47.3705995
599732,Sanskrit,1977-04-02T03:17:32,San Marino,km,-147.581463,Zehnder-Bühlmann,CH,-52.7709875
0,Tahitian,2010-11-18T13:55:25,Nepal,ja,47.245522,Schlatter-Egger,CH,20.752011
3,Azerbaijani,1987-06-27T10:21:44,Ghana,bn,-155.716429,"Schwarz, Kaiser and Furrer",CH,-1.840769
4262,Italian,2017-07-12T10:03:29,Kuwait,os,83.536795,Lüscher PLC,CH,65.5934705
482692354,Central Khmer,2017-09-15T04:01:38,Burkina Faso,bo,-125.772408,Zimmermann and Sons,CH,-71.3095975
51370,French,1976-04-08T09:55:40,Kingdom of the Netherlands,da,153.715916,Tobler-Egli,CH,-60.4027575
3849983,Turkmen,1997-08-28T18:36:46,Democratic Republic of the Congo,da,-68.315413,"Haas, Hess and Schwab",CH,-33.7812555
8,Central Khmer,1993-08-29T09:28:33,Panama,ti,-96.337257,"Walter, Aebi and Steinmann",CH,-88.046938
9895153,Slovenian,2000-07-27T00:20:15,Seychelles,gu,-72.225039,Bolliger-Albrecht,CH,-79.411505
74,Cree,1992-03-01T12:11:42,Indonesia,apn,127.993325,"Furrer, Favre and Lustenberger",CH,86.4470865
1,Vietnamese,1978-01-11T17:26:52,Saint Kitts and Nevis,nan,-175.452476,Seiler-Zollinger,CH,-61.098263
868543,Ewe,2004-02-15T02:26:07,India,kn,-162.044751,Wirth and Sons,CH,40.510605
476,Pali,1989-01-31T02:51:40,Jamaica,kl,-73.203320,Zimmermann-Spörri,CH,27.5731795
19,Turkmen,1997-01-28T05:44:23,United Arab Emirates,ky,144.620920,"Kälin, Hug and Felber",CH,-56.2777295
18969,"Sotho, Southern",1979-05-07T15:24:22,Slovakia,se,4.652267,Haas Ltd,CH,88.4437045
632953,Kirghiz,2013-01-18T21:29:37,Mauritius,zu,-39.881619,Brunner and Sons,CH,-9.409740
6434002,Western Frisian,1981-01-10T16:49:12,Azerbaijan,tk,159.593451,Siegrist PLC,CH,-21.236309
60988,Dutch,1998-05-15T01:36:38,Belarus,iu,102.007235,Moser-Schwab,CH,-57.886489
50424,Spanish,2016-10-19T02:43:19,Barbados,vi,90.816969,Herzog-Jost,CH,15.359933
295061915,Estonian,1971-02-16T02:20:16,Fiji,zu,156.816027,"Michel, Kaiser and Bader",CH,-33.4746485
8555462,Russian,1976-09-05T19:45:50,Guatemala,he,-153.946460,"Kaiser, Ferrari and Leunberger",CH,66.3243765
92,Samoan,2007-07-20T20:02:41,Jamaica,mi,161.005792,"Betschart, Schaller and Mettler",CH,-53.334206
69067485,Esperanto,2002-11-03T04:42:03,Costa Rica,cs,15.302699,Schärer-Wirz,CH,-75.845712
4099,Russian,1989-10-22T03:16:51,Guatemala,uz,130.854541,"Stocker, Schmidt and Schnyder",CH,44.167623
3,Macedonian,1971-01-18T20:29:44,Federated States of Micronesia,pa,-67.861113,"Rey, Rey and Blum",CH,-74.638377
437689,Tahitian,2016-03-20T21:29:28,Panama,km,-128.970614,Zingg-Martin,CH,-84.5981845
276165766,Marathi,1971-01-12T22:34:41,Luxembourg,ku,-71.372620,Furrer and Sons,CH,9.957200
10794058,Kazakh,1992-01-21T23:53:43,Guyana,bem,-22.994220,Bühler Inc,CH,-41.410167
496,Malagasy,1986-08-19T08:09:51,Jordan,kw,76.102906,Albrecht Inc,CH,26.473407
983581,Croatian,1986-03-13T09:15:37,Serbia,ug,-61.263825,"Schaller, Roos and Portmann",CH,-30.582061
85,Fijian,2005-10-28T06:54:30,Uruguay,ja,59.259285,Schneider Ltd,CH,71.823367
267,Sindhi,1970-08-24T14:01:50,Palau,nhn,-155.467838,Hunziker-Mayer,CH,69.504902
29493,Corsican,1992-11-18T19:43:45,Algeria,lb,18.461103,Schlatter LLC,CH,0.0904335
29,Irish,1980-04-14T14:34:39,Yemen,om,43.191469,Hess-Hotz,CH,-27.9747705
842978156,Uzbek,1977-07-15T19:23:37,Denmark,yi,176.071407,"Gerber, Hermann and Geiger",CH,-68.7461905
396,Sundanese,1982-02-12T10:32:30,Bangladesh,zu,116.256375,Lutz-Gut,CH,34.695506
934015499,Yoruba,1985-08-02T12:03:10,Solomon Islands,mai,-178.528452,"Hasler, Portmann and Mäder",CH,86.8432845
490,Kanuri,1999-03-04T04:33:57,Thailand,ne,66.600507,Iten-Wolf,CH,82.2282615
501,Russian,2014-01-21T04:57:10,Azerbaijan,pap,21.913655,Iten-Vogel,CH,-22.1021785
148792524,Catalan,1988-07-31T22:41:57,Sweden,sa,-34.677825,Stocker and Sons,CH,11.5909555
5485,Dzongkha,1992-05-01T13:14:14,Kyrgyzstan,os,48.717557,Erni PLC,CH,27.3136315
29,Akan,2001-02-19T13:10:41,Croatia,it,92.132175,Bernasconi Inc,CH,48.153011
7775,Slovenian,2015-10-06T21:46:00,Namibia,mni,45.014447,Schäfer and Sons,CH,49.8378645
88412,Portuguese,2008-01-14T23:38:31,Palau,nr,108.112438,"Bär, Leu and Weber",CH,86.309564
59,Twi,1985-03-28T01:12:28,Greece,ga,-3.101345,Rey-Schaller,CH,-66.421319
1197,Gujarati,2008-11-30T06:03:39,Algeria,dv,-28.766118,Keller LLC,CH,-78.464116
2,Oromo,1992-09-26T04:31:15,Saint Kitts and Nevis,tcy,88.618882,Schaller-Betschart,CH,1.742178
86,Herero,1971-07-09T01:17:02,Lebanon,dz,133.111329,Schär-Ernst,CH,-48.747540
17822378,Bashkir,1978-03-02T18:54:42,Italy,raj,111.355638,"Vogt, Meier and Mettler",CH,-24.0860535
494544,Kazakh,1987-07-30T22:36:16,Burundi,my,173.679500,Hasler-Hofer,CH,-78.787595
2139,Kirghiz,2000-01-29T13:49:19,Rwanda,apn,11.687442,"Bachmann, Egli and Stettler",CH,-8.565833
558,Bengali,1970-03-11T11:43:02,Brunei Darussalam,fil,-86.757921,Martin-Peter,CH,56.181252
73410,Chamorro,1995-12-18T03:37:43,Norway,mg,0.538906,Hotz Ltd,CH,82.517051
1949,Northern Sami,2010-09-16T20:26:39,Sweden,nb,-71.028944,"Zimmermann, Zollinger and Lehmann",CH,-85.9387055
8182690,Romansh,2001-08-14T22:29:31,South Korea,ka,-66.228159,Lang Inc,CH,57.753533
390428,Gaelic,2009-10-02T23:12:52,Guyana,ts,22.570656,"Lutz, Keller and Lustenberger",CH,50.1088445
82,Persian,2008-11-27T10:07:14,Mozambique,da,0.647754,Berger Group,CH,-12.1767175
32285,Interlingua,2009-12-11T10:42:39,Tonga,id,87.316823,"Burri, Bianchi and Walder",CH,-0.392543
2807,Arabic,1987-01-29T21:47:13,Romania,ar,93.414529,"Gross, Müller and Wehrli",CH,-0.782981
523599,Polish,2020-05-29T22:18:12,India,tcy,70.758897,Wolf LLC,CH,81.843096
660336,Ido,2011-12-01T05:36:33,Bolivia,bs,-15.119793,Schuler-Michel,CH,-14.457618
993911047,Finnish,1983-04-18T01:12:47,Maldives,unm,-27.824646,Leunberger and Sons,CH,-22.5658665
929,Ido,2015-04-07T14:47:50,North Korea,gd,-149.217750,Ziegler and Sons,CH,-62.6135315
3082,Lingala,1987-05-04T04:02:25,Malawi,mi,72.491551,Wenger Inc,CH,-79.976390
88,North Ndebele,1997-02-06T22:23:50,Japan,ps,-15.285835,Küng Inc,CH,-5.9421825
82237074,Rundi,1988-05-22T06:03:40,Qatar,it,-75.754728,"Merz, Kuhn and Küng",CH,-66.3758815
15,Serbian,1987-12-22T15:26:59,Niger,ha,-98.114601,"Merz, Hartmann and Egli",CH,-31.4528355
631,Afrikaans,2002-12-08T16:06:06,Malawi,sr,139.585733,"Vogt, Meyer and Frick",CH,49.342454
75,Abkhazian,2005-01-22T07:30:11,Poland,ug,58.286758,Wettstein Ltd,CH,-79.7184495
2,Tigrinya,1995-01-25T21:33:34,Guatemala,th,-167.168786,"Zehnder, Hasler and Tanner",CH,-32.628616
7,Finnish,1989-09-23T05:24:49,Estonia,mni,92.868929,Zbinden and Sons,CH,80.2500725
227313,Sinhala,2013-10-23T01:05:31,Australia,rw,-175.592960,Arnold PLC,CH,79.999119
7210977,Malayalam,2004-07-17T11:25:56,Djibouti,ti,36.742499,Meyer Inc,CH,-60.3947525
833023,Chinese,1996-12-20T10:38:05,South Korea,cv,99.499508,Küng and Sons,CH,77.1787445
98747,Thai,1970-01-19T17:04:14,Tajikistan,hsb,84.114926,"Bianchi, Gerber and Hafner",CH,27.9627885
7735,Estonian,2012-10-25T12:44:20,Moldova,zh,46.851445,Bühler-Brunner,CH,26.418016
24624998,Hausa,2013-12-24T22:34:38,Luxembourg,kok,125.690110,Meister-Graf,CH,-47.3249955
2645,Ido,1995-08-03T03:10:25,Kingdom of the Netherlands,it,-78.293920,"Stucki, Stalder and Senn",CH,42.1678605
2973749,Chinese,1992-04-28T06:05:50,Barbados,en,-9.557106,Hartmann-Arnold,CH,-34.0620235
5426875,Italian,1992-02-20T21:29:54,Oman,pap,73.874684,"Wehrli, Peter and Wüthrich",CH,0.9794475
3260,Italian,1971-01-11T22:29:17,Rwanda,lzh,-8.948620,"Bianchi, Graf and Amrein",CH,-52.1729775
623,Indonesian,2004-06-15T06:10:21,Turkmenistan,bem,-176.374075,"Bernasconi, Stauffer and Steffen",CH,-9.433739
1802,Chechen,1994-01-26T15:51:44,Cambodia,uz,-7.066047,Stocker-Probst,CH,-18.824517
4290683,Thai,1984-07-24T06:26:47,Belize,sq,72.521614,Brun-Bättig,CH,-76.2532575
145,Marathi,1974-06-11T23:12:32,Hungary,sq,-63.929179,Blum-Lehmann,CH,-8.658639
500,Persian,1970-09-24T22:53:35,SÃ£o TomÃ© and PrÃ­ncipe,mg,7.144642,Graf PLC,CH,86.0767985
247,Navajo,2019-10-06T23:44:30,Finland,nl,-84.321670,Baumgartner PLC,CH,-42.320260
69520498,Romanian,2000-11-18T11:37:47,North Macedonia,lb,-122.673638,"Schuler, Egger and Brunner",CH,23.524930
8609968,Hiri Motu,2002-08-07T15:51:10,Samoa,pap,67.206939,Hug Ltd,CH,51.922978
76410,Welsh,1978-05-11T11:54:36,Samoa,fil,100.112485,Eugster-Eugster,CH,-49.6045515
918,Afrikaans,1980-05-27T12:15:55,Japan,bem,138.227636,Gasser-Schmid,CH,-67.066848
859375229,Kalaallisut,2002-06-18T22:28:19,Nauru,nds,-142.356972,"Mäder, Blum and Frick",CH,-71.2327245
6586671,Limburgan,1971-03-19T03:12:10,Republic of Ireland,hak,138.963247,Blaser-Ammann,CH,-76.235360
62,Galician,1989-02-19T06:32:22,Mongolia,zu,-13.965248,Ernst Inc,CH,15.891810
10479,Kalaallisut,1989-06-16T17:46:07,Samoa,br,29.535632,Hunziker-Michel,CH,15.480568
292504,Walloon,1986-08-14T09:31:47,Nicaragua,hne,3.250042,"Iten, Müller and Schoch",CH,44.9966035
215,Divehi,2011-07-15T19:48:08,Sri Lanka,ka,175.525199,Schäfer-Scheidegger,CH,-27.5742195
57525592,Javanese,2009-04-27T23:39:25,India,tk,-56.911216,Frick and Sons,CH,-5.9128325
8107323,Wolof,2017-04-10T23:29:41,Sudan,ckb,-87.068438,Vogel-Wettstein,CH,54.8666685
2852436,Kazakh,2012-08-09T23:55:30,Central African Republic,cs,-31.377185,Spörri-Probst,CH,4.817666
89333245,Malayalam,1979-01-04T21:54:37,Papua New Guinea,ca,126.968130,Kaufmann and Sons,CH,73.8371715
243394,Chamorro,1987-03-01T05:28:09,Cape Verde,nr,92.852958,"Braun, Ott and Hunziker",CH,79.8863155
513288,Russian,1999-03-20T19:57:58,Zambia,ln,-115.495632,Albrecht PLC,CH,84.989850
89,Telugu,2023-06-04T19:49:10,Federated States of Micronesia,the,61.959502,"Ernst, Probst and Gerber",CH,-44.9607895
905,Persian,1971-04-03T18:04:54,Thailand,wal,131.753314,Schwarz-Baumann,CH,-32.597562
452,Telugu,2008-12-16T15:50:25,United Kingdom,ti,-77.709653,Schenk-Meister,CH,25.3756615
968,Sinhala,1972-10-06T21:51:25,United Kingdom,cs,112.313868,"Kälin, Gfeller and Wüthrich",CH,-0.701906
5,Afar,2014-12-18T05:57:26,Austria,hr,-103.814638,Bieri Ltd,CH,48.327611
97,Kazakh,2009-09-09T18:02:08,Barbados,eo,-44.827831,Bättig Group,CH,-6.727672
42,Oromo,1988-11-24T05:42:23,Argentina,tig,-150.200313,"Hoffmann, Wagner and Wegmann",CH,-80.8004755
471732,Galician,1997-02-26T14:56:34,Cameroon,fy,57.859274,"Burri, Gasser and Ott",CH,-56.635028
8736106,Kongo,1990-03-01T11:25:59,Russia,nds,-107.822337,Schwab-Tanner,CH,-30.7222265
4,Telugu,1991-07-11T00:33:13,Somalia,ff,152.586379,Steiner-Hunziker,CH,-1.9009505
41737,Afrikaans,2011-06-22T15:58:16,Tajikistan,eo,-81.439310,"Winkler, Zehnder and Ernst",CH,-62.4309195
13739,Cornish,2003-05-12T18:59:35,Belize,ar,-2.592474,Eugster and Sons,CH,58.219388
5,Norwegian,1989-06-03T18:10:10,Guinea-Bissau,nb,42.048510,"Siegrist, Gross and Betschart",CH,37.659372
6671151,Corsican,2016-11-16T03:27:11,Solomon Islands,ta,162.570570,Lehmann PLC,CH,-63.347725
1,Corsican,1981-08-11T16:56:05,People's Republic of China,ta,-27.479602,Aebi and Sons,CH,-73.516576
74398,Romansh,1981-10-26T14:45:47,Zambia,lv,-144.535686,Mettler-Kessler,CH,-72.186707
6970,Luxembourgish,2002-06-07T11:18:47,Finland,hu,-122.354834,Staub PLC,CH,11.5080115
563,Yiddish,2015-02-26T07:07:48,Australia,ps,138.427025,Ferrari-Brun,CH,15.019929
1765504,Hungarian,1971-04-09T16:01:59,Yemen,uk,27.835166,Küng-Weber,CH,-11.3345235
94803802,Dzongkha,1996-01-08T08:53:46,Cambodia,gd,-19.012303,"Roth, Baur and Baumgartner",CH,-2.7626945
7022,Hebrew,2003-12-18T20:30:13,Madagascar,quz,85.525015,Lüscher Group,CH,28.522746
746487870,Ojibwa,1991-02-14T14:47:16,Saint Vincent and the Grenadines,sc,122.137075,"Mettler, Friedli and Schwab",CH,22.857407
315529,Danish,2018-10-26T19:05:11,Georgia,sa,-142.100441,Hofmann-Sigrist,CH,-55.4910495
6904,Maltese,1972-04-15T03:23:28,Belgium,zh,-111.890084,Suter-Zbinden,CH,62.680508
537444,Vietnamese,1997-04-06T06:24:55,Belarus,wa,5.257262,"Forster, Stadelmann and Hotz",CH,-65.317111
341040,Ndonga,1976-09-05T13:44:05,Namibia,nds,-174.667658,Eugster Group,CH,64.0979895
7,Yoruba,1999-04-07T11:46:12,Mauritania,ig,-19.761909,"Zehnder, Frei and Graf",CH,-63.266863
1,Azerbaijani,1987-03-11T03:24:51,Vanuatu,ht,64.666360,Schäfer-Hug,CH,11.3277995
9715527,Slovak,1989-01-20T01:53:21,Suriname,ru,-7.097071,"Egli, Scheidegger and Kuhn",CH,82.750985
18,Luba-Katanga,1992-06-11T22:58:41,Tajikistan,hi,-103.975269,Sidler Inc,CH,-8.919147
5005,Turkmen,2008-04-21T09:45:26,Romania,br,-74.820074,Scheidegger Inc,CH,-43.871621
9,Breton,1989-01-21T14:07:20,Antigua and Barbuda,yue,-103.027790,Zollinger Group,CH,31.0821435
6346,Maltese,2016-04-14T10:24:58,Benin,nn,-96.193149,Graf Group,CH,29.654009
9755,Icelandic,2019-05-26T13:42:45,North Macedonia,af,-108.957210,"Hafner, Wagner and Marti",CH,-40.702935
4,English,2011-07-29T13:24:37,Palau,shs,-147.823448,Wolf-Aebi,CH,-26.957419
429752,Tahitian,1996-07-03T19:47:49,Malawi,fa,43.261308,"Schaub, Schwarz and Schmid",CH,3.1962935
97076931,Irish,2013-04-11T13:40:13,Haiti,az,125.533718,Kägi LLC,CH,-49.296695
98,Norwegian Nynorsk,2014-06-15T19:40:19,Hungary,wal,-52.260982,Häfliger-Baumann,CH,-41.403367
908515,Albanian,2018-12-07T10:24:02,Saint Kitts and Nevis,da,-170.012396,"Iten, Wirth and Stöckli",CH,-25.672643
5653,Abkhazian,1981-12-09T13:08:21,Democratic Republic of the Congo,aa,-121.405743,Walder-Mayer,CH,52.438002
307433272,Persian,1975-07-17T09:07:21,Bangladesh,nn,60.846411,Steiger LLC,CH,23.705364
3,Igbo,2009-05-11T08:46:15,Kazakhstan,ik,115.088536,Furrer-Marti,CH,-8.799191
66497338,Tsonga,2017-04-25T20:42:42,Sudan,ff,169.129068,Bosshard-Scherrer,CH,58.365987
90956212,Tajik,1973-11-03T13:05:37,Bolivia,ks,56.795145,Zollinger Ltd,CH,11.1741215
6072111,Marathi,2009-10-01T17:32:29,Austria,dv,-163.644973,Schäfer PLC,CH,-87.0787675
8,Armenian,1997-04-10T04:07:52,Equatorial Guinea,fa,5.465634,"Hodel, Blum and Arnold",CH,37.826335
9,Tamil,1984-07-01T06:47:46,Dominica,ne,161.152527,Leunberger-Wolf,CH,-3.403495
137529760,Korean,1993-11-30T10:49:53,Russia,li,-144.223686,Schmid-Näf,CH,35.4064165
108069088,Ewe,2021-08-13T07:34:42,Namibia,tcy,15.257687,"Studer, Forster and Stutz",CH,-37.4006845
4,Javanese,2004-03-04T16:20:46,Georgia,niu,-108.251901,Schoch-Graf,CH,13.5274285
2,Uzbek,1995-04-16T02:06:54,Guinea,lg,26.657789,"Hofmann, Ernst and Wirth",CH,-70.7772845
874,Basque,1994-08-03T09:46:43,Yemen,he,89.006566,Arnold and Sons,CH,-87.913492
3,Lao,2010-09-06T16:33:18,Togo,sc,-110.630496,"Lüthi, Koch and Küng",CH,14.3005985
6494706,Latvian,1993-10-24T18:14:54,Trinidad and Tobago,tt,-6.134073,Keller Inc,CH,-63.3411105
6,Kikuyu,1972-11-25T17:12:00,Austria,ak,22.970160,"Wenger, Blaser and Lüthi",CH,-77.2073565
98,Igbo,2007-08-29T23:30:05,Sierra Leone,nhn,83.795130,Egli Group,CH,-38.7975485
7,Turkish,2012-03-26T16:20:07,Tajikistan,zh,-3.001336,Leunberger-Bühlmann,CH,18.716920
58,Komi,2012-04-05T18:27:56,Democratic Republic of the Congo,nn,-164.478156,Winkler-Probst,CH,60.1858535
2605335,Ukrainian,2000-03-28T23:21:25,Niger,yue,42.357244,Bernasconi Group,CH,-0.828118
6,Lithuanian,2012-11-08T07:53:46,Sweden,unm,-117.378974,"Stutz, Hotz and Hug",CH,47.095600
7,Maori,2017-04-10T21:03:01,Kingdom of the Netherlands,sk,166.594563,Bär-Hürlimann,CH,-7.588424
451,Uzbek,2003-02-20T01:38:00,Poland,ms,79.921296,"Häfliger, Hess and Bachmann",CH,28.974704
3,Pali,1981-07-06T20:27:32,Austria,yo,-169.506624,Benz LLC,CH,55.870203
7514477,Avaric,1992-01-03T09:31:51,New Zealand,fi,129.586229,Jäggi LLC,CH,-39.147502
94534259,Latvian,1997-08-11T14:55:17,Italy,mg,122.771473,Spörri-Meier,CH,-77.084794
5947,Cornish,2008-07-10T02:17:26,Paraguay,dz,-146.201216,Stettler Ltd,CH,73.4216515
366,Kazakh,1998-07-18T15:46:11,Botswana,nr,131.392970,Tanner Inc,CH,66.0156125
1535,Kazakh,1982-08-29T20:34:03,United Kingdom,is,15.204558,Scheidegger Ltd,CH,-10.158157
116601892,Bislama,2006-01-19T03:22:30,Oman,lo,172.222078,Kessler-Ammann,CH,-59.600119
40288889,Hungarian,1988-02-24T02:01:48,Bolivia,lo,45.468819,Huber-Herzog,CH,-80.5282935
79718,Avestan,2005-10-08T16:56:35,Mauritius,ja,99.395699,Wettstein PLC,CH,88.120357
706764,Burmese,2006-03-11T07:17:26,Antigua and Barbuda,mk,31.460242,Sutter PLC,CH,4.7107275
50104188,French,2005-12-16T09:53:45,Ghana,dv,163.275750,"Wehrli, Beck and Merz",CH,-68.1186995
1208709,Cornish,1971-03-15T08:45:08,Japan,ik,-156.300848,Widmer Ltd,CH,-25.0537925
31,Nepali,1994-08-10T09:19:10,Finland,sd,-91.437776,Isler PLC,CH,19.467393
381783,Tonga,1997-01-02T14:26:33,El Salvador,doi,-171.421227,Jäggi Ltd,CH,-63.2501855
24,Georgian,1988-11-21T07:18:43,Sierra Leone,sd,-77.187656,Meili Group,CH,74.1041685
8542744,Hindi,1985-12-22T04:51:53,Tajikistan,wae,139.193018,Brun-Wirth,CH,9.681416
7414140,Pali,1970-04-24T02:38:33,Austria,hi,-169.421716,Weibel PLC,CH,-86.5691995
76627,Interlingue,1989-08-22T04:27:20,El Salvador,mk,83.812705,Zürcher Group,CH,-58.428456
4357,Aragonese,1970-02-03T12:33:49,Swaziland,de,93.287141,"Zürcher, Ziegler and Stocker",CH,-19.0049535
90669125,Javanese,2005-05-22T22:39:26,Republic of the Congo,li,65.250402,Tanner-Bosshard,CH,-82.611909
1205464,Georgian,2004-07-22T03:00:54,Peru,kn,172.832011,Zbinden-Steffen,CH,19.586859
853,Portuguese,1972-07-23T19:46:21,Pakistan,mag,4.685705,Gross PLC,CH,-88.7639655
891,Yoruba,1974-01-06T10:10:46,Sweden,mr,-25.336485,Stauffer-Herzog,CH,9.0357745
48283162,Tsonga,1980-05-29T09:15:51,Solomon Islands,wal,-58.132642,Schnyder Inc,CH,-48.732023
453,Yoruba,1976-03-25T00:01:46,Colombia,gu,-108.264649,Braun-Mettler,CH,30.1940095
0,Nepali,2018-02-23T07:57:13,Kazakhstan,gv,117.407154,Schaub-Aebi,CH,-27.7760805
24,Hiri Motu,2009-11-30T22:15:10,France,nn,-153.037817,"Zbinden, Wehrli and Friedli",CH,38.624657
23906,Greek,1992-09-01T03:02:54,Mauritius,ht,-71.941533,Käser-Gross,CH,47.668321
8847,Central Khmer,1985-09-24T14:34:11,Mexico,ak,-107.609963,Roos-Maier,CH,72.4969165
20942770,Norwegian,1975-10-23T15:30:20,Democratic Republic of the Congo,fy,58.793958,Kaiser PLC,CH,7.740565
84538,Portuguese,1996-11-22T08:43:04,Federated States of Micronesia,hi,9.234752,"Fuchs, Maurer and Maier",CH,-0.659730
32,Basque,2022-02-27T20:59:06,Peru,sw,-167.309150,Kaufmann-Bianchi,CH,64.2526845
2933959,South Ndebele,1992-05-07T23:21:54,Estonia,mt,-39.348360,Tobler Inc,CH,-5.982453
24925,English,1998-08-14T10:27:16,Togo,sl,70.761246,Hess-Koch,CH,81.699515
35,Maori,1971-09-11T01:51:50,Central African Republic,iu,-98.602118,Christen-Haas,CH,59.311078
202,Nepali,1983-01-21T15:12:03,Brunei Darussalam,or,-176.846705,Hotz Ltd,CH,-53.2922435
2,Romanian,2007-06-05T10:03:22,Brazil,so,-40.803572,Iten PLC,CH,52.084071
58485208,Malayalam,1972-03-27T15:22:02,SÃ£o TomÃ© and PrÃ­ncipe,lb,-145.459386,"Wegmann, Hunziker and Müller",CH,44.124599
9385,Ojibwa,1985-12-14T05:13:55,Rwanda,ber,94.288319,"Käser, Graf and Wirz",CH,-87.626386
969595301,Herero,2015-11-07T09:27:44,Indonesia,fr,-117.927736,Hermann-Jost,CH,65.6274735
214776879,Panjabi,2005-07-01T23:32:16,Belgium,ko,152.754621,Rey-Seiler,CH,-77.0304335
351,Chamorro,1979-09-23T14:29:02,Chile,gez,-15.940093,Scheidegger Inc,CH,64.697815
9011781,Javanese,1976-08-01T14:56:20,Slovenia,kok,-163.135055,Frick Group,CH,58.293240
647406,Japanese,1985-02-21T10:30:46,Libya,ja,-98.275617,"Mäder, Fuchs and Isler",CH,-56.2722185
728429478,Navajo,1970-06-15T07:22:54,Belarus,fy,30.645616,Gasser Ltd,CH,79.6208245
2808687,Venda,1994-03-21T14:33:41,Ukraine,fil,-135.490159,Käser Inc,CH,6.571939
592169720,Tibetan,2012-07-21T11:27:14,People's Republic of China,ml,33.629215,Thommen-Ackermann,CH,0.533625
36,Chichewa,2001-07-11T03:16:30,Kazakhstan,vi,-132.716441,Steinmann-Mäder,CH,-42.0503585
402,Bislama,2017-04-16T06:26:23,Tajikistan,tr,104.090356,"Schumacher, Eugster and Bianchi",CH,58.705116
6,Assamese,2004-05-01T22:25:04,Jordan,doi,29.674834,"Steinmann, Zingg and Bachmann",CH,-83.8030095
7812859,Gujarati,1992-12-06T01:06:49,Slovenia,gu,11.070517,Stocker-Zimmermann,CH,36.9404075
1894510,Croatian,2009-05-18T14:22:59,Trinidad and Tobago,cv,154.986792,"Bader, Wegmann and Lüscher",CH,-68.2578395
97837126,Kalaallisut,2004-06-16T09:51:23,Eritrea,kok,1.990801,Gerber Group,CH,50.8310395
467612,Armenian,1977-03-18T22:38:29,Barbados,mni,89.286507,"Meili, Bachmann and Betschart",CH,33.2556045
19,Lao,1972-02-26T15:14:54,Venezuela,nhn,100.875072,Betschart-Hunziker,CH,-65.072510
888,Western Frisian,1995-04-30T15:08:06,Fiji,kok,-35.512476,Hasler-Mettler,CH,-50.518097
656,Romanian,2017-10-21T16:25:45,Saint Lucia,ig,-152.930067,Hofmann and Sons,CH,-28.9044475
18440,Ojibwa,2007-11-06T18:05:07,Brunei Darussalam,tcy,70.896855,Wagner-Furrer,CH,59.2574195
642613207,Kazakh,2022-08-14T23:26:23,SÃ£o TomÃ© and PrÃ­ncipe,the,-71.553284,Baumann-Ritter,CH,83.525573
32421,Occitan,1973-02-19T02:20:38,Estonia,fil,116.415813,Jenni-Hotz,CH,-84.2966685
579013,Georgian,1979-05-03T18:58:08,Sierra Leone,crh,-169.807996,Wüthrich-Sigrist,CH,-19.707964
968,Interlingue,1991-02-21T04:53:47,Tonga,ha,136.011157,"Sutter, Furrer and Wyss",CH,-67.733993
6804,Tswana,2001-10-17T00:18:37,North Korea,es,116.969305,Stettler PLC,CH,-11.343005
74095103,Ukrainian,2021-09-02T21:42:40,United Kingdom,hsb,145.297926,"Jäggi, Walter and Favre",CH,-9.8218095
10535699,Tibetan,2011-05-14T14:24:03,Saint Vincent and the Grenadines,nan,-42.501099,Gut-Maurer,CH,79.2129355
7,Slovenian,1973-11-13T15:15:30,Bhutan,niu,23.120666,Wolf-Favre,CH,-64.1995545
3,Danish,1993-09-11T06:51:31,Cyprus,or,70.789296,"Roos, Felder and Schwab",CH,4.0725115
328863,Tajik,1974-08-07T22:53:02,Bhutan,cy,-108.622309,Benz PLC,CH,-84.277288
646097,Macedonian,2012-10-17T21:41:22,Bangladesh,lo,177.109411,"Ferrari, Egger and Gfeller",CH,80.372785
31806364,Bulgarian,2004-02-09T06:19:14,Liberia,ro,-33.161844,Schnyder-Hofstetter,CH,72.6478385
27360,Herero,2020-02-03T10:42:03,United Kingdom,mi,141.312478,Pfister-Kuhn,CH,-83.034587
10,Fijian,1995-05-29T09:31:25,Zimbabwe,st,30.405409,Braun and Sons,CH,-66.9846105
4,Manx,2018-03-31T01:23:53,Zimbabwe,sc,157.302487,Albrecht LLC,CH,21.2601315
0,Tsonga,2019-11-05T13:05:00,SÃ£o TomÃ© and PrÃ­ncipe,apn,82.416254,Jenni-Erni,CH,-36.805441
71824796,Luba-Katanga,2013-06-06T01:21:01,The Gambia,kn,-133.322380,Gloor LLC,CH,27.828356
97616275,Tamil,1991-04-16T06:05:33,Botswana,fy,55.508289,Häfliger PLC,CH,6.4388395
88250695,Bashkir,2016-01-29T03:17:58,Fiji,ia,-17.664765,"Leunberger, Mayer and Wirth",CH,37.6545045
6155908,Tatar,1982-03-21T04:56:26,India,bo,12.485592,Winkler Group,CH,56.667025
39454,Tsonga,2012-10-19T23:39:38,India,ku,-0.166026,Lutz Inc,CH,-43.934893
50890,Akan,1986-02-20T09:05:35,Bahamas,sv,-92.821742,Hürlimann-Blaser,CH,27.845972
8847,Galician,2015-07-06T07:18:38,Estonia,lt,173.775147,Sutter Ltd,CH,34.2053925
17160561,Luba-Katanga,1986-11-26T16:31:00,Ethiopia,tg,-60.007460,Isler and Sons,CH,10.5476785
19,Sango,2013-10-02T10:51:33,East Timor,dz,95.519796,Bühlmann Ltd,CH,-84.9771825
5170106,Slovak,2020-05-29T20:19:37,Guatemala,an,86.179357,Mayer Group,CH,-55.230782
29819492,Korean,1988-11-05T22:38:20,Kiribati,os,23.989510,Zingg LLC,CH,-51.456548
218690933,Shona,2012-02-11T06:45:25,People's Republic of China,bem,-53.846628,"Stöckli, Jenni and Spörri",CH,28.705785
2436393,Lao,2016-06-26T09:32:00,United States,ku,-135.203143,Haas-Schuler,CH,-61.348247
93490396,Turkish,1977-08-22T03:37:56,Rwanda,tn,68.435669,Portmann Group,CH,-25.2676845
503178456,Belarusian,1999-05-15T21:59:21,CÃ´te d'Ivoire,ha,-142.380596,"Tanner, Schoch and Meyer",CH,21.379809
460,Swedish,1990-04-14T10:10:08,Republic of Ireland,kok,4.433808,"Peter, Stutz and Mäder",CH,63.6220445
3601,Manx,2009-01-22T07:12:36,Belize,ug,69.105139,Berger-Bianchi,CH,-55.8908945
5847684,Ukrainian,1974-07-26T23:42:25,Taiwan,ti,14.053599,Zehnder Inc,CH,-48.1623255
11517,Kuanyama,1981-12-15T07:16:48,Sri Lanka,wa,144.115210,"Stucki, Hug and Albrecht",CH,28.485045
97415,Breton,2023-02-12T23:25:45,India,tt,-172.687565,Felder-Schnyder,CH,-1.8030625
8065,Gaelic,1985-05-27T12:59:10,Malawi,ss,68.076439,Kaiser-Leunberger,CH,-2.9503305
2350004,Corsican,1989-11-20T01:05:10,Cyprus,bn,-125.154184,Hafner Inc,CH,20.8187935
547,Walloon,1989-01-04T23:45:04,Mexico,csb,178.083895,Geiger-Lüscher,CH,-0.070910
606565619,Hindi,2007-05-08T07:22:35,Montenegro,fa,-121.421144,"Stadelmann, Roos and Ott",CH,-30.7926025
6631111,Tatar,2008-06-03T20:36:18,Benin,ro,22.581318,Hafner-Frei,CH,-59.972273
921777770,Chichewa,2022-05-21T17:41:16,Guatemala,fi,75.549386,"Bolliger, Hess and Rey",CH,69.3292725
7,Yiddish,2001-07-24T04:31:55,Egypt,si,-8.708815,"Wirz, Schnyder and Eichenberger",CH,-50.3733195
4727,Kazakh,1983-06-25T23:10:56,Luxembourg,yue,-132.022111,Weber-Müller,CH,35.6844795
2834,Sundanese,1984-05-09T04:31:45,Nauru,ber,-150.843702,Bolliger-Felder,CH,57.0498715
9856,Samoan,1989-07-09T14:44:50,Bahrain,iu,84.660373,"Knecht, Zbinden and Siegrist",CH,31.222098
42139,Danish,1979-08-21T14:25:46,Madagascar,doi,100.306033,"Eugster, Imhof and Seiler",CH,-19.717907
609916,Assamese,1987-03-09T02:30:56,Russia,mr,146.089957,"Forster, Baumgartner and Schoch",CH,-81.660988
6142845,Inuktitut,2001-02-23T17:15:22,Saint Lucia,fa,47.349438,"Blum, Häfliger and Gut",CH,7.864404
6309,Maltese,1982-09-13T02:36:10,Paraguay,mni,58.375568,Steffen and Sons,CH,54.2167805
404483,Bulgarian,2012-08-10T16:57:44,Moldova,or,14.208426,Beck LLC,CH,22.171991
452,Quechua,1974-09-06T10:54:13,Tunisia,kn,116.040476,"Erni, Gross and Fehr",CH,45.912035
54217786,Bengali,1970-12-20T16:42:39,Somalia,sat,-1.352693,Winkler and Sons,CH,19.818343
93258,Amharic,1974-03-02T18:21:06,Botswana,dv,91.149608,Wüthrich-Gut,CH,65.9924825
298739472,Inupiaq,1974-10-15T18:32:53,Denmark,se,146.827128,Schärer-Berger,CH,9.9494375
439814,Mongolian,1986-09-16T23:49:38,Indonesia,fr,69.340297,Wehrli and Sons,CH,75.6765375
3847,Mongolian,1971-10-13T02:26:55,People's Republic of China,ts,46.572184,Schwarz-Fankhauser,CH,-30.047720
1,Kurdish,2010-03-29T13:01:14,Palestine,ha,19.235492,"Eugster, Fischer and Fehr",CH,-89.9106025
288329,Danish,2004-09-01T23:43:05,Rwanda,kok,80.680330,Mayer-Vogt,CH,4.7572245
957,French,1982-09-15T17:25:15,Bahrain,gu,33.231735,Walter Ltd,CH,81.1418895
43,Western Frisian,2015-08-23T07:28:00,Myanmar,as,174.222174,Iten-Stutz,CH,6.152285
93,Herero,1995-08-09T09:43:07,Jamaica,tg,-87.885396,"Hess, Sigrist and Schürch",CH,-81.147779
171,Tamil,2000-07-17T00:49:44,Cyprus,iw,-47.712747,Wirz Ltd,CH,-86.5388815
895168651,Urdu,2006-05-29T02:23:51,United Arab Emirates,af,93.872750,"Schärer, Winkler and Steiger",CH,48.104049
8,Afrikaans,2018-09-27T18:06:28,Iran,kok,-17.439440,Zehnder Ltd,CH,12.6650525
8039076,Kashmiri,2005-08-20T22:48:55,Seychelles,bn,-176.960129,"Schnyder, Stalder and Stucki",CH,-75.0709695
1409568,Inuktitut,1983-02-27T14:26:03,Belgium,ur,-82.228827,"Hofmann, Blaser and Schlatter",CH,-17.5280415
54139,Ewe,2000-10-11T11:03:33,Kenya,ga,4.890692,Weibel and Sons,CH,65.4961745
7592787,Venda,1989-12-13T18:29:04,Panama,bhb,153.363120,"Imhof, Bär and Pfister",CH,-65.0767925
16,Turkmen,2007-07-01T11:51:38,Montenegro,fy,-121.554716,Graf-Kägi,CH,-0.766994
2,Inuktitut,2014-01-01T03:37:37,South Korea,nr,-68.989422,"Graf, Flückiger and Lang",CH,25.2392385
926904939,Armenian,1974-07-22T12:28:01,Honduras,oc,-128.980482,Lüthi-Mayer,CH,33.4487755
12077,Tatar,1978-10-25T00:51:15,Spain,szl,44.605947,"Senn, Ackermann and Giger",CH,65.437825
703876283,Zulu,1995-04-27T14:23:41,Afghanistan,cmn,84.753161,Schär-Seiler,CH,85.437449
729179,Burmese,2020-09-10T12:19:02,Kingdom of the Netherlands,nn,-89.206497,"Zehnder, Burri and Sutter",CH,-47.770888
6424,Assamese,2003-07-26T07:36:12,Ghana,cv,-22.732914,"Hartmann, Hess and Bucher",CH,33.4871675
542,Church Slavic,1983-08-09T06:58:47,CÃ´te d'Ivoire,bho,18.318702,"Hasler, Hasler and Kern",CH,-55.3427265
5,Rundi,2014-01-05T20:43:53,Slovakia,bo,-61.439949,Hauser-Gasser,CH,-48.4437075
84961540,Portuguese,1986-05-28T14:31:06,Vatican City,id,-29.055025,"Ammann, Stalder and Knecht",CH,-84.544966
28,Danish,2001-07-28T00:06:26,Belarus,be,-20.752011,"Amrein, Tanner and Fankhauser",CH,19.4657395
105,Tswana,2003-12-10T08:41:54,Nicaragua,yue,-6.122831,Widmer LLC,CH,-88.608663
3,Malagasy,2023-05-10T05:16:01,Finland,bn,167.190013,Bernasconi Inc,CH,-59.7807535
82313966,Samoan,1991-11-13T08:22:01,Palestine,nl,-114.592095,Gasser-Meili,CH,-28.031505
360278,Japanese,1982-01-18T20:27:00,Dominican Republic,bhb,58.282365,"Favre, Bühlmann and Christen",CH,28.194297
84,Croatian,2012-02-01T05:56:43,Bahrain,cs,-152.682080,"Hasler, Hauser and Imhof",CH,-48.4295835
531558,Corsican,2015-02-27T14:52:14,Yemen,ff,-41.701432,Graf-Meier,CH,-81.074096
25251,Sundanese,1998-01-10T08:32:21,Barbados,sl,57.615580,"Schoch, Jäggi and Zingg",CH,-2.9563405
9170379,Aragonese,1971-01-16T05:03:26,Spain,se,-43.199524,Hodel-Blum,CH,60.926846
5250990,Sichuan Yi,1976-07-09T14:38:44,Cyprus,pa,141.653732,Steffen PLC,CH,18.525827
2078894,Somali,2016-08-01T18:12:31,Tajikistan,kok,46.401606,Kunz and Sons,CH,-69.351992
5080,Quechua,1970-10-07T03:12:44,Indonesia,hi,79.392048,Ferrari-Kohler,CH,16.030261
2807321,Yiddish,1970-04-05T02:55:01,Rwanda,ff,120.903246,Suter-Mayer,CH,-52.623658
243816986,Irish,1974-05-17T20:23:04,CÃ´te d'Ivoire,ia,-25.939516,"Knecht, Meister and Blum",CH,54.832573
536861776,Hebrew,2010-01-17T23:08:11,Solomon Islands,lb,27.442489,"Küng, Zürcher and Ackermann",CH,-80.9120575
0,Aragonese,2012-06-08T23:43:16,Nepal,tig,166.338485,Berger-Lüthi,CH,84.6879775
8561,Tonga,1980-06-07T21:14:02,Pakistan,it,-33.234606,"Kohler, Stauffer and Imhof",CH,71.284246
56454,Breton,1982-05-30T21:10:06,Saint Vincent and the Grenadines,sk,1.850331,Gfeller-Staub,CH,-67.933419
9782,Xhosa,1981-03-06T00:59:29,Iran,hy,45.975203,"Schmidt, Gloor and Hess",CH,-2.5650525
8013,Russian,1976-03-03T11:52:55,Syria,li,158.729869,"Hartmann, Brun and Ackermann",CH,25.5782975
5,Northern Sami,1974-04-28T06:07:46,Nigeria,tk,-18.537020,"Fehr, Stöckli and Winkler",CH,-33.6379165
66950,Latvian,2023-04-20T01:35:34,Singapore,se,-97.928080,Jäggi-Stettler,CH,31.2013745
7,Fijian,2005-11-26T19:52:13,Cambodia,af,-163.570157,Wenger-Hauser,CH,-42.530736
10802043,Maori,2003-06-15T01:05:40,Eritrea,bs,-72.547293,Hofstetter Ltd,CH,4.939506
52175011,Walloon,1971-05-01T00:09:32,Honduras,gl,-93.231159,"Brunner, Braun and Bianchi",CH,80.1954425
42,Ossetian,1983-06-06T21:33:21,Argentina,mr,133.974864,Favre-Schmidt,CH,8.8524535
71,Ojibwa,2000-06-03T23:53:34,Sri Lanka,hu,5.168156,Lustenberger Group,CH,22.0025155
4205180,Croatian,2004-05-03T05:54:56,Saint Lucia,li,-80.158960,Kälin Group,CH,79.531277
97660,Northern Sami,2007-02-08T02:34:44,El Salvador,te,-3.265403,Wüthrich and Sons,CH,-19.5604975
318895602,Igbo,2003-10-19T18:23:43,Uruguay,pl,91.283151,"Brunner, Martin and Bättig",CH,85.4052975
3648,Wolof,2016-02-23T12:40:35,Antigua and Barbuda,id,-128.277967,Studer PLC,CH,-35.704045
782,Quechua,2005-06-06T11:03:40,Guatemala,tk,-140.864311,Lehmann-Schmidt,CH,-31.528070
89026,Danish,1991-09-05T14:18:40,Taiwan,nso,-12.149715,Schoch-Sidler,CH,-26.8787485
590912425,Hindi,2007-09-08T00:56:24,Liechtenstein,kl,-108.827855,Knecht and Sons,CH,-14.0943675
722446,Tamil,2002-04-02T09:44:02,The Gambia,yo,77.845024,"Schnyder, Marti and Jäggi",CH,49.3669745
865203399,Quechua,1985-03-21T11:35:55,South Korea,unm,41.454518,Sidler-Staub,CH,-33.563629
1,Limburgan,1984-01-17T14:52:59,Seychelles,nb,170.510911,Suter-Staub,CH,27.4425715
955,Bulgarian,2014-05-14T04:48:24,Nepal,ms,-137.397217,Erni Ltd,CH,-33.6123685
5871225,Sanskrit,2000-11-15T06:11:56,Barbados,cy,-36.234138,Knecht Inc,CH,-5.141372
78316399,Latvian,2008-02-21T07:46:26,Somalia,tig,61.512498,Gloor-Spörri,CH,10.458159
984952027,German,1972-07-17T19:43:12,Tuvalu,shs,-111.876052,"Felder, Kaiser and Wagner",CH,82.8161865
20,Bambara,2005-05-06T23:03:43,Pakistan,ku,-86.975805,"Knecht, Wüthrich and Meyer",CH,-61.091469
30319,Korean,1975-11-26T10:04:30,France,pa,-90.692445,"Schär, Aebi and Roos",CH,-9.0204835
755507295,Sardinian,1973-12-20T15:50:13,Peru,fr,-125.528836,Favre Group,CH,-73.1483135
66500,Lithuanian,1976-03-13T13:49:18,Togo,be,109.650668,Vogel LLC,CH,-18.339131
733,Oromo,1989-08-28T23:01:50,Australia,nl,-109.395704,Zehnder-Christen,CH,-74.4449865
5087179,Sanskrit,1988-12-12T16:47:13,Swaziland,ks,167.275465,"Schneider, Hunziker and Kaiser",CH,-31.3935275
81091541,Aragonese,2005-06-04T10:30:08,Bulgaria,kl,112.599458,"Isler, Schwarz and Spörri",CH,52.6564935
403441,Kuanyama,2011-03-06T11:02:47,Chad,gez,94.377924,Blaser-Christen,CH,19.1106775
583995934,Polish,1974-02-14T10:50:01,Czech Republic,hu,-178.736833,"Lutz, Vogel and Meister",CH,-46.2310245
522375398,Luxembourgish,2000-04-14T21:03:49,Guinea,da,37.908939,Betschart Inc,CH,0.0361285
2,Kannada,1989-12-07T20:00:47,Cape Verde,eu,70.793900,Hug-Forster,CH,37.4953495
68336,Tatar,2000-07-21T17:39:08,Bulgaria,ta,12.791719,Christen-Wagner,CH,26.385311
31,Bulgarian,2003-05-29T03:42:42,Eritrea,nn,-168.936323,Egger-Weibel,CH,20.972942
42033564,Russian,1989-04-12T22:54:43,Sudan,af,-29.350861,"Kälin, Gerber and Steiger",CH,-57.7195615
7,Hausa,2019-08-21T06:10:14,Central African Republic,pl,160.392457,Bernasconi Group,CH,-55.2225525
866,Divehi,2008-06-22T09:40:07,Guatemala,mni,152.429214,Schmid Inc,CH,-82.611143
4,Indonesian,2003-07-23T01:44:13,Ghana,ha,-171.984784,Schwab-Scherrer,CH,-13.8599305
43,Sardinian,1993-06-29T06:43:14,Central African Republic,ia,-25.536200,Bieri-Kohler,CH,-54.243150
9759780,Zulu,2020-11-02T06:07:55,Guatemala,se,-156.992905,Baur and Sons,CH,-10.546644
197,Limburgan,2022-12-21T14:40:04,Georgia,brx,85.624891,Gerber-Hoffmann,CH,-31.566139
1447909,Swedish,1984-01-02T03:33:31,South Korea,hi,67.484801,Wolf and Sons,CH,48.0429435
703983,Ukrainian,1986-09-23T20:39:01,Bahamas,bo,-7.989358,"Hürlimann, Schwab and Moser",CH,32.8862125
677949,Tibetan,2009-05-19T20:07:17,Barbados,pt,-154.262659,Hunziker Group,CH,-12.937765
34591,Welsh,2020-08-19T12:12:34,Cyprus,mn,-128.201669,"Ackermann, Bühler and Peter",CH,-89.846158
84243402,Dutch,2002-07-28T13:57:01,Bosnia and Herzegovina,nhn,-108.501054,Fankhauser-Iten,CH,27.3632325
9025,Thai,2021-10-13T01:15:09,Honduras,fi,-167.027500,"Maier, Gut and Hofer",CH,12.8702645
889,Zhuang,1971-09-30T01:14:01,Spain,ak,60.983768,Jäggi PLC,CH,9.1963065
32,German,2011-03-14T02:31:45,New Zealand,ast,38.958557,Zimmermann-Sutter,CH,44.625340
1,Panjabi,1991-11-28T11:12:24,SÃ£o TomÃ© and PrÃ­ncipe,gd,-113.087610,Christen-Kessler,CH,-15.445290
861,Igbo,2007-05-08T19:36:47,India,gez,59.965712,Ferrari and Sons,CH,-31.5601655
1636208,Spanish,2001-11-20T00:53:56,Saudi Arabia,ayc,154.088894,Felder-Frick,CH,70.997755
26,Malay,2012-06-10T22:46:20,Equatorial Guinea,szl,-19.573621,Hofmann PLC,CH,-5.168124
22,Sindhi,1990-09-08T10:35:27,Equatorial Guinea,he,-153.502251,Hug-Beck,CH,-84.801092
4234,Portuguese,1993-02-11T11:37:11,Georgia,or,96.489992,"Knecht, Hofmann and Maier",CH,-18.044606
43,Turkish,2018-08-18T08:55:03,Bahrain,fy,75.821795,Jost Group,CH,-75.563325
916,Albanian,1978-10-05T00:08:20,Moldova,kl,-5.904231,"Blaser, Rüegg and Merz",CH,-34.2501905
9,Marathi,1990-10-17T05:57:10,South Africa,sc,-116.265832,Erni and Sons,CH,79.756883
8568322,Inupiaq,1982-06-11T06:12:35,Myanmar,yi,77.166869,"Schaub, Hess and Kohler",CH,43.633138
75710,Divehi,1979-06-21T09:05:57,CÃ´te d'Ivoire,it,167.608369,"Aebi, Favre and Zbinden",CH,-9.1466235
201,Romanian,1999-03-02T12:40:59,Tanzania,hsb,54.497590,"Meister, Fuchs and Mayer",CH,18.924675
195044782,Azerbaijani,1982-02-19T22:23:59,Hungary,yue,136.854561,Küng PLC,CH,64.744434
75372,Chinese,1982-04-30T09:56:08,Bulgaria,rw,130.725436,"Felber, Hartmann and Hug",CH,13.4384335
6991,Avaric,1986-03-08T19:23:05,Thailand,hi,-87.934021,"Bolliger, Baumgartner and Hunziker",CH,0.2184835
9,Russian,2013-10-03T16:15:00,Indonesia,ik,-48.475213,"Kälin, Walter and Hauser",CH,-57.7408235
562522,Irish,2010-05-01T05:36:15,Panama,lij,96.297196,"Pfister, Koch and Kessler",CH,-77.3241985
111490,Sinhala,1991-11-06T15:48:00,Bolivia,ml,-42.335935,Leu Group,CH,66.0253475
14,Interlingue,1993-06-05T11:05:48,Madagascar,ber,-80.765845,"Zimmermann, Graf and Roth",CH,57.1711825
1613256,Croatian,1986-12-15T15:14:02,Lesotho,ro,-129.329430,"Walter, Stutz and Favre",CH,18.882376
5,Thai,2012-08-20T02:15:28,Japan,az,-1.522019,"Eugster, Schoch and Weber",CH,-86.007004
895889,Rundi,1994-12-16T20:42:46,Rwanda,kw,21.424185,Bättig Group,CH,24.166404
4481,Tajik,1994-01-08T01:34:57,Lebanon,lg,-10.350321,Schaller-Schneider,CH,55.4309545
5304492,Ukrainian,1991-02-28T09:03:31,Algeria,wae,142.830008,Bucher-Wirz,CH,-86.802789
9613822,Catalan,2008-02-19T13:28:44,Central African Republic,raj,-125.313026,"Näf, Mayer and Schumacher",CH,67.377731
822552,Persian,1998-06-14T05:03:47,Tunisia,sq,142.542586,Moser Inc,CH,-27.423729
618007243,Gujarati,2009-04-24T17:53:40,Nepal,az,-168.786070,Schaller PLC,CH,-36.7441965
5,Central Khmer,1996-06-04T11:10:56,Saint Vincent and the Grenadines,gv,67.555815,"Brunner, Stocker and Meyer",CH,43.2120305
874,Finnish,1995-11-22T14:21:15,Iran,sat,100.827879,Bär-Bucher,CH,26.5470065
38,Interlingue,1972-10-11T12:32:46,Vanuatu,rw,21.207202,Jäggi LLC,CH,-73.096811
98,Spanish,2009-09-23T18:29:43,Benin,wo,-142.162761,Schumacher PLC,CH,9.686244
4876,Japanese,1999-12-26T18:43:41,Eritrea,as,12.813800,Lüthi-Baumann,CH,78.096432
57,Spanish,2019-10-21T16:49:16,Belize,sk,-4.282440,Egli-Bucher,CH,4.3452255
2221,Chinese,1983-07-31T18:51:10,Tuvalu,ru,-160.103664,Lüscher-Bättig,CH,-71.674306
