hostname,language_name,iso8601,longitude,country,latitude,city,random_number,mac_address,company,timezone
laptop-15.young.com,Czech,1993-12-06T23:11:49,-135.199384,Guatemala,-16.788505,New Wendy,25,89:3f:a4:44:dc:29,"Bennett, Hope and Gray",Africa/Porto-Novo
web-94.hopkins.com,Yoruba,1994-01-24T05:51:42,155.925021,Turks and Caicos Islands,5.3039515,West Laura,6028956,43:db:33:2d:bc:f5,Edwards LLC,Asia/Jerusalem
srv-55.thompson.co.uk,Twi,2001-03-04T14:46:43,24.194838,Gambia,3.642931,Slaterland,8,20:4e:c7:9e:cd:4f,Dawson Ltd,Africa/Algiers
srv-62.morris.info,Ido,1978-10-07T01:57:33,98.432223,Ecuador,38.0718985,Francismouth,6,9d:2c:d7:92:b1:16,Whitehouse Inc,America/St_Lucia
laptop-31.henry.com,Xhosa,2001-04-22T11:52:00,131.113468,Saint Barthelemy,76.781669,Lake Russell,187,66:7d:f4:0e:72:8f,Chadwick-Baker,Africa/Kampala
db-99.hope-cook.net,Bislama,2005-07-20T16:34:59,-142.510464,Peru,44.5171655,Jayburgh,395450511,c5:db:8e:b7:72:42,Jones Ltd,Asia/Ashgabat
laptop-45.franklin-mellor.com,Wolof,2021-10-19T07:55:53,162.880457,Heard Island and McDonald Islands,55.6125515,Joyceside,7,d3:42:fa:b4:a3:03,Gill-Smith,Africa/Niamey
laptop-50.lloyd.org,Ewe,2016-10-04T22:02:14,83.930581,Aruba,64.023455,Jarvisport,605,a0:a8:97:06:63:d5,Potter-Matthews,Europe/Chisinau
db-48.wells-wilkinson.co.uk,Japanese,2011-04-30T01:53:08,-179.633619,Heard Island and McDonald Islands,50.407803,Harrisstad,81,00:96:ac:df:01:e3,Harris Ltd,Indian/Comoro
lt-61.bell.org,Bengali,1976-07-31T09:59:18,63.958265,Indonesia,-74.836639,Walkerborough,4159189,6f:ea:81:2a:00:45,Harper-Owen,Europe/Rome
db-49.lee.com,Kazakh,1999-06-03T12:26:56,33.822693,Jordan,-12.8928585,Newtonton,576750445,e2:03:b6:75:94:72,"Barnes, Graham and Davis",Europe/Vatican
desktop-56.davidson-green.com,Kurdish,2013-04-27T11:16:48,30.226378,Libyan Arab Jamahiriya,81.438526,New Oliviaview,435,10:2e:68:06:5f:cd,"Wright, Martin and Lee",Africa/Bangui
email-60.butcher.co.uk,Italian,2000-07-30T10:28:34,92.723515,Argentina,-18.659898,New Gerard,66,12:45:fd:91:a8:3d,Hewitt Inc,America/Lima
desktop-93.pratt.org,Danish,2005-01-11T13:25:22,26.540486,Comoros,-32.0280435,Stephenfort,149,29:c9:d8:85:63:39,Hanson Ltd,Asia/Kuwait
srv-36.payne-humphries.biz,Ewe,2014-01-06T02:25:57,-82.602388,Paraguay,-35.1612155,Reynoldston,25,7f:2f:c0:90:cb:fc,"Carey, North and Pritchard",Asia/Yerevan
laptop-90.wong.com,Romanian,1973-03-23T01:52:06,-130.480883,Lebanon,-83.889760,West Markview,706,02:2d:c5:b5:db:40,"Scott, Jarvis and Jones",Indian/Maldives
email-02.king-elliott.org,Bosnian,2000-09-19T01:31:49,113.243174,Guatemala,52.836192,Grahamview,133073,a1:61:d3:4d:e1:54,Wong-Jennings,America/La_Paz
desktop-98.turner.biz,Sinhala,1991-03-10T09:53:34,-119.214137,Mongolia,-11.684793,Lake Erictown,8874734,6a:cd:06:79:bb:b4,Myers-Parsons,Asia/Tehran
email-90.harper-ward.net,Javanese,1970-07-06T15:25:37,-49.557951,Luxembourg,-82.4304855,Lake Harrietberg,8861,84:3f:91:80:9b:31,"Oliver, Hale and Arnold",Indian/Mauritius
db-36.reynolds.com,Ganda,2023-02-22T01:01:40,81.959145,Cyprus,33.020501,Robertsside,273680,dc:ac:f0:a1:fd:b6,"Hurst, Matthews and Lynch",Africa/Kinshasa
email-00.lloyd.com,Aymara,2007-10-09T09:26:16,-125.913871,Sweden,16.1912085,North Joe,91,6a:09:d6:3e:2b:d5,"Patel, Clarke and Andrews",Asia/Karachi
laptop-50.smith-thompson.biz,Navajo,1976-08-04T15:52:15,-144.616021,Niue,42.613133,Port Lynnstad,7,97:cb:2f:69:3a:2d,Stevens-Parker,Asia/Ashgabat
desktop-81.andrews.com,Manx,2011-01-25T10:46:50,-50.246754,Israel,-11.8017005,Colinport,35003199,80:5b:45:a9:45:aa,Allen Group,Indian/Mahe
laptop-55.cooper.info,Lithuanian,1997-06-29T04:26:05,139.410486,Rwanda,-89.026561,West Dylanberg,46,68:21:b4:1a:95:55,Harris-Saunders,Asia/Calcutta
srv-96.rice.org,Polish,2004-10-07T18:06:40,85.281412,Saint Martin,23.133623,Rosstown,21577,ee:61:94:27:ca:fc,Bell Ltd,Australia/Lindeman
lt-97.morrison-dawson.com,Breton,2019-04-27T04:21:35,-178.580252,Lithuania,-41.2984885,Damianbury,16433578,6f:04:93:29:c3:c0,"Jones, Hussain and Phillips",Europe/Rome
srv-95.thompson-shaw.com,Tatar,1975-08-02T03:05:24,-113.841960,Albania,-35.329208,Karenburgh,31,e7:77:68:94:68:95,"Coles, Parker and Moran",America/La_Paz
email-91.henry.com,Indonesian,1980-05-31T02:26:46,88.577228,Isle of Man,4.7590515,Port Diana,396,f9:b0:f7:9b:1e:a5,Johnson-Ashton,Africa/Johannesburg
laptop-06.holt.com,Tibetan,2018-01-05T15:59:19,-8.812864,Kyrgyz Republic,0.7058995,Brendaburgh,687,56:37:d9:ca:46:0b,Brookes Ltd,Asia/Saigon
email-71.doherty.com,Macedonian,2021-11-16T14:13:02,-79.555039,Anguilla,47.700094,East Declanborough,8424,8e:a5:2a:43:5c:d2,Nicholson-Brennan,Europe/Riga
email-04.jenkins.net,Slovak,2002-08-28T11:42:33,-17.284250,Wallis and Futuna,71.2838605,Laurastad,467964404,a0:1c:5a:7b:f3:32,Knight Inc,Asia/Tehran
lt-74.conway.co.uk,Walloon,1985-09-30T18:11:16,-35.318407,Italy,-4.538431,West Alex,28167072,7a:b4:9e:75:45:6a,Morris-Taylor,America/Panama
desktop-52.taylor.com,German,2002-06-12T17:32:28,-85.318923,Antarctica (the territory South of 60 deg S),-56.709775,Brookesfurt,568396,a2:f1:70:e5:91:a3,Ashton PLC,America/Regina
laptop-91.taylor-patel.com,Corsican,2007-03-30T20:00:52,-99.695168,Korea,-11.0770565,Douglasland,927898,d7:12:06:b7:46:4f,Randall and Sons,Asia/Damascus
srv-68.lewis.net,Rundi,1986-12-15T16:34:29,116.488810,Antigua and Barbuda,76.573938,Port Frances,3,c6:e9:07:68:01:62,"Read, Nicholson and Connolly",Europe/Zurich
email-50.simmons-williams.biz,Malayalam,1985-07-04T23:23:55,-81.652376,Egypt,49.184698,Khanshire,40,fa:bd:79:bb:b0:90,Morton-Dennis,Atlantic/Reykjavik
email-63.james-harding.co.uk,Danish,2005-10-23T23:26:16,160.544087,Afghanistan,60.8239545,Lake Grahamport,3133435,ec:b6:f2:cb:75:d1,Riley-Hunt,America/Barbados
db-81.davies.com,Central Khmer,2001-11-23T17:21:47,-111.931834,Albania,-52.6541865,Port Maxchester,70597809,ed:bf:7d:92:ec:0a,Jones Inc,Europe/Vilnius
db-79.davies.com,French,1973-10-06T22:45:57,118.960355,Sweden,-18.1457785,West Melanie,619,7a:96:de:b9:db:46,Wilson-Wright,Asia/Makassar
db-27.payne.net,Swahili,2008-03-11T23:26:26,-179.208069,Chad,-42.9934915,North Yvonneport,90551425,a0:3b:e3:b1:10:c0,Barnett Ltd,Asia/Amman
db-00.jones-frost.com,Ganda,1995-12-08T10:11:24,-29.517396,Morocco,-39.804852,North Kathleenshire,71,b8:aa:a3:43:a3:07,"Osborne, Cooper and Miller",Asia/Phnom_Penh
email-38.gill.com,English,1996-06-05T11:47:27,106.506524,Greenland,32.406969,East Gordonchester,54919400,c2:52:24:8d:59:99,Pearson Group,Asia/Samarkand
db-44.parsons.com,Bambara,1978-09-05T16:36:08,-37.497384,Nauru,-32.391061,Port Shirleyberg,7147,d9:fe:b1:0f:78:46,Rees-Talbot,Europe/Berlin
web-44.day.org,Lithuanian,1976-11-08T13:14:49,-1.289857,Philippines,-32.368006,Talbotland,51,33:82:8e:07:75:e6,Parker and Sons,Asia/Kabul
db-31.edwards.biz,Hindi,2013-02-17T12:39:37,39.229028,Korea,25.337057,South Margaret,7,ce:2c:96:85:2d:b7,Burns PLC,America/St_Lucia
laptop-84.lynch.net,Hausa,1999-07-09T19:10:48,65.855277,Burundi,-0.279823,East Lewis,71922,fa:7f:69:34:70:ef,Oliver-Davies,Asia/Karachi
laptop-09.dunn-jenkins.com,English,2015-07-02T02:55:37,156.271317,Hungary,53.9877975,Robsonfort,7214,12:c5:0a:b4:ee:e7,"Chapman, Campbell and Scott",Europe/Vaduz
web-11.wells-ford.co.uk,Lingala,1999-08-03T17:40:36,-173.258118,Kyrgyz Republic,35.717214,Thomasstad,8771,b5:06:24:2a:37:e2,White Ltd,Pacific/Tongatapu
laptop-93.field.co.uk,Faroese,2004-05-22T19:48:48,160.544687,Norfolk Island,39.1584825,New Gregorytown,59683,6c:fe:a0:d5:d9:c0,"Wells, Roberts and Henderson",America/Port_of_Spain
email-56.harrison.com,Western Frisian,1982-02-03T18:53:50,-113.880617,Palestinian Territory,86.742619,North Shannonton,576091441,a5:ed:a0:1e:86:07,Thornton-Thompson,Africa/Bamako
desktop-11.edwards-brown.com,Burmese,2008-09-19T20:30:13,-142.259402,Guatemala,73.5773015,Campbellborough,654,a3:ee:cd:8c:31:cb,Owen Inc,America/Tijuana
email-59.collins.com,Uzbek,1980-04-20T22:03:54,109.824512,Tunisia,32.854982,North Marionview,4473140,9c:ec:ac:51:54:91,Heath Inc,Pacific/Auckland
desktop-21.burgess-stevens.biz,Chichewa,2006-03-22T07:58:56,128.662263,Montserrat,67.3574645,Raymondshire,2430317,e5:10:b5:c3:a6:e7,"Birch, Anderson and Porter",Asia/Kashgar
db-35.thorpe-barker.com,Sango,1995-04-13T23:29:10,-82.939286,Colombia,18.287695,North Carolynberg,4699,5d:6f:24:04:4a:8f,Bentley LLC,Asia/Yerevan
laptop-48.baldwin-clarke.info,Finnish,2002-05-26T16:58:34,38.970397,Central African Republic,61.800815,Colefort,18752463,6b:e6:27:ce:ae:bc,Brooks-Burke,Europe/Monaco
email-89.taylor-hale.com,Afar,1987-04-11T04:59:32,-54.400895,Switzerland,29.2937135,North Nathanberg,60,0d:6f:bc:cc:99:03,Patel Inc,Europe/Vaduz
db-33.thomas.co.uk,Haitian,1977-03-09T21:01:12,-22.213472,Argentina,39.1063285,South Ann,65352,f6:35:ff:ab:82:88,Thompson-Woods,Asia/Qatar
laptop-23.davies.co.uk,Sundanese,1982-01-27T01:17:53,-10.986603,Qatar,3.528218,West Pauline,321317,a7:26:76:ed:f8:53,Parker PLC,Africa/Lusaka
srv-03.kemp-davey.net,Basque,2021-08-21T02:17:17,-56.601005,Georgia,-27.724690,South Jeffreystad,97,ac:00:c0:91:19:3e,Grant and Sons,Asia/Thimphu
desktop-56.bowen.com,Interlingua,1992-10-14T06:49:48,-101.490467,Gabon,-65.098503,Port Steven,74,af:73:f5:8c:c6:00,Thomas PLC,America/St_Lucia
laptop-16.whitehead.com,Thai,1987-11-05T14:20:51,-78.685818,Uruguay,39.316391,Kempmouth,309800,fc:3d:cb:f0:c8:da,"Walsh, Williams and Roberts",Asia/Kuwait
email-31.cook.com,Sanskrit,1973-12-02T08:04:03,-34.159282,Qatar,20.2148075,Port Carl,5859696,7c:a3:69:da:c0:2a,"Harvey, White and Walker",America/Barbados
laptop-78.hunt.com,Esperanto,1993-10-01T09:48:19,-29.268097,Palestinian Territory,-76.295925,West Juliabury,7,64:67:a1:db:c5:ea,Williams-Cooper,Asia/Dhaka
lt-02.naylor.org,Sardinian,1971-09-03T06:11:58,111.595709,Fiji,-26.177833,Josephinemouth,851,0b:9e:82:7c:00:19,"Phillips, Wilkinson and Richardson",Africa/Maputo
web-53.hill.com,Tigrinya,2007-12-10T18:36:10,5.081692,Norway,-76.4111125,East Jillton,30840,5e:d1:89:55:38:c6,Short Group,Asia/Vientiane
db-76.webb-holden.info,Zulu,1993-10-22T11:54:22,101.963694,Puerto Rico,82.611031,Phillipsborough,8067098,cb:b3:68:0a:a3:8e,Evans-Hewitt,Asia/Bangkok
laptop-53.nash.com,Rundi,2002-03-23T02:11:25,31.993743,Cameroon,58.6167915,Port Bethanstad,78172163,5d:a2:f4:48:ca:75,"Hyde, Smith and Thomas",America/Indiana/Vevay
desktop-96.manning.info,Limburgan,1980-02-28T06:11:56,-115.425706,Hong Kong,8.9215165,Aimeemouth,288,2f:d0:34:92:64:f1,Saunders Inc,Africa/Dar_es_Salaam
desktop-92.thompson-barker.com,Catalan,1983-05-09T11:14:10,-86.813234,American Samoa,21.1423405,New Harrystad,6171755,3e:10:9e:ae:56:43,Ahmed Ltd,Pacific/Auckland
srv-47.jordan.biz,Sango,1993-10-16T03:38:17,37.541499,Guernsey,75.1562165,Parkerton,613,1b:21:32:a3:bc:72,Wilkinson-Bishop,America/Guatemala
db-66.rowley.com,Sichuan Yi,2021-04-12T23:59:21,59.998372,Luxembourg,71.123131,Poolefurt,39877909,a8:89:d4:d2:f8:96,Price-Edwards,Africa/Conakry
desktop-67.smith.com,Georgian,2016-05-16T19:50:30,-54.801458,Bahamas,-14.643814,Phillipston,717,77:78:1f:bc:8e:e2,Begum PLC,Asia/Yakutsk
db-19.ellis.org,Hausa,1987-07-03T15:32:42,35.949251,Palestinian Territory,-65.196935,Parsonsview,552107323,f5:eb:a4:31:7d:da,Hodgson Group,Europe/Bratislava
laptop-36.morris.co.uk,Dutch,2015-12-05T13:55:53,-173.525903,Fiji,79.873312,East Sean,63,58:81:f1:d0:53:eb,Goodwin-Clarke,Africa/Algiers
lt-39.richardson.com,Walloon,2012-08-12T09:50:49,40.570123,Liberia,-27.5245845,West Mohammad,92,c8:07:bd:12:32:de,"Phillips, Wood and Collins",Asia/Colombo
email-75.mason-davies.com,Georgian,1983-02-05T18:19:52,144.695147,Panama,-22.1929085,Glentown,5347,94:8f:19:ec:31:90,Ford PLC,Africa/Dakar
srv-04.thornton.com,Marshallese,1995-04-21T17:19:34,174.936989,Tunisia,-3.945824,South Scott,506148,c4:6e:c4:be:06:26,Osborne Ltd,Europe/Monaco
db-70.moss.info,Panjabi,1975-10-10T14:56:30,-1.306600,Christmas Island,-33.855477,Lloydton,409,9f:cd:1d:c6:f5:7f,"Preston, Davies and Morris",America/Asuncion
web-25.perry-williams.org,Bulgarian,1973-06-24T11:58:33,-144.423081,United States Minor Outlying Islands,1.2336785,Greenside,165842096,4b:77:f0:06:e8:5d,Bond Ltd,America/Asuncion
lt-91.turner-hodgson.co.uk,Hungarian,1986-08-20T22:55:29,-57.232285,Indonesia,47.9224865,New Adrian,74757063,19:eb:f9:96:18:45,Khan-Bull,Pacific/Nauru
email-08.martin.net,Xhosa,2017-02-06T02:25:15,171.093695,Norfolk Island,54.4794565,Port Katherine,699439,bd:d7:01:3b:b1:b9,Young Group,Africa/Harare
desktop-09.schofield.net,Igbo,2004-12-19T00:34:02,-124.241410,Georgia,-61.859983,Phillipsberg,794232151,90:b3:07:59:c6:80,Roberts-Khan,America/Indiana/Vevay
desktop-80.bishop-wilson.biz,Spanish,1971-01-31T05:01:29,123.699253,Burkina Faso,-44.1885145,North Shane,43,3d:4d:b2:5e:9a:6b,Parker LLC,Africa/Abidjan
db-94.webb.net,Tswana,1988-03-28T10:44:26,-121.553680,New Zealand,28.9213125,Katieton,6743,84:4b:c1:65:a2:96,Poole-Brown,Africa/Nairobi
web-17.bennett.co.uk,Malayalam,2001-10-12T17:56:24,123.269518,Rwanda,-41.367347,New Denise,8047872,94:67:82:54:88:1a,"Chapman, Clark and Lucas",Africa/Ouagadougou
db-11.hunter-schofield.co.uk,Burmese,1995-02-21T23:42:29,152.438622,Tonga,-22.9362745,Lake Vanessa,193,a6:46:48:a2:3a:3e,Evans PLC,Asia/Karachi
web-51.stevens.org,Amharic,2003-11-12T11:59:51,-135.360202,French Guiana,-14.973525,Brownville,47863362,8b:61:d1:58:90:ea,"Smith, Harding and Mitchell",Asia/Singapore
web-62.wood.com,Indonesian,2013-11-24T04:04:50,-10.259117,Tokelau,-63.296347,South Paige,460,30:ca:58:83:69:2b,Greenwood-Foster,Asia/Vientiane
laptop-37.banks.com,Croatian,2018-04-10T11:07:47,30.447225,Ethiopia,85.498755,Lawrencefurt,880900,55:87:29:3a:08:3b,"Slater, Patel and Jones",Europe/Vilnius
web-40.cartwright-george.com,Hebrew,1981-03-17T20:30:50,-19.204328,Haiti,-16.955069,Eileenport,33904,6f:ee:f7:ab:b8:5d,Lawrence Group,America/Blanc-Sablon
db-57.macdonald.com,Slovak,2002-03-30T18:50:44,-169.655921,Pakistan,9.466724,East Leigh,99,50:ab:c4:b0:2e:b0,Carter-Thompson,Europe/Belgrade
web-44.welch.com,Romansh,2011-08-30T02:08:52,28.007185,Trinidad and Tobago,59.2627085,Tomton,7880,8c:a5:3c:22:19:0a,"Thomas, Knight and Sanderson",Africa/Asmera
db-70.harvey.com,Swedish,2010-08-25T18:02:50,-43.882876,Ghana,13.7227815,West Beverley,57276,7d:b2:e6:76:a3:7a,Brown-Thomas,Indian/Mauritius
lt-27.walsh.com,Icelandic,1997-05-12T14:57:54,6.597933,Burundi,49.598193,South Claireburgh,149359,b7:09:90:7c:55:b1,Russell-Smith,Asia/Saigon
srv-76.atkinson.com,Rundi,2004-09-17T13:49:07,133.253787,Serbia,-84.5575585,East Annaport,9,40:ef:f3:e8:10:92,"Smith, Murphy and Howard",Africa/Sao_Tome
web-21.bull.org,Russian,2022-04-01T18:21:19,-21.262749,Saint Martin,31.1807695,Patrickhaven,4688,94:62:cf:a0:62:18,Smith and Sons,Europe/Vaduz
desktop-78.smith-johnson.com,Assamese,2002-11-21T13:47:39,-142.791521,Myanmar,-80.6396825,Nichollsburgh,7267,36:a9:3d:5b:e0:c1,"Thomas, Lowe and Begum",Africa/Dar_es_Salaam
web-68.smith-boyle.com,French,1976-02-01T03:42:14,-115.498245,Maldives,-60.127641,Janechester,29,4d:bb:c7:89:24:4e,"Chapman, O'Connor and Dyer",America/Grenada
srv-41.wilson.com,Sindhi,2004-12-30T16:48:49,-48.536292,Maldives,58.036476,North Jayne,356,32:a2:30:65:52:d5,"Mason, Clark and McCarthy",Asia/Rangoon
srv-32.griffin.net,Oromo,2006-10-02T03:26:11,-114.883347,Saint Lucia,-68.493182,Khanview,66254,f4:6e:c7:fa:d2:35,Dawson-Davies,Asia/Muscat
db-37.bell-dawson.net,Haitian,1989-01-29T04:16:26,76.463962,Georgia,7.8617145,East Jemmachester,46,c7:33:06:1e:ba:2e,"Morris, Wallace and Cox",Europe/Ljubljana
web-14.harper.com,Dzongkha,2022-12-14T22:04:06,-8.477419,United States Minor Outlying Islands,-39.327047,Jacksonburgh,848555880,2f:79:12:08:1c:85,Berry-Griffin,Africa/Addis_Ababa
lt-58.bartlett.com,Western Frisian,2001-07-25T01:14:02,-118.499433,Peru,17.1133535,North Hollie,280,34:20:50:e6:45:ea,"Robson, Adams and Sullivan",Africa/Casablanca
web-09.jackson.info,Herero,1983-04-28T00:31:23,19.896385,Tunisia,-61.3263655,Adrianmouth,7750,22:d0:96:02:8e:bc,"Barnes, Wright and Johnson",Asia/Baku
srv-42.clark.com,Amharic,2004-12-26T12:59:26,-33.320164,Korea,-74.3669495,South Joanna,555187,8e:2f:e0:fd:f1:77,Blake-Chapman,America/Tegucigalpa
email-54.jones.biz,Ewe,1984-04-13T13:47:25,27.473521,Israel,55.779159,Sallyside,253821710,34:2f:da:58:f6:d7,Jones Ltd,Africa/Ceuta
web-12.andrews.info,Breton,2007-10-20T05:31:31,72.734917,Zambia,-71.692874,Louiseburgh,6525,c2:9f:49:a0:ba:f4,Wright Inc,Africa/Lagos
srv-62.parsons.net,Czech,2015-04-09T10:57:26,-129.431585,United States of America,-50.763225,Helenchester,62,bd:f4:ca:f5:3a:d1,Perry-Khan,Africa/Accra
srv-83.allen.biz,Telugu,2013-06-06T05:16:14,-161.428832,Morocco,81.964553,Hayleymouth,8589,01:56:41:5b:62:88,Hunter and Sons,Europe/Podgorica
web-46.marsh.com,Galician,2005-02-11T02:17:21,-120.684411,Bouvet Island (Bouvetoya),-29.331769,East Arthurtown,3582045,62:34:8f:c1:a0:f7,Patel-Coleman,America/Guatemala
desktop-31.brookes.com,Turkmen,1985-02-17T10:11:20,-41.915828,Djibouti,-38.433136,Rebeccaland,4,8d:ad:7a:71:36:65,"Oliver, Rogers and Quinn",America/Dominica
desktop-14.anderson-booth.com,Avaric,2021-06-12T00:08:21,171.937126,Timor-Leste,87.8012185,Port Angelaport,92526967,2c:4f:71:74:a7:d7,Johnson-Bradley,America/Montevideo
db-65.jackson.biz,Afrikaans,1976-01-10T08:42:07,113.210669,Jordan,-18.5999525,Faulknerberg,8776878,ca:14:10:44:36:4a,Barnett Ltd,Africa/Mogadishu
db-57.brown.info,Rundi,2020-07-26T11:42:37,-104.074745,Georgia,43.0812125,Jessicastad,2,74:98:d5:87:34:bb,Robinson-Gould,Europe/Ljubljana
srv-47.giles.com,Maori,1997-04-24T19:08:56,158.541051,Hungary,6.461537,Nicholsonton,6934217,b4:be:ce:1f:d2:c8,Butcher LLC,Europe/San_Marino
email-79.slater.biz,Somali,1972-01-13T23:33:47,121.590859,Uruguay,45.306592,Williamsburgh,416,40:10:8c:90:47:6a,Gilbert-Brown,Europe/Oslo
desktop-46.kent.co.uk,Sindhi,2000-02-10T16:57:40,120.076194,Luxembourg,61.3338285,North Paigeburgh,2332192,22:53:cb:33:49:c1,Hartley PLC,Asia/Dushanbe
desktop-73.nash-ahmed.biz,Nauru,1995-02-04T06:56:33,145.536284,Heard Island and McDonald Islands,88.060597,Williamsbury,9958,a0:c6:7c:72:2c:e0,"Turner, Howell and Smart",Europe/Dublin
db-17.jones.org,Catalan,2011-03-19T19:26:39,10.873891,Cape Verde,60.1358825,Evansside,9,fb:8c:77:23:b2:e8,Smith-Ford,Asia/Urumqi
laptop-79.burrows.com,Ido,1985-11-20T08:33:15,167.453761,Armenia,-49.001341,Quinnbury,8,bb:c0:7f:3a:da:13,"Henry, Fuller and Evans",Africa/Lagos
db-87.davies-peters.com,Oriya,2017-01-18T12:21:28,94.169915,Maldives,49.932294,Lake Carlyfort,18873,57:e8:40:b6:e5:be,Hunter-Phillips,Asia/Karachi
laptop-74.hopkins.biz,Belarusian,2013-04-21T06:55:45,85.388795,Guam,-34.1400845,Maryfort,586867380,84:cd:93:cd:1a:4a,"Griffin, Slater and Stevenson",Europe/Rome
srv-36.may.com,Chichewa,1996-02-05T16:56:45,30.734697,Cameroon,-7.7199155,Rebeccaville,34907011,a5:17:ec:09:8d:40,Jones-Cooper,Pacific/Easter
srv-58.hughes-hunter.com,Tamil,1973-06-05T12:36:16,81.921173,Syrian Arab Republic,7.628692,Morleystad,479,42:12:83:84:2d:5b,Barker-Williams,Africa/Sao_Tome
laptop-50.jones.co.uk,Assamese,1979-11-06T10:09:56,125.173852,Moldova,13.3116845,East Trevor,90337,1d:1b:30:95:24:69,Coleman-Craig,Asia/Tbilisi
lt-20.west-smith.biz,Italian,2008-05-05T07:42:00,-169.107626,Heard Island and McDonald Islands,-0.114034,Millsview,84,82:92:b1:39:d0:5e,Brown-Walsh,Africa/Bujumbura
web-33.stewart.com,Wolof,2017-06-22T11:23:59,23.403182,China,-68.862073,Kellyside,883789,dd:08:63:c7:ab:c0,"Wallace, Watson and Adams",Africa/Bissau
lt-81.spencer-hamilton.net,Macedonian,1972-12-10T03:37:54,-72.929001,Svalbard & Jan Mayen Islands,70.8837675,North Joanshire,153186,ad:de:be:7e:50:09,"Pritchard, Ball and Lewis",Europe/Budapest
laptop-68.cartwright-miller.com,Belarusian,1979-02-22T18:17:38,-110.663288,Panama,83.4512205,East Carly,379352,cc:ef:a0:0a:87:2c,Price and Sons,Europe/Chisinau
web-13.king.biz,Igbo,2022-04-22T04:09:33,86.621296,Isle of Man,-37.1544785,Charlotteview,8473204,2b:01:07:f1:32:c0,Mitchell-Hutchinson,Africa/Harare
desktop-11.adams.com,Breton,1996-03-21T18:29:56,-2.564624,Sierra Leone,-10.635699,North Tina,92920,fa:23:d9:2d:0b:53,Mason Ltd,Europe/Prague
email-69.walker-rose.org,Polish,2017-07-17T01:21:37,-136.602824,El Salvador,-7.3541145,Malcolmfort,48,5b:8b:15:ee:d3:9d,"Mann, Bradley and Hudson",Africa/Lusaka
db-18.davison-powell.co.uk,Chuvash,2012-12-04T10:16:00,-148.564856,Barbados,80.751916,New Lawrenceton,818563,4e:97:a5:aa:e1:7a,"Burgess, Williamson and Griffiths",Pacific/Nauru
srv-98.price-conway.co.uk,Limburgan,2012-02-09T05:58:52,-125.597743,Slovenia,41.7070615,Port Angela,27,a9:16:53:66:0f:c8,Metcalfe-Craig,Asia/Manila
lt-46.williams.com,Fulah,1992-07-02T13:30:08,-35.357028,Sao Tome and Principe,-5.2572105,Bethhaven,7879,96:45:4e:9e:db:24,Parkin Group,Pacific/Ponape
desktop-76.wright-welch.biz,Polish,1992-06-07T23:28:31,104.183487,Kenya,-85.1340415,Port Abbiestad,78689,4a:f7:2a:e8:8d:fe,"Wilson, Wood and Thorpe",Asia/Kabul
srv-66.collins-khan.com,Kurdish,2006-09-22T11:23:02,-94.346186,Congo,-34.6867755,Gregoryfort,640,74:85:6f:d9:dc:24,"Turner, Butcher and Taylor",Asia/Gaza
db-79.bibi.com,Malayalam,2021-03-27T01:46:25,88.559317,Gabon,82.026140,Lake Robertland,2509,47:9d:6f:c4:ff:d4,"Morris, Brooks and Murphy",America/St_Lucia
srv-09.baldwin-kirk.com,Hiri Motu,1996-02-16T18:58:59,53.361619,Cambodia,48.0037415,South Phillip,332920,33:bd:e5:0d:9f:80,Hughes Inc,Asia/Harbin
web-82.williams.com,Swati,1973-12-18T19:00:20,6.801082,Mayotte,3.9616625,East Guymouth,893,be:ac:a2:7c:fa:a3,Mason-Miller,Europe/Zaporozhye
email-73.morris.org,Korean,2022-01-15T02:43:14,48.569080,Madagascar,32.8723635,Mohammedstad,42443,00:2d:4e:b1:69:52,"Carter, Allan and Robinson",America/St_Kitts
lt-86.barrett.com,Chamorro,2009-12-23T14:44:31,97.395213,Egypt,81.636812,North Howard,7705687,3a:0b:52:24:a9:9b,"Hunt, Rahman and Knowles",Asia/Calcutta
laptop-64.james.com,Indonesian,2014-03-16T05:34:13,-126.919462,Nicaragua,-61.813250,South Dorothymouth,705528,4e:05:b0:40:18:70,Reynolds LLC,America/Argentina/Ushuaia
srv-59.woods.co.uk,Persian,2016-06-01T19:48:34,-150.980425,Venezuela,55.7163645,Rebeccafort,225806965,7c:f6:0e:45:69:67,"Thompson, Schofield and Cooper",America/Paramaribo
db-39.jordan.com,Arabic,2011-05-16T10:13:29,33.477350,Cook Islands,-20.3110115,West Julie,0,ce:e1:f0:be:82:b8,"Austin, Evans and Foster",America/St_Lucia
desktop-38.walters.com,Swati,2006-10-10T12:55:32,-27.708284,Grenada,31.5100905,West Charlene,0,6d:1e:09:52:e2:24,O'Brien-King,Pacific/Port_Moresby
lt-73.jones.info,Pali,1983-08-12T23:31:02,4.917397,Burkina Faso,51.8039625,Lake Denisberg,29807195,70:1f:70:20:3e:ad,Jackson-Phillips,Atlantic/Reykjavik
laptop-42.ahmed.co.uk,Twi,1999-04-12T00:24:12,2.654962,Samoa,-0.651358,Hillborough,793,2d:34:1b:88:4e:fd,"Moore, Wright and Ward",America/Montevideo
srv-11.singh-murphy.com,Sango,1989-11-18T17:32:34,-103.193110,Guinea-Bissau,-34.9168635,Russellberg,11,11:be:e0:a3:a5:8e,"Wilson, Jenkins and Bartlett",Europe/Copenhagen
srv-54.whitehouse.info,Interlingua,1981-02-21T01:08:43,-176.467405,Brazil,-59.532399,Michelleview,90839189,d3:99:f4:3d:a6:ae,Elliott-Davey,Pacific/Efate
laptop-07.nash.com,Ewe,2008-09-13T09:23:00,138.922167,Cocos (Keeling) Islands,23.7826045,Wadeview,78,a1:dc:b5:2f:84:79,Hayes-Edwards,Atlantic/Madeira
desktop-08.oliver.com,Luxembourgish,1992-09-03T08:15:42,-10.413828,Montserrat,57.1108505,South Donna,38266795,20:f7:00:79:77:cd,Goodwin and Sons,Europe/Chisinau
srv-05.finch-scott.com,Bislama,1989-04-02T09:44:32,104.594375,Falkland Islands (Malvinas),-64.516090,Joshuaton,712,76:04:9a:ea:2a:6d,Cox LLC,Europe/Istanbul
desktop-06.allan.com,Haitian,2009-04-22T22:37:43,47.994262,Mexico,-2.8643695,Port Kenneth,1477,97:da:ea:54:0a:f6,Hutchinson Group,Europe/Bratislava
desktop-50.bolton.com,Samoan,2009-02-15T18:23:14,28.149340,Paraguay,-3.2021275,West Carolinemouth,696,1d:30:f2:9c:21:c0,Wilson Inc,America/Guatemala
desktop-27.coleman.biz,Ewe,1992-01-29T17:54:49,167.807002,Italy,-26.164661,Gemmaburgh,56517,5e:79:37:6e:c4:c8,Watson-Willis,America/North_Dakota/Center
desktop-65.hall.com,Maori,2009-01-17T10:46:22,76.997306,Slovenia,-38.0524385,Gibsonbury,69,d5:3e:27:3b:21:dd,Thomson Ltd,Asia/Dili
laptop-25.mitchell-lamb.co.uk,Greek,2010-03-04T03:01:18,-168.941508,Liechtenstein,-81.1515855,West Jade,72733,60:f2:fe:42:6d:18,"Lewis, Jones and Hall",Asia/Dhaka
srv-60.bradshaw.com,Tigrinya,1986-05-10T07:50:17,128.431761,Argentina,-76.3178265,North Jacqueline,56633524,29:7d:21:f0:89:90,Hutchinson-Hurst,Asia/Kuwait
db-23.day-griffiths.com,Wolof,1997-11-03T14:58:16,-82.847929,Mozambique,-24.3164665,Matthewsberg,17027682,93:63:58:c5:2f:62,Brown-Goodwin,Europe/Amsterdam
web-92.parker.com,Spanish,1987-11-06T20:00:18,163.400224,Reunion,-43.419116,West Tracy,619041532,27:c6:04:1b:94:a3,"Norris, Leach and Ryan",America/Araguaina
desktop-27.williams.org,Tagalog,1981-01-16T12:30:57,-104.082083,Cook Islands,-82.0508515,New Barry,7,ea:f4:55:e8:d5:00,Peacock-Mann,Europe/Uzhgorod
email-07.brown.com,Dzongkha,2007-04-17T03:19:00,-97.468211,Sri Lanka,71.551976,Burgesschester,2,63:c5:f3:ef:06:16,Taylor-Butler,Asia/Saigon
web-53.shepherd-douglas.org,Quechua,2008-02-14T17:38:48,48.604253,Egypt,24.5301655,Smithland,89737599,90:60:f2:b4:34:73,Taylor-Griffiths,Africa/Brazzaville
lt-77.price.com,Bihari languages,2006-04-22T14:15:46,-27.511288,Bermuda,-3.0776965,Shortborough,7,85:a1:1b:f6:27:c1,Webb-Wilson,Africa/Nouakchott
desktop-02.martin-ahmed.com,Nauru,2001-06-01T12:10:44,0.084921,New Caledonia,-36.116526,Graceburgh,96701633,69:01:e8:fb:91:4d,"Jarvis, Walters and Hunt",Pacific/Palau
db-88.mahmood-dyer.co.uk,Tatar,1998-10-10T20:59:24,-140.725443,Faroe Islands,-18.646674,Lake Peterfurt,41,83:87:f5:26:e9:1c,Robinson Group,Europe/Ljubljana
srv-47.dixon.com,Hausa,1992-05-23T08:37:05,93.668949,Honduras,-26.477805,Douglasshire,11719,b0:eb:39:b2:c2:e4,Carr-Davies,Asia/Krasnoyarsk
lt-12.williams.com,Vietnamese,2015-12-04T14:51:48,-141.554591,Turkey,-64.511170,Lake Jeanborough,247,eb:ae:4e:a0:5a:2e,"Robertson, Elliott and Kelly",Africa/Brazzaville
lt-51.hunt-russell.com,Romansh,2003-08-05T05:01:47,-116.178556,France,-28.744748,West Carly,62283,1a:c4:c7:56:c2:61,Ali PLC,Europe/Brussels
srv-21.wilson.co.uk,Aymara,2008-04-04T14:34:36,-24.892502,Malaysia,-57.4179235,Port Hayleyborough,833301,66:a9:26:82:af:bc,"Berry, Smith and Farrell",Pacific/Tongatapu
email-25.holland.com,Urdu,2019-09-27T21:03:37,-39.235868,Puerto Rico,33.156701,Lindaport,73258683,92:d8:e8:23:dc:af,Chambers-Evans,Africa/Gaborone
desktop-69.jones.com,Swati,2011-11-23T08:45:01,-19.388037,Gambia,-83.433562,South Janet,7941,45:96:e2:8c:9a:6b,Evans LLC,Asia/Tbilisi
laptop-20.douglas-harrison.biz,Oromo,1985-10-29T09:22:11,-71.016593,Northern Mariana Islands,-84.731829,East Damien,472856,98:a6:af:db:a2:3e,Rhodes-Doherty,Indian/Maldives
lt-97.newman.info,Aymara,1989-02-16T05:36:52,114.361750,Niger,9.658845,Bennetthaven,8272283,29:53:a2:ae:a7:45,"Taylor, Stevens and Taylor",Asia/Tbilisi
web-59.brown.com,Panjabi,2010-10-09T05:37:39,65.902966,Eritrea,-76.3182575,Port Luke,73,bc:0d:0a:25:63:ac,Jenkins-Murray,Africa/Dar_es_Salaam
lt-84.turner.com,Breton,2005-05-02T02:08:04,-122.783120,Puerto Rico,-64.4725305,Justinton,771,10:0d:b1:92:6d:ad,White-Savage,Europe/Stockholm
web-65.price.biz,Slovak,2018-03-08T20:23:33,0.357457,Togo,18.979597,Abigailmouth,896687739,bc:3c:bb:0b:ed:b8,"Joyce, Frost and Murray",Europe/Luxembourg
lt-30.may.com,Lingala,2020-01-01T09:34:23,-174.677667,Nepal,-62.9573715,Davischester,74904793,a6:fa:58:5e:09:39,Sykes-Henderson,Europe/Riga
web-20.hayes.com,Kinyarwanda,2006-11-20T00:51:04,43.789800,Christmas Island,87.533172,West Gavinville,9875,f6:1c:03:9b:70:ce,"Ward, Wong and Bradshaw",America/Grenada
email-37.williams-fisher.biz,Welsh,2003-06-26T15:43:52,143.805264,Jersey,-35.1192265,Port Jasmine,9,9d:67:ec:63:aa:50,Fraser-Mills,America/Costa_Rica
laptop-45.howell.info,Uzbek,1981-03-24T22:41:38,13.290158,Albania,40.2522355,Port Rebecca,22984,a3:c0:35:34:9a:01,"Francis, Parker and Barnes",Pacific/Apia
email-11.hawkins.com,Ganda,1992-02-08T15:05:25,131.969804,Sao Tome and Principe,-5.812150,Francesville,9531,05:8d:8f:95:62:54,"Willis, Roberts and Farmer",Africa/Bujumbura
desktop-53.thomson.biz,Spanish,2000-11-21T03:00:26,-80.561702,Myanmar,68.8975945,Gibbsbury,10163750,97:e3:b7:1e:90:c0,Campbell PLC,Asia/Nicosia
web-77.charlton-goodwin.com,Tigrinya,2011-04-05T14:20:13,-19.254711,Bermuda,-15.660011,East Annaville,7211593,3c:ff:f5:55:1f:07,Patterson-Griffiths,Asia/Colombo
desktop-48.jones.com,Tatar,2019-02-10T20:35:10,160.708910,Zimbabwe,-32.914752,Dannyville,4924239,a7:50:c8:28:69:f3,Jones-Roberts,Europe/Luxembourg
lt-83.williams.com,Bashkir,2009-05-18T03:25:10,-40.981964,Djibouti,-65.557454,Dawsontown,4481,56:ad:57:cc:b1:78,Dobson-Holmes,Asia/Dushanbe
srv-53.davidson.org,Tahitian,2011-03-25T03:20:34,-51.751303,Estonia,-56.869277,West Nathan,464,14:63:79:6f:e0:18,Robertson LLC,Asia/Kabul
web-86.steele-hall.biz,Panjabi,1977-10-24T10:58:46,134.795398,Timor-Leste,-64.1705715,Guyhaven,63,29:e4:2e:3f:1f:45,Berry and Sons,Africa/Casablanca
email-64.wilson-burton.net,Igbo,2008-05-04T19:09:58,-129.623867,Guyana,-70.9858805,Port Lynda,1827,fe:3a:ab:81:35:8d,Hale Inc,America/Argentina/Tucuman
lt-23.blake-baker.net,Urdu,2021-06-30T21:35:31,96.373476,Korea,-59.469700,New Elaine,424,fe:2c:4b:58:d0:b4,Dean-Akhtar,Asia/Hovd
lt-77.west.com,Dzongkha,1984-07-25T00:02:08,-145.762944,Korea,35.466120,Marsdenport,72,2c:ff:35:32:c6:d0,"Patel, Miller and Jones",America/St_Vincent
desktop-86.west.info,Church Slavic,2007-04-04T13:28:46,106.072298,Bulgaria,-83.032960,Janetown,63,d7:c3:2d:14:90:45,"Walker, Johnson and Lee",Asia/Riyadh
laptop-73.barnes-ali.org,Latin,2012-11-24T04:14:54,141.752236,Liechtenstein,58.8514445,South Lukestad,1,cc:2c:0b:21:f8:54,"Johnson, Franklin and Robinson",Asia/Kuala_Lumpur
srv-96.foster-williams.net,Tigrinya,2020-08-15T00:11:04,31.010779,Albania,-15.388181,South Lee,77097,9a:b2:79:06:7a:cc,Archer-Brennan,Asia/Katmandu
laptop-05.nixon.net,Mongolian,2014-01-28T22:17:17,-166.733599,Germany,-89.212808,Oliviaville,1,f4:ed:43:34:4e:a6,"Barnes, Bowen and Rogers",Indian/Mahe
laptop-92.kelly.org,Gujarati,1976-08-29T17:20:59,-21.603033,El Salvador,-12.8105395,Janeland,5,74:bc:63:93:b8:01,James-Stewart,Africa/Tunis
email-05.whittaker.org,Quechua,2020-09-22T13:51:57,66.397034,Eritrea,-81.285870,Matthewstad,6605385,d5:03:db:2f:a0:7f,Jenkins-Holmes,Asia/Bangkok
db-78.morris.com,Nauru,1998-02-26T14:38:42,141.015559,Lebanon,27.1239465,East Gerald,90683005,87:9a:7f:80:78:96,Parker LLC,Indian/Comoro
desktop-75.green-roberts.com,Japanese,2015-09-07T00:29:38,-54.405960,Tonga,-70.347963,Eleanorstad,897,de:2f:f7:28:6c:a7,Godfrey-Gill,Africa/Blantyre
lt-15.robson.com,Chechen,1994-10-17T00:06:31,-107.866641,Anguilla,-51.5484355,East Lindafurt,166767,63:e4:95:76:94:5f,Davies PLC,Asia/Seoul
srv-35.ashton.org,Guarani,2018-11-23T13:37:52,-21.256083,Switzerland,-72.2858955,North Samuelfort,369,3e:8b:b8:bb:82:4f,"Stevenson, Gray and Howard",Asia/Tbilisi
web-67.taylor-gibbs.com,Armenian,2010-12-04T23:50:20,-15.750377,Mauritius,80.2653465,Benjaminfort,970847,de:26:cf:c7:65:b4,Richardson-Stevens,Asia/Choibalsan
db-20.mcdonald-lees.com,Central Khmer,1975-04-25T08:24:42,4.320971,Finland,82.173813,Smithshire,361402,65:f2:4e:08:39:6f,Jackson and Sons,Asia/Novosibirsk
web-01.walker.net,Kashmiri,1980-02-18T03:32:38,112.405033,Guadeloupe,36.0758825,Ellieview,414,96:73:05:da:c8:c1,Hill-Murphy,Europe/Warsaw
srv-80.payne-smith.info,Kurdish,1975-11-29T19:00:58,120.975036,Mauritania,63.3610925,Lawrenceville,775621509,d8:29:36:ee:45:1c,Lawson Ltd,Asia/Calcutta
desktop-47.shepherd-smith.org,Sardinian,2016-02-21T21:10:15,-142.487533,Singapore,0.4805475,Jordanberg,7221,e5:ed:b5:0a:75:d4,McDonald-Johnson,Asia/Tehran
laptop-72.gordon.net,Cornish,1981-09-25T08:16:44,23.425935,Costa Rica,-69.8234085,Caroleside,84065,2b:48:3f:f0:54:95,Wilson-Tucker,Africa/Algiers
desktop-04.cross.com,Bihari languages,1977-08-12T18:51:49,-31.513508,Afghanistan,-4.8620605,New Aaronstad,8959,e9:14:60:67:92:91,Ford Group,Africa/Casablanca
srv-60.andrews.info,"Sotho, Southern",2002-05-12T06:27:24,136.713484,Grenada,23.825399,East Graeme,3552537,28:7c:4f:cd:b7:e3,Ingram-Stevens,Europe/Athens
laptop-80.davidson.com,Kongo,2007-06-03T08:28:23,-138.341357,Jordan,8.477648,East Marcchester,98294,f8:86:b3:2e:e3:5e,Joyce-Bates,Africa/Addis_Ababa
email-90.james.com,Tatar,2001-05-21T17:30:41,-168.013147,Mongolia,-29.7251365,West Victor,3942,08:59:cd:1a:22:b1,Phillips-Berry,Africa/Addis_Ababa
lt-44.brown.com,Corsican,2017-10-23T08:27:03,-143.658346,Papua New Guinea,68.395803,Andreabury,3378,8a:b3:9b:12:53:e5,Hill PLC,Europe/Minsk
db-62.fletcher.com,Haitian,2008-09-04T11:58:51,-114.623661,Bhutan,-42.291958,Cliffordborough,68673,df:35:63:8b:d4:73,"Edwards, Evans and Howard",Europe/Madrid
lt-41.grant.com,French,2009-08-14T09:22:10,1.095015,Bolivia,23.9650225,South Paigeberg,764101,5d:92:be:0a:57:40,Wheeler Group,Asia/Baku
laptop-73.bradshaw.co.uk,Georgian,1983-08-29T19:08:10,132.026345,Korea,65.2403165,West Ian,677,11:4d:94:9a:ab:41,Baker Group,Asia/Vientiane
email-54.sullivan.com,Tajik,1990-07-10T09:12:54,170.065921,United States Virgin Islands,-13.7210705,Kathrynview,26079263,29:14:66:08:be:35,"Baker, Williams and Brown",America/Antigua
db-34.day.com,Cree,1990-03-28T14:27:13,54.540924,Serbia,-74.7639565,Barkerfort,90197,13:62:e8:d7:4e:6c,Jones LLC,Asia/Bishkek
web-19.page.biz,Ganda,2007-11-16T02:30:58,-135.499590,Argentina,35.0748165,West Marionchester,6810,b2:c5:9b:33:42:a4,Cox Group,Africa/Bissau
srv-93.hughes.com,Mongolian,1998-08-25T13:34:57,-87.110071,Benin,16.1544265,Watsonstad,1258,97:dd:71:01:d3:3f,Williams-Jones,Africa/Libreville
srv-67.harrison-williams.org,Zhuang,1985-03-27T10:11:24,54.351857,Norway,-72.417926,Port Melissa,7495,cc:73:72:b0:ba:65,"Gilbert, Edwards and Goddard",America/Belize
srv-22.blake-harrison.com,Icelandic,2007-01-04T01:44:11,114.508670,Hungary,-13.8368595,Port Lesleyberg,7533155,3c:5f:b8:9d:2e:05,Woodward LLC,Asia/Seoul
laptop-90.harvey-gallagher.net,Korean,1972-05-04T14:33:44,-28.927440,Malawi,44.2716805,Georginatown,26596,6a:d5:c9:a9:60:66,"Peters, O'Sullivan and Patel",Europe/Sofia
laptop-65.taylor.com,Croatian,1973-03-28T19:00:19,-94.080585,Estonia,86.646561,Colinmouth,612532,9c:49:f5:49:cf:4a,"Smith, Bruce and Marshall",Europe/Chisinau
srv-71.houghton-smith.com,Tigrinya,1977-01-21T16:50:21,-170.723070,Samoa,-58.8367525,Bartonside,858597,cc:12:56:73:0f:71,Reynolds-Frost,Europe/Istanbul
email-73.yates.co.uk,Oromo,1980-02-28T03:14:38,46.601065,Paraguay,73.4829695,Lake Joshuaton,164,2a:65:36:f1:8e:e5,"Chan, Harris and Spencer",Europe/Luxembourg
desktop-90.jones.info,Bengali,1979-03-27T06:35:37,-128.649871,Northern Mariana Islands,-45.229070,Pearcehaven,994809912,9c:0a:ca:73:53:27,"Clayton, Richardson and Jones",Asia/Dhaka
web-48.nicholls.org,Hungarian,1986-08-07T19:14:29,-1.316137,Ethiopia,-46.070574,Jordanmouth,4979,47:0b:84:76:02:d3,"McLean, Perry and Ahmed",Asia/Baghdad
lt-26.wilkinson-obrien.com,Esperanto,2006-08-10T14:19:01,132.523436,United Kingdom,-51.6037145,West Damien,953707331,77:f2:f3:12:1e:20,Lloyd-Ellis,Africa/Sao_Tome
laptop-18.bennett-bishop.com,Icelandic,1998-09-17T09:47:26,-24.471529,Brazil,-40.1953865,Armstrongmouth,126,30:2c:df:e6:e6:90,Khan PLC,Europe/Copenhagen
web-66.gill-walker.com,Shona,1994-05-16T03:12:12,-17.992777,Korea,62.8555505,North Wendyport,4115,f5:25:4b:a5:54:4b,Taylor-Davis,Europe/Luxembourg
lt-31.turner.com,Church Slavic,1990-10-16T03:07:24,62.315103,Malta,1.128093,West Timothy,2719,1b:21:0e:cd:f0:2c,Watson-Williams,Asia/Rangoon
lt-83.saunders.com,Swahili,1982-04-13T01:51:23,53.822434,Grenada,41.3035695,Simpsonborough,97771,8b:99:dc:c8:e0:3b,Hill-Jarvis,Europe/Vienna
srv-53.edwards-faulkner.com,Kongo,1975-02-17T14:58:26,-10.941456,Reunion,44.4624665,New Dorothymouth,441,37:be:f1:26:97:25,Powell LLC,America/Barbados
email-42.turner.info,Inupiaq,2009-01-15T04:50:26,-34.225782,Turks and Caicos Islands,-83.275243,Blakestad,28,32:36:80:e0:ec:15,Parry PLC,America/Guatemala
web-06.thomas.co.uk,Zhuang,1982-12-02T12:28:07,173.258374,Maldives,-38.9560265,East Valerie,543,f9:6f:37:a8:e6:14,"Alexander, Curtis and Taylor",Indian/Antananarivo
laptop-62.skinner-ford.biz,Hebrew,2002-08-09T06:50:52,-68.333985,Aruba,3.1272475,Port Colin,8053,88:bb:ff:ca:e1:30,Evans-Miller,Indian/Mauritius
email-27.swift.com,Turkish,2008-12-09T19:07:55,-69.755074,Martinique,-25.1474615,West Julian,903,85:60:00:e0:61:46,Dale-Bradshaw,America/Barbados
web-32.roberts.co.uk,Hindi,1983-07-13T00:41:46,-54.395814,Algeria,-57.822104,Clareshire,73,54:16:6c:86:2e:b4,"Mitchell, Yates and Patel",Asia/Dushanbe
db-91.hussain.info,Twi,2015-02-13T09:13:41,-174.537743,Guadeloupe,13.6907875,Gordonland,217,a4:55:4d:c1:e8:ae,Edwards-Price,Asia/Dili
desktop-03.phillips.com,Pushto,1984-12-21T01:37:54,-166.931040,India,25.971433,Port Rosie,34155,a8:82:5b:89:82:25,Henderson-Ryan,America/Lima
lt-43.baker.com,Pali,1997-06-13T14:32:55,-100.657020,Serbia,83.4834705,New Garryville,602170003,9b:43:a8:62:4f:97,Cook-Briggs,Indian/Mauritius
lt-59.thompson-daly.org,Kashmiri,1988-05-03T16:22:25,47.582541,Guatemala,-59.885595,West Shannon,7749,e5:9d:10:ae:24:da,Gilbert-Brown,Indian/Antananarivo
db-87.bell.com,Avaric,2010-08-30T04:24:13,62.911545,Venezuela,-53.273519,O'Sullivanborough,6569,e6:dc:37:14:f1:7e,White and Sons,America/Merida
email-23.rogers.com,Pali,2020-10-07T12:19:57,95.160122,Pitcairn Islands,86.131843,New Johnland,41590,be:c1:5a:8a:f1:19,Graham PLC,Europe/San_Marino
email-59.heath.biz,Pushto,2006-04-07T23:05:03,78.033193,Mali,5.6668265,Gardinerburgh,99481,44:0d:04:b7:59:13,Kelly PLC,Pacific/Efate
email-84.lawrence.com,Fijian,1988-12-30T18:38:00,-138.663839,Montenegro,22.510611,Mohamedfurt,327313,6d:d7:d8:1e:63:b8,"Thomson, Ward and Howell",Pacific/Palau
web-96.carey.com,Kinyarwanda,1990-10-17T18:04:37,105.421622,Djibouti,-42.294411,Derekstad,31,63:ef:60:8d:3f:e4,"Bond, Williams and Marshall",Asia/Dili
srv-69.matthews-adams.com,Bihari languages,1978-05-16T03:26:26,-42.483239,Taiwan,0.168123,Lydiaborough,28,b8:cf:34:9f:ca:9d,Harrison-Thompson,Europe/Podgorica
desktop-59.steele.com,Vietnamese,2020-09-25T22:39:30,-169.208899,Mexico,-0.638569,West Marilynmouth,9,72:e9:18:e0:3a:72,"Griffiths, Williams and Palmer",Africa/Accra
laptop-98.briggs.org,Sango,1974-02-15T14:36:16,146.487539,Tajikistan,37.8347425,Lake Hughborough,2375300,0d:1a:b1:f7:ca:32,Williams Ltd,Africa/Bamako
db-22.phillips.com,Ukrainian,1984-05-13T09:18:46,13.577370,United Kingdom,10.9447415,South Valerie,1,d0:0d:ba:03:91:9e,"Ashton, Lowe and Sullivan",America/St_Lucia
web-01.wilson.com,Tagalog,2005-05-01T09:57:58,40.560185,Norway,32.6533315,Lake Ryan,5011787,7e:67:75:a0:3d:e7,Sutton-Mills,Asia/Bishkek
lt-81.ward-hunt.com,Sango,1989-10-23T02:55:32,-44.267849,Lesotho,-22.338823,West Jayne,546588095,6b:1e:ed:d7:15:70,Reynolds-Powell,Pacific/Efate
srv-45.barrett.info,German,1994-02-26T03:22:05,56.587449,Lesotho,85.6450275,Janicefurt,640591600,ca:37:82:34:4a:70,Begum-Lloyd,Asia/Colombo
desktop-35.thomas-webb.biz,Oriya,2023-03-30T03:38:17,102.402176,Central African Republic,56.772002,New Dianemouth,7283,3b:40:4f:7a:bb:80,Thomas Group,Pacific/Palau
email-97.green.com,Rundi,1979-04-16T13:37:33,-128.041511,Macao,-37.122127,Lake Zoe,211384,d5:f7:e8:21:44:ba,Roberts Inc,Asia/Vientiane
email-22.ward.co.uk,Marathi,1980-04-26T16:36:20,-29.419335,Netherlands Antilles,74.5087925,Lake Toby,4194626,bc:af:d2:6d:08:15,"Bryan, Burton and Richards",America/Jamaica
lt-11.cox.com,Panjabi,2005-02-26T13:57:20,-20.599659,Bosnia and Herzegovina,28.432020,Lorraineville,2,0c:0a:1b:28:30:0e,Hussain-Johnson,Asia/Kuching
db-60.thomas-baker.net,Kikuyu,1996-11-03T13:56:00,-12.105561,Suriname,18.434596,Port Lesley,93,fe:68:dd:e0:00:07,"Webb, Day and Watson",Africa/Kigali
db-21.roberts-jones.com,Zhuang,1972-06-27T21:36:22,130.866765,Mayotte,-28.818260,Port Leighstad,55,0c:21:3f:31:00:8b,"May, McCarthy and Parkes",Asia/Pyongyang
web-77.read.com,Hungarian,1976-03-30T01:12:28,108.591163,Yemen,85.9017915,Benjamintown,156150310,4b:ea:d0:cb:ae:7b,Wells-Taylor,Africa/Djibouti
desktop-48.phillips-knight.com,Akan,1989-02-26T07:42:32,139.867742,United Arab Emirates,18.8880265,Aaronstad,72278,a9:a9:26:f0:98:dd,Chapman-Williamson,Asia/Nicosia
db-67.williams-sanderson.com,Malay,1987-10-12T23:30:32,-58.536121,Norway,34.825136,Lake Marcborough,763197905,8b:6f:6c:51:22:bc,Harper Inc,Africa/Brazzaville
desktop-39.cooper-hill.com,Mongolian,1997-08-03T16:23:43,132.188489,Cayman Islands,-73.5931195,Jonesborough,704612928,44:08:07:3b:51:00,Morrison and Sons,America/St_Lucia
laptop-35.harrison-carr.net,Kashmiri,1986-02-08T20:19:44,-18.190015,Italy,-58.034153,Scottfort,554236,5b:42:2b:4f:cf:27,Bailey Inc,Pacific/Guadalcanal
desktop-00.morton.co.uk,Tahitian,1994-09-11T23:33:21,-17.026544,Mauritania,9.5983545,Rhysside,417,d2:a6:60:22:44:51,Brown Ltd,Asia/Vientiane
srv-15.douglas.com,Latin,1976-01-04T13:48:33,-56.868630,United States Minor Outlying Islands,12.605720,Port Elliotfurt,83141853,97:bf:d7:f9:c8:e0,"Scott, Lee and Ali",Europe/Copenhagen
laptop-80.hardy-smith.biz,Georgian,2023-01-01T06:43:08,90.786760,Lithuania,-59.897809,East Rachaelbury,356,b1:e8:56:44:cc:65,Gill Ltd,Europe/Zagreb
web-78.campbell.info,Kuanyama,1977-06-16T05:37:07,-162.237345,Kenya,-73.522220,Stanleyside,37978774,dc:b9:23:a2:54:97,Robinson-Jarvis,Asia/Riyadh
db-02.hutchinson.com,Sinhala,1982-11-01T11:48:10,30.997896,Falkland Islands (Malvinas),-75.228952,Zoebury,14509164,e4:b3:cf:ab:ad:fb,White-Nicholls,Asia/Kuala_Lumpur
laptop-33.wright-wood.com,Cornish,1997-11-03T04:06:30,-143.584155,Mauritania,-25.595737,Lake Lindsey,50134,ff:8e:ae:cc:66:15,Murray LLC,America/Guyana
web-14.harris-carr.com,Kuanyama,1993-04-27T00:32:05,-25.752752,Guernsey,-40.2867735,South Owen,3003,a3:15:ae:3a:d2:eb,Reynolds Inc,America/Caracas
srv-28.roberts.com,Interlingua,2015-12-16T05:04:24,-50.949821,Jersey,-10.9307815,Scottbury,5433392,33:ce:88:50:c9:89,"Jenkins, Mahmood and Hutchinson",Asia/Bangkok
email-26.jones.com,Kuanyama,2006-05-12T21:39:08,-134.382171,Japan,-73.5163675,Thompsonberg,970617399,e9:b6:69:34:04:32,Gallagher Ltd,Europe/Ljubljana
db-87.baker.com,Sango,2009-08-27T03:11:49,-44.781329,Papua New Guinea,-65.8912725,Aimeeside,460,0a:6d:03:b3:7c:91,Davies and Sons,Europe/Berlin
lt-18.foster.com,Czech,2002-04-29T12:18:10,91.167924,Italy,-66.2247805,Geoffreymouth,7432,1e:e5:d3:60:88:2f,"James, Crawford and Williams",America/Panama
desktop-72.hammond.org,Tswana,1977-01-17T02:24:49,121.437018,Reunion,87.1964905,Birchfurt,916304,c8:14:65:11:61:dd,"Jones, Lee and Walker",Africa/Nouakchott
desktop-50.carter.com,Danish,2005-04-07T17:34:32,94.533016,Mauritania,-45.284134,Gloverbury,92711,a6:c5:fd:52:23:73,"Khan, Armstrong and Byrne",Europe/Helsinki
laptop-49.williams.com,Guarani,1987-05-25T13:21:52,130.157469,Cayman Islands,3.049557,Clarkeborough,9414425,6a:9e:24:e2:ee:52,"Collins, Hughes and Wood",Africa/Brazzaville
web-10.hill.com,Lao,2012-08-15T19:40:11,169.876234,Kazakhstan,79.8517975,East Angelaberg,655287005,03:28:ba:ab:88:8d,Watts Group,Africa/Lubumbashi
lt-57.richardson.biz,Tahitian,1979-09-05T08:09:19,18.345925,Cyprus,43.0866475,Royfort,76654,1f:be:1e:e4:70:08,Clark-Smith,America/Caracas
lt-64.thomas-moran.net,Zhuang,2004-03-30T05:38:35,-84.776926,Benin,-18.343272,Lyndaberg,82596032,71:25:72:9d:06:b6,"Curtis, George and Williams",Australia/Currie
laptop-98.mann.com,Tajik,2010-08-04T03:25:10,6.801267,Guernsey,-47.5831055,South Justinberg,60123,81:d1:47:4b:e5:72,Moss-Morris,America/St_Vincent
db-34.burgess.com,Bulgarian,1993-01-18T01:02:17,-7.668286,French Guiana,43.369148,West Shaunshire,87859799,e5:eb:8c:71:7d:28,"Carpenter, Shaw and Pope",Pacific/Apia
desktop-34.smith.com,Bosnian,1973-08-24T05:27:26,25.426092,Swaziland,88.3627285,East Williamborough,8258989,c1:ab:a6:6b:20:1d,Smith-Owen,Asia/Tehran
laptop-55.francis.org,Ewe,2018-04-15T07:14:39,84.763444,Timor-Leste,55.407893,Lake Geoffreychester,13302067,54:67:40:1f:0a:af,Wood-Young,Asia/Tbilisi
lt-89.baxter.info,Chichewa,1987-09-12T14:55:39,-159.642963,Madagascar,-26.180484,New Joe,240,3a:84:bb:fd:fd:a2,"Woods, Bennett and Coles",Pacific/Efate
email-67.metcalfe.co.uk,Malagasy,1978-01-27T06:01:45,94.124362,Romania,-17.410433,New Trevor,90,15:a6:41:5a:d1:96,Smith Group,Africa/Freetown
srv-72.osborne.com,Persian,1987-10-09T06:06:04,-134.759613,Mozambique,-21.5695215,New Trevor,6100,a1:51:82:c1:06:57,"Sanders, Davies and Moore",Africa/Khartoum
db-14.macdonald.org,Norwegian Nynorsk,2003-03-21T14:04:00,-46.448169,Japan,-19.077089,Smithside,6,10:fe:85:b6:37:e7,Smith-Mann,Europe/Bratislava
db-34.williams-osullivan.com,Portuguese,1994-05-09T07:05:18,124.510235,Guadeloupe,88.1185985,Marybury,22086102,9f:3e:a7:61:bf:f5,"Rees, Lowe and Holland",Africa/Sao_Tome
laptop-20.clark.com,Ndonga,1991-12-25T04:06:43,-147.402296,Cape Verde,-89.614853,Port Jadefort,7,32:7b:5d:d3:85:50,Phillips Group,Asia/Qatar
web-51.king.org,Dutch,1981-09-08T18:10:02,-71.691862,Lesotho,-3.739694,Hollystad,8209056,57:40:88:fd:79:05,Jones and Sons,Asia/Dushanbe
desktop-69.armstrong-smith.com,Telugu,1982-06-02T09:49:11,-107.014900,Turks and Caicos Islands,-11.606796,Holtchester,350847,31:a1:1d:0d:73:35,Kelly Group,Europe/Vienna
web-44.simpson.com,Lithuanian,1995-11-14T04:29:28,66.959409,Falkland Islands (Malvinas),7.556035,New Amberstad,5986019,47:9f:2d:97:87:50,Gilbert-Day,Europe/Oslo
db-64.iqbal-miller.com,Komi,2014-03-24T10:17:34,-118.916632,Brazil,-9.296385,East Sophiebury,7845,4f:39:47:24:d0:09,Young-Burgess,America/Montevideo
desktop-19.woodward.biz,Persian,1992-02-17T11:38:30,-58.209218,Saint Lucia,34.742096,West Rosieport,33026,a4:1a:da:84:01:42,Moore-Hunt,Africa/Algiers
srv-07.dyer-rowe.com,Walloon,2020-12-14T16:21:28,55.439463,Malawi,-28.157613,New Nathanborough,74,4f:02:27:32:35:87,Rowe-Cooper,America/Havana
email-15.thomas-kelly.com,Greek,2001-11-15T01:29:23,-61.127662,Estonia,80.3325435,East Ashleyside,4186471,86:de:af:1d:99:2b,Humphreys Inc,Asia/Vientiane
db-50.bond-graham.com,Bambara,1996-05-02T23:38:00,-49.736969,American Samoa,26.5469755,Geraldhaven,41,f2:43:3e:58:fd:13,Noble-Gardner,Asia/Riyadh
srv-03.bishop.com,Bulgarian,1997-08-03T18:57:14,-108.062826,Costa Rica,40.3255685,Port Mitchell,5,36:98:5a:3e:81:62,"Ball, Evans and Baxter",Pacific/Palau
web-87.barnett.biz,Norwegian,1989-08-21T20:56:58,65.332783,Bouvet Island (Bouvetoya),-5.6959055,South Richardland,8929,a5:ce:05:00:88:b1,Burns LLC,Europe/Sarajevo
db-68.fuller.net,Kashmiri,2014-08-07T13:46:09,36.805052,Saint Lucia,-77.295616,Hughesborough,0,c7:04:41:02:3c:f4,"Thomson, Hale and Shaw",Asia/Brunei
email-14.jones.com,Marathi,1989-09-12T20:01:53,21.300501,Uganda,82.0816465,Josephinefurt,92,73:50:80:b2:7b:e2,Cooper-Hall,Pacific/Tongatapu
web-37.thompson.net,South Ndebele,2022-06-14T18:49:21,68.248898,Netherlands Antilles,-54.1849605,South Rebecca,2,21:ef:b9:fd:6e:e6,"Scott, Coates and Horton",Europe/Warsaw
email-69.thompson-burke.com,Manx,2006-12-15T14:36:25,-94.955141,Belgium,7.4446735,Lake Georgeborough,5285557,67:64:f7:6f:4c:df,Martin-Bell,Africa/Nairobi
srv-46.stevens.co.uk,Fijian,1992-06-09T14:34:18,-10.453984,Afghanistan,78.490734,West Alexanderfurt,93,6c:59:df:e5:b6:fb,Perry Ltd,America/Hermosillo
db-88.pratt.org,Ukrainian,1977-02-27T09:40:19,145.896363,Saint Barthelemy,1.6449985,West Rhysside,6,5a:b5:4a:78:74:32,"Bailey, Watson and Foster",Europe/Warsaw
desktop-85.jones.org,Faroese,2004-01-12T08:59:40,62.870768,United Arab Emirates,-0.498188,Deborahbury,1,34:7d:93:aa:2f:b5,Mahmood-Martin,Africa/Khartoum
desktop-58.bentley.info,Guarani,1999-07-17T21:04:47,-144.255842,Mongolia,-1.497168,Brendaview,730,fd:4e:70:db:a8:52,Norton PLC,Africa/Asmera
srv-28.pope.info,Samoan,1971-06-09T15:37:55,3.488947,Greece,-63.574787,Dennisstad,77746,b8:24:c5:45:5d:7e,"Nash, Ward and Bailey",Europe/Berlin
desktop-98.sutton.org,Bihari languages,1983-12-10T19:03:04,-46.019465,Christmas Island,-47.3972485,West Francescahaven,2,eb:16:29:ba:93:aa,Mitchell PLC,America/Guatemala
srv-88.reynolds.com,Macedonian,1990-02-12T08:33:12,-50.730300,British Indian Ocean Territory (Chagos Archipelago),-76.437873,Steelechester,7,ce:80:f0:53:9d:19,"Collier, Hartley and Robson",Asia/Kabul
db-83.khan.net,Kazakh,2022-11-22T09:01:50,-44.535881,Philippines,57.7465255,Francisville,5890,cd:1b:d6:e5:57:e3,Carpenter Inc,Asia/Dhaka
db-81.lloyd.biz,Shona,2020-11-23T04:10:34,-123.736525,Saudi Arabia,63.475528,Elliotton,80923,da:10:63:93:dc:c3,Ashton Group,Asia/Brunei
web-31.smith-taylor.net,Chamorro,1979-08-23T08:09:46,-177.690906,Micronesia,-87.554511,East Deborahfort,57782576,6f:73:99:20:74:c4,Ward PLC,Africa/Accra
laptop-14.newton.com,Chamorro,2001-08-24T19:14:31,110.037638,British Indian Ocean Territory (Chagos Archipelago),85.5463195,Geoffreytown,8337245,51:5c:c3:17:d0:fa,Smith LLC,America/Panama
laptop-28.bradley.biz,Tagalog,2022-03-09T17:29:23,-142.290011,Barbados,24.958482,Helenberg,8,08:a5:a2:6f:14:cf,Connor LLC,Asia/Riyadh
laptop-53.cox.org,Slovenian,2004-02-13T23:22:48,156.682539,Jersey,-61.4848965,Paulaburgh,6550179,9f:32:5e:3c:d7:48,"James, Mason and Brown",Indian/Comoro
srv-40.lamb.com,Nepali,2008-03-15T07:48:20,80.826813,Russian Federation,5.207223,North Harryland,6250,20:f3:2e:a4:18:03,Nelson-Patel,Asia/Dili
desktop-03.barber.com,Finnish,2001-02-02T04:33:55,134.578448,Benin,-66.7329925,Stanleymouth,3953,d1:25:40:f2:ff:7a,Evans PLC,America/Santo_Domingo
lt-21.martin.com,Georgian,1991-12-28T00:07:01,93.893724,Dominica,10.1824595,North Melissaland,589307,95:5b:f4:61:ff:7a,"Richardson, Pearce and Burke",America/Guatemala
desktop-42.smith-davies.com,Russian,1976-10-31T13:15:28,-52.426548,Guyana,-18.610021,Port Kirsty,2050,c4:9d:fe:2e:88:d5,"Cartwright, Carter and Jones",Indian/Mauritius
laptop-71.clarke-may.com,Vietnamese,2007-06-12T03:14:17,-87.633907,Cambodia,79.1289595,West Melissa,6,e0:9b:c1:25:82:67,Spencer LLC,Africa/Bamako
laptop-39.lee.org,Somali,2017-04-08T03:10:16,128.584566,Paraguay,70.273425,East Nicolaton,1038557,dd:97:b6:08:9a:2e,"Day, Wilson and Singh",Asia/Amman
web-79.coates.com,Quechua,1975-01-16T06:21:44,-54.095799,Saint Lucia,-17.792107,Barbarafort,71,d6:f5:0f:6b:da:b9,Roberts-Wood,Atlantic/Cape_Verde
srv-85.curtis.com,Estonian,1989-12-31T08:46:54,-78.002790,Seychelles,28.0262855,Lake Joannastad,3,98:c2:c3:8a:1c:5c,Brown-Andrews,Asia/Nicosia
lt-65.evans.info,Icelandic,1999-05-03T20:04:41,-81.658923,Turkey,-15.9419735,Port Marion,86000889,93:24:ef:5f:aa:51,Cook and Sons,Asia/Dili
desktop-37.lewis.com,Hausa,1977-01-26T10:18:14,105.235327,Philippines,-13.789252,Jamieborough,19867288,5e:7b:0c:15:7c:0e,"Watson, Elliott and Barker",Asia/Nicosia
web-82.fitzgerald.info,Tonga,1988-08-13T13:32:35,-112.867446,French Polynesia,-11.070531,Lake Timothymouth,94495506,fa:7e:db:30:a8:15,Harrison LLC,Asia/Pyongyang
laptop-10.watts-tucker.com,Manx,2000-11-03T15:30:53,-21.165372,Angola,-12.156404,Daniellestad,523,b2:10:e4:aa:b9:ee,"Donnelly, Lewis and Thomson",Europe/Vilnius
db-36.thorpe.co.uk,Tibetan,2004-04-20T12:57:17,-91.655452,Belarus,35.135067,South Amy,766,a2:1a:6a:e7:76:e1,Robertson Inc,Asia/Aqtobe
laptop-41.johnston.biz,Danish,1988-07-21T13:44:54,-105.946262,North Macedonia,-27.6634465,Stevensonside,72468745,5f:3c:5f:29:90:06,Lee-Mason,Asia/Beirut
db-37.bird.biz,Latvian,2012-02-26T10:36:48,-70.661080,Western Sahara,38.347117,Foxstad,31492,d4:9f:f5:9d:a9:59,Wheeler-Rees,America/Guayaquil
db-22.hussain.com,Sinhala,1983-11-26T00:36:55,161.976017,Saint Barthelemy,-72.191262,Foxton,520275921,66:0a:48:30:f4:3d,Donnelly-Richardson,Asia/Rangoon
web-02.matthews.com,Estonian,1991-05-13T05:00:51,164.890662,Sierra Leone,-10.835775,West Glenn,7314,dd:87:83:78:cc:ec,Allen Inc,Asia/Riyadh
desktop-57.allen.com,Malay,1975-09-29T17:39:31,-108.681025,Hong Kong,-3.995609,Lake Carl,7563391,75:2c:4a:eb:81:a6,Patterson-Phillips,America/Nome
laptop-74.webster-walker.org,Dutch,1989-03-23T21:46:13,-130.291434,Kazakhstan,-5.567367,Dunnland,97,4b:23:5d:8c:be:55,"Norris, White and Brown",Indian/Mauritius
desktop-81.thompson.info,Rundi,1986-06-09T00:11:02,-167.329261,United States Minor Outlying Islands,20.740053,Fosterland,5,84:f5:54:fc:5c:6b,Davies PLC,Indian/Antananarivo
web-30.kay.net,Chechen,1999-03-25T23:41:00,78.129237,Heard Island and McDonald Islands,73.413556,Benjaminstad,88487574,35:8c:36:b0:31:cd,Harris Group,Pacific/Tongatapu
laptop-80.connolly.com,Hausa,1986-10-10T22:21:48,142.367504,Chad,29.511837,South Saratown,919,8e:61:0d:a6:56:15,Smith-James,Europe/Stockholm
web-79.noble.com,Occitan,2012-11-23T11:27:27,45.452088,Jordan,83.4561155,South Owen,6929,8a:37:1d:54:47:97,"Young, Garner and Matthews",Africa/Harare
email-75.higgins.net,Faroese,2023-08-27T15:36:06,-153.446463,Greenland,-13.963711,East Chloe,448,df:ed:a2:bb:48:a2,Smith-Hancock,Africa/Accra
desktop-77.bell.biz,Twi,2007-07-09T15:06:19,-64.004733,Lebanon,-26.088129,Harveyview,6681,ed:54:6f:3f:b6:8d,Ward-Hunter,America/Nassau
desktop-78.murray-buckley.com,English,1992-02-29T03:48:20,-62.166075,Bahamas,-58.702538,Jacquelineborough,346,e0:72:b5:bd:13:7f,Newman-Kaur,Asia/Muscat
email-78.thomas-begum.com,Gaelic,2016-07-09T09:52:02,67.660467,Netherlands Antilles,-50.183826,Baileymouth,1,b8:5f:ae:bd:fe:22,Jones Inc,Africa/Tripoli
email-90.stephens.com,Sinhala,2013-03-23T05:33:13,-85.765583,Peru,21.748826,North Peter,714553,d1:1f:a9:40:d1:5d,"Singh, Gray and Smith",Europe/Minsk
web-87.jackson.com,Luxembourgish,2001-10-23T10:45:36,100.627982,French Southern Territories,86.867931,East Abdul,509,e4:5c:fd:4a:bc:79,Jones-Matthews,America/Barbados
db-61.green.net,Western Frisian,1980-01-21T07:37:40,-158.345256,Myanmar,-78.9350575,South Russell,5371665,9f:57:97:21:02:30,Jackson-Evans,Africa/Mbabane
email-12.kent.com,Yoruba,1977-03-10T11:12:24,-33.052196,Syrian Arab Republic,58.188852,Batesfort,4592878,b7:38:eb:c2:fd:0a,"Richardson, Dobson and Evans",Pacific/Nauru
db-12.barry.com,Tagalog,1975-07-20T02:12:30,-57.083619,Tajikistan,-60.521904,Wrightport,4629,4b:52:e0:1f:a8:ed,Hawkins LLC,Indian/Mauritius
email-43.hamilton.com,Indonesian,1984-06-21T00:28:06,-38.429350,Palau,46.295646,Chapmanfurt,2279599,2f:a1:46:1b:d6:72,Elliott PLC,Europe/Warsaw
laptop-97.potts-moore.com,Occitan,2004-08-15T19:13:17,177.297208,Angola,-47.503302,South Derekton,36820594,be:62:65:5d:f3:e7,"Turner, Arnold and Butcher",Europe/Skopje
srv-19.james.info,Kazakh,2017-08-06T03:36:46,107.298982,Bahamas,-10.6769245,Farmerland,3,c1:b4:78:29:f5:bb,"Cole, Stevens and Williams",Indian/Mauritius
desktop-52.harrison.org,Urdu,1979-12-06T06:25:52,5.432579,Ethiopia,-49.425258,Poolefurt,4273565,54:ee:c8:f0:81:78,"Ashton, Simmons and Green",America/El_Salvador
lt-35.harrison-edwards.net,Somali,1994-07-23T11:00:28,-155.505487,North Macedonia,-88.989761,Murphyberg,5,b9:e3:fd:73:f7:18,Williams-Kirk,Asia/Samarkand
srv-28.conway-jones.net,Croatian,2005-02-15T12:46:23,-177.968225,Senegal,21.264531,East Matthewport,4687,cc:67:ed:ce:33:85,Wilson PLC,Pacific/Auckland
desktop-80.dale.co.uk,Swedish,1988-02-22T08:27:37,0.920114,Luxembourg,-22.6931555,Jordanmouth,39449,c6:49:a6:69:af:86,Woods Ltd,Europe/Sarajevo
db-50.clarke-bradley.info,German,1975-12-20T16:08:19,150.347505,American Samoa,68.6702775,Caroleside,982470,c1:25:be:b9:b4:e4,"Pearce, Bartlett and Clarke",Asia/Yerevan
web-14.davis.com,Bulgarian,1990-11-09T11:01:42,-147.396109,Poland,2.6272835,Mariemouth,981,ec:9a:18:e7:1a:bd,"Jones, Bryan and Kent",Europe/Oslo
laptop-29.cox-davies.org,Sundanese,1987-08-12T03:30:39,-7.573868,Anguilla,60.4586525,North Louise,13,90:8c:96:d9:e3:84,Walker-Price,Pacific/Tongatapu
web-42.bevan-hughes.net,Sardinian,1970-05-17T06:57:00,-7.136847,Cyprus,58.3295795,Lake Robinchester,447,aa:cb:d3:87:5a:91,"Evans, Baker and Williams",Asia/Saigon
web-11.bell.co.uk,Northern Sami,1979-04-14T20:33:00,-168.903188,Guam,-29.814127,Port Marcmouth,43757,d8:8c:c0:d6:3a:7a,Jenkins-Johnson,Asia/Bangkok
laptop-20.ahmed.com,Nauru,2012-07-08T01:16:54,-85.703125,Christmas Island,36.0764945,Howellsville,812769,9f:a4:ad:a9:0d:94,Mann-Sanders,Europe/Belgrade
email-66.freeman.info,Burmese,2005-09-20T01:32:12,-42.730344,Palestinian Territory,46.773447,Christophermouth,13834639,bc:20:53:8e:86:08,Whitehead-Walker,Africa/Niamey
laptop-59.patel.org,Church Slavic,1978-08-26T09:00:12,78.867233,Korea,83.2930055,Holtville,5824,6e:6e:5c:e5:3e:80,Davidson-Cooper,Asia/Seoul
db-43.scott.biz,Romansh,1971-07-31T21:53:12,103.737908,Paraguay,31.7344405,South Rita,427,1a:15:14:f2:d3:dd,Begum-Norris,Africa/Mogadishu
web-28.williams.net,Western Frisian,2001-07-24T07:06:31,118.930505,Ecuador,60.759131,Steventown,4,ff:ea:2c:bd:c4:59,Davies-Harding,Europe/Bratislava
web-56.quinn.info,Akan,1980-01-02T16:13:15,-88.565419,Greece,74.0618425,Lake Kerry,846,f8:1a:76:07:2f:d3,"Hunt, Brown and Freeman",America/Dawson_Creek
db-23.smith-berry.co.uk,Romanian,1982-06-21T22:53:17,-45.067601,Jamaica,83.7628745,Lynnberg,446,f9:9f:0a:82:68:30,"Nash, Hall and Wells",Asia/Tehran
srv-29.freeman.com,Georgian,2012-03-05T02:36:00,106.328985,Indonesia,52.193233,Kennethland,845,fd:b6:16:c6:7f:aa,Atkinson-Begum,Asia/Dushanbe
srv-59.daly-hughes.com,Zhuang,2004-04-02T02:38:53,68.479162,Tajikistan,16.3085535,Youngborough,943381152,dc:e7:a6:8c:6f:6e,Hope-Watson,Africa/Accra
db-20.crawford-franklin.com,Ndonga,2003-11-13T01:27:08,71.004245,Kenya,41.441107,Wellsview,631802017,1d:0d:f5:f0:fd:c3,"Brown, Dale and Knight",Asia/Manila
desktop-13.brennan.biz,Norwegian,1998-07-25T14:51:03,-46.084436,Kazakhstan,-32.042541,Antonystad,86439,da:8e:4a:17:c8:c7,Armstrong-Thompson,Europe/Copenhagen
srv-90.jones.com,Kongo,2014-06-17T02:01:34,0.013685,Timor-Leste,16.414893,North Deborahbury,7570,93:3e:60:76:66:94,"Bates, Riley and Ward",America/Lima
email-71.perry-stone.com,Esperanto,1994-11-05T12:30:15,16.032092,Lao People's Democratic Republic,66.0944285,Port Bethany,61,c0:43:24:1a:10:f7,Evans Ltd,Asia/Dushanbe
db-39.green.com,Bulgarian,1983-03-06T05:58:17,-52.184423,Serbia,72.9245275,Pickeringbury,0,83:51:e0:1e:a5:6a,"Ward, Burgess and Miah",America/Guyana
srv-68.thomas.com,Limburgan,2017-11-14T11:38:11,140.453031,Germany,-79.7215655,East Graeme,7745280,4f:e1:9d:7d:c0:26,Fletcher PLC,Africa/Maseru
db-47.mistry-french.co.uk,Pali,1988-04-09T11:12:23,168.473223,French Guiana,51.1361005,Fleminghaven,50,d1:c1:c6:e4:31:63,Rose-Stephenson,Europe/Istanbul
db-22.andrews.com,French,1970-12-26T11:05:08,-166.006144,Egypt,-29.228934,East Angela,27776,0a:df:4d:da:36:50,Richardson Ltd,Europe/Athens
web-30.gray-harrison.co.uk,Limburgan,1985-09-03T21:04:17,-3.686164,Morocco,-25.9942275,Port Elliot,760,ae:41:37:a7:ad:0d,Thomas-Clarke,Africa/Windhoek
laptop-54.green.com,Basque,2010-01-13T21:12:41,146.097668,Somalia,-51.266815,East Rickyton,22208319,dd:e3:bb:39:d9:87,Williams-Smith,Asia/Thimphu
srv-76.murray.biz,Bengali,1976-09-01T18:49:49,-85.391324,Niue,-74.5328345,East Chloeton,886,26:b8:9a:c2:96:39,Lewis-Cooper,Asia/Bahrain
lt-30.robson.com,Afar,2003-10-25T06:12:19,-173.906074,Western Sahara,-76.0789685,Hargreavesfurt,710324,80:66:01:7d:4c:80,"Giles, Allen and Shaw",Africa/Douala
laptop-61.williams.com,Xhosa,1990-06-18T12:39:13,-122.160022,Croatia,-37.844156,North Jacob,30558,c7:a1:ee:d3:b1:1f,Lowe-Hill,America/Bogota
lt-38.ryan.com,Inupiaq,1970-09-04T07:45:31,13.098048,Canada,-27.841124,Dominichaven,1,b7:20:71:6d:f4:82,Harrison-Harper,America/Grenada
db-21.smith.com,Church Slavic,2008-02-08T18:34:00,143.663687,Czech Republic,-41.670522,Birchmouth,17997,ac:7f:9b:8a:4f:7f,"Jones, Robinson and Parker",Europe/Belgrade
laptop-67.smith.info,Welsh,1970-02-17T04:44:31,103.697663,French Guiana,19.4686115,Baxtertown,642,78:c6:6e:a7:18:e8,Barlow-Butler,Europe/Helsinki
lt-03.jones-smith.com,Norwegian Nynorsk,2003-03-03T11:53:16,118.725343,Libyan Arab Jamahiriya,-33.8523905,Hannahshire,668,68:21:3f:a5:84:f9,"Hall, Norris and Clarke",Europe/Malta
web-73.scott-schofield.com,Kazakh,1982-11-30T14:44:53,102.617950,French Southern Territories,-15.9282085,Marcmouth,56,e6:ac:0b:29:79:8a,"Warren, West and Pearce",America/St_Kitts
desktop-40.martin.com,Ndonga,1985-09-01T04:19:24,40.838523,Lebanon,-80.782739,West Joyce,5,1e:bf:60:86:fd:19,"Holmes, Tyler and Rhodes",Asia/Baku
email-58.edwards.info,Amharic,1980-03-31T07:04:43,73.720839,Lebanon,54.647437,North Robert,5672898,f9:28:f6:94:33:bc,Singh-Allen,Indian/Comoro
web-52.atkinson.biz,Sindhi,1987-06-24T22:36:43,45.668525,Saint Pierre and Miquelon,86.1731455,New Geoffrey,5,bd:ca:ff:53:2b:e1,"Thomas, Whittaker and Taylor",America/Havana
lt-70.hardy.com,Chichewa,1985-04-28T05:55:34,-63.556105,Tokelau,-44.0862875,Lake Deanside,2,3b:ff:a4:00:25:cc,"Marshall, Thompson and Morgan",Pacific/Tongatapu
laptop-24.harrison.org,Navajo,1987-01-13T01:55:31,9.312997,Albania,32.216723,Lake Kathleen,94048,86:f7:63:0c:98:d7,Jones-Ashton,Africa/Lubumbashi
lt-98.newman-giles.com,Afrikaans,2014-03-30T17:25:17,-85.951424,Isle of Man,-6.021867,South Timothyborough,7227,dc:ac:63:6e:ad:14,Ali Inc,Africa/Banjul
email-66.green-shaw.com,Sango,1998-07-29T22:35:59,-149.789556,Mali,-27.895497,Wellsside,8035,dd:34:45:17:69:f1,Miah and Sons,Europe/Vilnius
srv-51.pope.com,Sindhi,1986-07-08T13:34:44,-89.338303,American Samoa,34.382356,South Jamieberg,480906,77:40:82:a4:39:35,Brown Inc,Asia/Tokyo
srv-89.warren.com,"Sotho, Southern",1979-06-17T16:51:36,-42.916414,Jamaica,-84.140701,New Conor,45035,db:3d:0e:b5:7d:8e,"White, King and Archer",Asia/Tashkent
db-94.clark.com,Fulah,1981-09-14T09:46:12,45.739607,Palestinian Territory,23.099603,Huntmouth,61405577,d5:55:0d:43:83:59,Owen-Quinn,America/Argentina/Jujuy
email-81.francis-williamson.co.uk,Pali,1982-08-04T23:44:53,-115.458264,Monaco,55.777172,Andreaview,483257332,66:88:c8:b6:54:09,"Hart, Harper and Heath",Europe/San_Marino
web-42.ward.com,Walloon,2014-10-05T20:02:45,7.764646,Tuvalu,2.960405,Gregoryland,9262,93:21:48:20:22:ec,Morris-Barker,Africa/Blantyre
db-48.daly.net,Basque,1982-11-27T15:15:11,41.471676,Saint Kitts and Nevis,-38.812279,North Natashabury,405664565,ef:bb:0b:c8:9d:db,Smith Ltd,Europe/London
email-59.clark.com,Nauru,2005-08-17T18:17:37,173.124476,Iceland,64.134947,Mollyfurt,60,6a:c7:04:7f:72:d2,Allen PLC,Pacific/Guadalcanal
srv-09.bennett.com,Welsh,2007-08-12T23:20:55,-131.924206,Zimbabwe,55.1467195,Port Nicoleland,454145998,a4:a0:f3:0f:fa:f9,Brown-Byrne,Africa/Lome
email-36.brown-metcalfe.com,Azerbaijani,2012-03-05T18:41:50,97.059826,Norfolk Island,29.127786,East Marieton,47541,0f:7e:ff:e8:09:f8,"Brooks, Carroll and Walker",Asia/Damascus
laptop-90.jones.org,Ojibwa,2006-04-05T06:35:11,-167.583008,Cocos (Keeling) Islands,69.512720,Jacquelineport,44989,47:4a:fd:59:4e:66,Gibbons-Baker,Pacific/Nauru
email-87.hope-brown.co.uk,Tatar,1970-11-20T21:01:51,-109.179639,Palau,-51.070107,Charlesbury,25125,6d:85:3f:33:42:d1,Williams Group,Asia/Riyadh
email-89.hughes-jones.org,Panjabi,2002-03-17T01:12:36,78.682580,Montenegro,-43.244838,East Kimchester,58,04:67:16:d3:3b:fc,"Evans, Bradshaw and Lane",Europe/Belgrade
email-26.kirby.org,Kirghiz,1989-11-09T10:59:45,-124.787469,Samoa,74.0552735,Catherinefurt,91163146,f4:d6:b9:a6:ae:4b,"Lewis, Hill and Doyle",Africa/Blantyre
db-06.henderson.com,Wolof,1979-11-05T07:27:09,175.040531,Malaysia,86.6660315,Lesleymouth,8,af:ec:e2:41:f7:6c,"Collins, Poole and Jones",America/Montevideo
laptop-64.gould-read.com,Hausa,1988-10-03T03:22:55,104.619184,Timor-Leste,-87.987839,Simmonsview,26,7d:92:a0:9c:6b:bf,Ryan-Powell,Europe/Vaduz
laptop-14.hill.com,Chinese,2018-04-05T17:42:24,67.036812,Saint Martin,-19.068872,Eileenchester,0,e6:e4:44:88:17:45,Simpson and Sons,America/Rainy_River
srv-17.harrison-howe.com,Irish,1990-08-21T04:39:24,120.373326,Ukraine,36.294334,Barnesland,974283,15:8c:2b:e9:00:c6,Ahmed PLC,Europe/Berlin
desktop-51.donnelly-kelly.info,Swati,2021-06-17T00:55:20,135.444957,Malta,60.181968,Wardville,7391,6c:70:40:3e:2a:c2,Skinner Ltd,Africa/Kampala
desktop-39.yates-mills.com,Latvian,2001-04-14T21:18:00,-10.924985,Northern Mariana Islands,-32.236075,East Mohamed,48289,51:d7:7b:c8:53:0f,Lewis-Glover,Europe/Brussels
db-05.bray-patel.com,Javanese,1991-03-29T01:50:47,-104.245116,Palau,-0.9896525,East Clifford,99573,7c:08:84:f0:2f:bb,"Smith, Robson and Dickinson",Africa/Cairo
desktop-75.kelly.info,Herero,1993-05-24T01:41:56,-115.444191,French Guiana,56.310625,East Reece,41443,3c:d8:27:7b:9e:61,"Hargreaves, Foster and Ward",Pacific/Efate
db-39.hyde-wilson.com,Tahitian,1976-10-10T16:46:47,129.284870,Gibraltar,28.1081145,Howardburgh,49517,14:7d:91:f6:c8:bb,"Davies, Jones and Chapman",Asia/Jakarta
web-80.parker-howarth.org,Kirghiz,2012-06-14T12:28:34,33.341584,Reunion,-0.076126,Watkinshaven,24670481,74:83:d9:02:df:0f,Wright and Sons,Pacific/Nauru
desktop-99.tomlinson-cross.com,Greek,1979-09-15T18:53:19,-28.376344,Andorra,30.729988,Carolinestad,0,54:07:25:27:8a:22,Davies PLC,Pacific/Funafuti
web-65.hawkins.com,Central Khmer,1977-01-04T12:31:02,47.175443,Chile,6.5262305,New Rickyview,814474,64:b4:40:c9:2b:7f,"Coles, Phillips and Bradley",Europe/Warsaw
laptop-63.hooper.info,Samoan,1975-07-27T23:26:47,-56.271556,Mongolia,62.8669685,Joeside,1363,a2:6b:43:88:d7:67,Walsh-Young,Africa/Windhoek
lt-43.andrews.com,Ndonga,1972-03-22T03:09:26,-74.874294,North Macedonia,44.869121,Hollowaychester,810452,21:9d:17:d6:68:74,Brown-Humphreys,Europe/Sarajevo
laptop-91.hart-clarke.com,Welsh,2004-10-23T10:37:49,19.776374,Jordan,-82.9393065,Smithshire,257521016,ce:dd:45:a8:e1:c9,Russell-Tomlinson,Asia/Jerusalem
laptop-48.cooper.com,Divehi,1976-03-29T10:03:52,8.261695,Heard Island and McDonald Islands,29.884819,Georgeborough,8477,cb:15:e9:8d:4a:2d,Poole-Jones,Africa/Bujumbura
email-79.shaw-jones.co.uk,Ukrainian,1972-08-23T10:46:25,-56.992799,Antigua and Barbuda,-78.3015005,Helenside,2557682,90:91:85:d7:2c:0f,Greenwood LLC,America/Grenada
email-46.lloyd.com,Catalan,1999-01-29T08:08:01,26.512681,Mali,-54.452776,Sykesbury,44053,11:26:4a:ec:b1:bf,Moore-Wood,Asia/Rangoon
lt-39.williams.org,Dutch,1979-02-17T23:18:29,121.382873,Argentina,2.372846,Sharpechester,63,3c:aa:60:02:c3:7b,Webster Group,Asia/Ashgabat
web-64.frost.com,Danish,1984-10-09T05:31:44,-82.801378,Congo,63.9457695,East Raymond,7154,1e:ab:04:00:0a:6d,Lee-Edwards,America/Costa_Rica
email-42.cook-franklin.biz,Sinhala,1998-07-06T19:52:53,-154.178338,Iceland,84.918728,Rosietown,701364873,d9:71:62:20:ba:60,"Davies, Sharpe and Williams",Pacific/Port_Moresby
email-00.townsend.co.uk,Ido,1988-06-21T03:15:30,177.187685,Guatemala,32.738489,South Jeffreymouth,3358082,4f:87:8a:e3:12:e5,Harris Ltd,Africa/Bangui
db-35.hussain-humphreys.com,Sardinian,2010-10-16T06:39:46,40.157378,Brunei Darussalam,-45.253977,Garrystad,49561361,04:42:23:5d:57:bc,Abbott PLC,Asia/Makassar
laptop-01.potter.co.uk,Sundanese,1996-11-14T08:49:39,116.418192,Zambia,17.076618,Hunterburgh,6600,e4:42:d4:85:84:80,"Marshall, Atkinson and Wilson",Africa/Bujumbura
web-59.mcdonald.com,Esperanto,1986-09-20T02:12:36,128.159707,United States Minor Outlying Islands,84.849988,Matthewsshire,876811,08:5a:74:1f:68:3f,Booth PLC,Africa/Gaborone
srv-04.begum.net,Sango,2000-12-20T20:03:45,-173.022701,Tanzania,-17.876907,West Stephen,92,30:14:96:c2:56:52,Adams-Campbell,Africa/Dar_es_Salaam
lt-46.shaw-warren.biz,Hausa,1980-01-22T18:53:14,-6.281360,United States of America,-23.381205,Harrietmouth,3597,4d:03:04:62:35:97,Clark-Watkins,America/Dominica
email-25.williams.info,Korean,1975-06-07T05:26:25,-64.925136,Benin,78.2538555,South Gemmatown,57184172,bb:10:cf:04:e6:0e,Owen-Hobbs,Pacific/Auckland
lt-09.bradshaw.com,Northern Sami,2003-02-05T00:18:55,163.218161,Croatia,85.0382785,Bartonton,8860463,cb:d0:60:a7:91:fb,Wilkinson LLC,America/Yakutat
laptop-26.fox.com,Gujarati,1977-07-15T18:44:48,1.463929,Chad,-80.6888145,Murrayview,64,68:f8:47:44:9b:dc,Jones LLC,Europe/Luxembourg
laptop-44.richards-glover.net,Finnish,1990-08-14T21:30:02,25.215054,Cocos (Keeling) Islands,14.210013,Charlieview,90,c8:33:8d:3a:60:0d,Reed-Lee,Africa/Maseru
db-58.jones.com,Luxembourgish,2006-09-29T05:45:59,-28.121813,Mauritius,48.5173285,North Sallyberg,4,f7:4d:ef:30:f7:51,"Brooks, West and Mistry",Europe/Vatican
lt-24.davis.com,Ukrainian,1992-12-02T14:42:18,77.677195,Lebanon,-71.372737,West Kayleighton,543207,2f:20:6e:8c:c4:e9,Brown-Walton,Africa/Bissau
lt-55.hughes-davison.biz,Nepali,2011-06-01T15:21:29,-77.969151,Barbados,3.844569,Warnerberg,83916323,1b:a8:98:16:4d:0d,Humphries-Webster,Europe/Monaco
lt-22.jones-williams.net,Urdu,2007-10-17T08:37:24,-132.542195,Korea,-89.4997095,New Patricia,535206297,2d:b6:1c:14:f5:8e,Morgan-Smith,Europe/Bucharest
laptop-14.george.com,Kurdish,2009-02-17T23:50:51,-97.653322,Aruba,-69.6441645,North Emilyport,6,cb:c5:0d:d7:f9:66,"Smith, Wilkinson and Williams",Asia/Beirut
laptop-44.mckenzie.biz,Swedish,2007-02-22T13:21:24,170.588255,Afghanistan,-36.248361,Thomaschester,8,13:bb:e1:5d:6d:e7,Barber-Foster,Pacific/Galapagos
db-73.yates-kennedy.com,Fulah,2009-09-09T10:50:54,-132.023582,Liberia,-30.3712325,East Mohammedview,190188063,50:20:ad:64:38:c7,Williams and Sons,Africa/Bamako
email-48.murphy-davies.biz,Sinhala,1977-12-05T11:23:19,-138.573261,Malta,88.545315,Susanview,8132,15:28:38:e1:d8:51,Jones Group,Atlantic/Reykjavik
web-66.rogers.net,Albanian,1981-05-31T00:22:59,-140.846104,Kuwait,-48.431978,Teresaberg,95426168,65:ae:6e:a8:7a:f3,"Holt, Jones and Summers",Europe/Malta
lt-32.wood-clayton.org,Armenian,2020-04-27T02:18:48,-49.188499,Papua New Guinea,89.020452,Wendyport,444,ce:8c:64:5b:62:fc,Kennedy and Sons,Australia/Lord_Howe
db-67.clark-edwards.org,Divehi,1979-03-23T23:44:38,62.931730,Morocco,-13.478357,West Garry,331168,cc:3b:9f:bf:00:37,Jones Ltd,Pacific/Efate
srv-42.johnson.info,Bihari languages,1988-05-11T12:39:38,133.121900,San Marino,61.8177435,Port Joyceview,3461,10:70:9f:6d:98:e1,Kerr-Harrison,America/St_Kitts
email-43.moss.info,Tatar,1999-02-24T22:22:21,-27.724306,Timor-Leste,-42.6710685,Nathanhaven,96603,c6:26:00:de:ac:79,"Wallace, Skinner and Brown",Europe/Stockholm
lt-51.marshall.com,Wolof,1999-08-30T01:17:54,116.479049,Sudan,74.197789,Lake Francesca,342166718,e8:2b:05:f6:71:4f,Taylor-Lamb,Europe/Brussels
db-85.chambers.com,Japanese,1976-06-13T11:02:41,-14.015987,India,76.355884,Frederickville,929,5e:73:3d:87:3a:8f,"Brown, Hayward and Doyle",Asia/Phnom_Penh
laptop-25.jones-dixon.com,Lingala,2011-05-15T07:45:55,134.028075,Solomon Islands,-2.652152,Edwardsmouth,292607494,d3:a4:13:25:21:09,"Walker, Smith and Nolan",Africa/Malabo
desktop-18.pickering.org,Aragonese,1988-10-13T05:29:23,139.807645,Chad,-88.8786955,Chloeville,83,45:85:bc:60:85:88,"Lee, Read and Turner",Europe/Amsterdam
db-53.scott.info,Kannada,2009-10-26T21:31:21,150.095259,Estonia,-23.2750495,Rhyston,9,df:8b:39:56:55:09,"Harrison, Parry and Rhodes",Europe/Podgorica
laptop-72.edwards.biz,Bulgarian,2010-07-11T19:13:28,-157.454919,Pakistan,-11.1849475,Gregoryshire,7190896,8d:9e:0a:75:61:41,"Taylor, Walton and Gray",Asia/Aden
web-34.barker-jennings.com,Herero,2011-12-11T18:52:52,136.619761,Swaziland,-74.906035,Kayleighborough,21604479,f6:3f:c0:12:05:55,Holmes Group,Australia/Brisbane
email-64.singh.com,Somali,1985-02-06T12:20:00,-142.106860,Anguilla,7.959188,Port Jade,89108478,52:80:08:be:74:b5,Doyle Group,Africa/Lusaka
db-01.bell.com,Yiddish,2008-03-25T01:39:16,-62.420123,Cook Islands,-44.9610855,Dorothyhaven,1828191,b3:02:b2:25:5d:02,Leach-Gray,Asia/Hebron
srv-81.hawkins.com,Haitian,1972-05-24T08:32:42,67.068927,New Caledonia,71.113515,Lynnehaven,728857,d8:95:47:a9:38:73,Ward Group,Asia/Bishkek
lt-38.patel.net,Hausa,2003-07-21T23:53:30,-110.817684,Poland,-52.7908935,Carrchester,7482392,28:d7:b3:77:c4:3b,"Nicholls, Ward and Hicks",America/St_Kitts
laptop-79.palmer.biz,"Sotho, Southern",1995-09-13T09:15:33,-91.669576,Tuvalu,-9.842263,Macdonaldport,489559,da:82:b8:ee:98:2d,"Reeves, French and O'Connor",America/Antigua
web-76.smith-pritchard.co.uk,Tajik,1970-01-13T11:09:52,-36.078441,Tokelau,-23.8421825,East Phillipfurt,61,96:e0:c8:c5:ef:ba,"Moore, Brown and Gray",Africa/Ceuta
web-17.vaughan-james.info,Chamorro,1989-06-17T02:18:40,127.039583,Samoa,41.725449,South Harry,99721720,24:7a:c7:96:97:09,Burns-Miah,Europe/Amsterdam
email-33.williams.com,Japanese,1972-04-17T08:19:05,139.781292,Nauru,53.3447855,Sheilachester,47355472,2c:40:27:c9:a2:22,"King, Graham and Murphy",Indian/Antananarivo
db-35.hawkins.com,Swedish,1989-02-11T03:57:31,-13.554512,Iran,15.7513135,Dianaburgh,7727942,34:0f:54:27:26:0b,Gregory-Shah,Asia/Saigon
email-29.clark.com,Latin,1994-03-01T11:27:02,-24.485992,Guatemala,-8.5644735,Turnerton,66898662,d8:7a:43:c9:ec:87,"Holmes, Richardson and Oliver",Africa/Conakry
laptop-10.ahmed-davies.biz,Ossetian,2016-06-16T05:50:19,-46.683811,Andorra,-34.463153,New Dianeland,5,85:20:53:59:f0:7b,Connolly and Sons,Africa/Ndjamena
desktop-85.kirk.org,Kazakh,2006-05-17T10:49:13,-137.268527,Saint Helena,11.973475,Townsendstad,953,6b:a2:17:8b:7a:68,Vaughan-Mason,Africa/Asmera
desktop-78.cartwright-marshall.com,Uighur,1970-02-20T19:20:15,93.237976,Angola,63.508741,Damienview,88,32:c3:15:7c:41:cb,Frost-Bailey,America/Caracas
web-57.barber.com,Corsican,2018-04-13T05:35:14,174.412878,French Southern Territories,-56.9524745,New Valeriestad,626,3f:38:d2:fa:76:c9,Stone Ltd,Indian/Comoro
laptop-43.brown.net,Cornish,1989-01-10T20:54:43,-97.572165,Turkmenistan,63.670287,South Lynda,130,bf:82:6c:fc:e3:c8,Watts-Dickinson,Africa/Libreville
lt-43.bishop-williamson.com,Czech,2020-11-23T10:18:09,-42.610236,Benin,-14.9472715,Maxfort,493624,d2:f9:89:42:a9:69,Davis and Sons,America/Lima
desktop-05.parry.info,Ukrainian,1975-11-26T00:54:33,-102.079741,Lebanon,24.200014,Georgemouth,957,a9:4c:e6:90:81:3c,Harrison and Sons,Africa/Douala
lt-91.wright.info,Tibetan,2015-06-17T20:32:46,-59.295237,Chad,-26.094126,Aimeeshire,0,a6:b6:4d:53:99:a0,Davies-Murray,Asia/Vientiane
lt-11.ryan.com,Welsh,2017-04-20T05:40:13,14.181662,Luxembourg,-37.147782,South Leslie,774,55:cb:27:58:9a:1a,"Robinson, Jackson and Stevenson",Europe/Amsterdam
laptop-83.wright-dunn.info,Bashkir,1973-07-12T23:53:47,-83.315565,Iraq,72.4025725,East Wendy,2164316,7f:3f:12:ed:d7:a8,"Hussain, Begum and Wood",Europe/Bucharest
srv-12.robson.org,Corsican,1971-04-20T18:38:54,105.780732,Sri Lanka,0.7114345,Jacquelinemouth,17628,2b:09:5d:b9:08:c5,Holt-Fox,Africa/Bujumbura
srv-83.white-morgan.com,Yiddish,2008-04-06T02:05:17,25.696037,Philippines,-7.799435,West Joan,4958,4e:9d:d7:b1:ec:42,"Harris, Smith and Williams",Africa/Abidjan
web-56.walker.net,Ganda,1980-09-11T20:33:52,25.554596,Trinidad and Tobago,72.4751245,Geoffreychester,588576,82:88:7b:9d:a8:b9,Powell and Sons,Asia/Hebron
email-68.williams.com,French,2021-11-30T05:12:32,-124.640615,Montenegro,15.521159,Bevanside,7,04:06:7f:55:62:82,"Mitchell, Porter and Richards",Australia/Lord_Howe
laptop-86.moore-begum.co.uk,Kongo,1988-06-24T15:07:24,21.442426,Eritrea,-55.496987,Fullerville,23239803,08:2a:b2:7f:c4:b7,"Nash, Smith and Jackson",Europe/Helsinki
desktop-29.carr-lyons.com,Bulgarian,1970-02-11T23:43:42,-13.537208,Barbados,-22.497131,Taylorburgh,6,f3:a9:59:7f:45:f4,Cooper PLC,America/Costa_Rica
lt-07.carr.net,Bihari languages,1975-10-03T16:03:58,-139.704650,Heard Island and McDonald Islands,32.0098285,Carolburgh,78012421,87:62:41:86:13:b8,Davies-Gordon,Asia/Brunei
db-78.matthews.com,Sichuan Yi,2009-01-01T21:35:11,-89.264283,Saint Kitts and Nevis,-46.1552745,North Samport,851145524,1a:05:86:b4:51:cc,Johnson-Richardson,Africa/Windhoek
db-28.davies.com,Chamorro,2016-04-17T01:18:16,-101.571232,Russian Federation,48.631833,Catherineville,46249,77:e8:a5:cf:0c:63,Lamb PLC,Asia/Karachi
desktop-30.cooper.net,Kikuyu,1988-10-31T15:16:58,-71.916125,United States Minor Outlying Islands,-30.250805,South Josh,5566,f2:17:4b:c5:73:12,Hayward Inc,Europe/Brussels
lt-24.norris-forster.com,Romansh,2005-12-13T07:38:44,141.299630,United Arab Emirates,32.472924,North Hazelhaven,74107,26:27:9a:ba:b4:70,Edwards-Allan,Europe/Moscow
laptop-43.fox.org,Quechua,1997-10-03T14:25:39,-105.264667,Indonesia,-18.206552,Kerryville,7327,1e:42:85:cf:96:2c,Phillips-George,Asia/Phnom_Penh
srv-40.cook-collins.info,Urdu,1993-07-14T00:02:00,80.381196,Madagascar,-22.9385105,Harrietview,90161834,5f:3a:e1:5f:70:24,Bird PLC,Asia/Amman
desktop-09.williams-miah.com,Cornish,2008-03-22T04:02:31,13.289595,Aruba,-15.1695085,Port Caroline,64091,ef:c4:b7:c8:94:cb,"Cook, Holmes and Wilson",Africa/Nouakchott
srv-65.ford-bell.biz,Ukrainian,1986-09-11T18:54:46,-122.895471,El Salvador,-13.349290,Lake Benjaminville,19484849,87:07:ec:a9:72:f7,Singh-Gough,Africa/Bujumbura
web-89.collins-walker.com,Bambara,2016-03-16T10:38:54,36.541304,Afghanistan,-87.4488385,Caroleton,749,6a:81:71:6f:88:53,"Elliott, Harrison and Newman",Europe/Stockholm
email-49.smith.com,Rundi,1993-10-03T13:58:08,-35.287165,United States Virgin Islands,-63.728411,East Charlene,46314166,a8:00:69:b1:39:5a,"Hall, Knight and Hunter",Europe/Brussels
lt-61.hutchinson.co.uk,Aragonese,1972-08-16T04:52:57,-56.385228,Spain,36.976557,North Bernard,230,29:ef:88:40:96:0d,Gilbert-Bradley,America/Eirunepe
desktop-38.black.info,Hebrew,2003-02-05T00:26:53,92.567791,United States of America,-12.519415,Barbershire,2415,7e:2d:70:32:bc:d5,"Smith, Williams and Wright",Pacific/Majuro
srv-09.poole.co.uk,Azerbaijani,1986-02-11T05:43:04,-19.189942,Puerto Rico,58.8023525,Hancockfort,61,9b:92:6d:0d:95:fc,"McDonald, Armstrong and Jones",Asia/Kabul
laptop-38.griffin.com,Slovak,2008-11-02T16:45:02,-89.510012,Ethiopia,-53.024440,Vaughantown,115187,df:82:da:81:12:f5,Bradley-Lloyd,Africa/Banjul
email-10.martin.co.uk,Polish,2020-02-16T07:19:55,3.075247,Bosnia and Herzegovina,0.4263145,Portershire,87450,a4:91:f9:19:e6:61,Edwards and Sons,America/Paramaribo
laptop-68.andrews.info,Rundi,1984-12-16T02:34:13,156.774081,Cape Verde,69.672639,Chelseaton,16,21:57:83:37:1a:e0,Richards-O'Connor,Asia/Amman
email-13.giles.info,Lingala,2017-12-29T05:13:29,-162.781957,North Macedonia,35.300487,Clairemouth,8028377,5b:50:31:41:c3:c7,Watson-Harris,America/Havana
email-33.bradshaw.com,Russian,2019-03-18T03:42:33,-175.518087,Slovenia,-77.132488,Wilsonton,87491,9e:f3:f6:d7:58:24,Barrett Ltd,Africa/Ouagadougou
lt-53.hooper.info,Aragonese,1983-09-24T22:19:57,130.897894,Korea,-4.962885,South Leslieview,3575,20:79:89:55:00:a7,Jones Group,Africa/Sao_Tome
db-16.goddard.com,Galician,1999-06-19T10:59:09,119.899107,Brazil,-15.085640,South Gerardmouth,1,d7:77:26:05:ec:ec,Fox-North,America/St_Lucia
desktop-63.miles-heath.org,Icelandic,1987-02-28T22:36:50,-74.999637,Sri Lanka,69.960157,Christineberg,480,60:52:a7:14:0c:0d,"Butler, Chamberlain and Newton",Asia/Tashkent
srv-51.burke.com,Italian,2008-10-30T16:28:40,-135.230831,Montserrat,-4.5388005,Matthewsview,96991374,a0:a2:2b:b6:ea:9c,Ellis-Wyatt,Asia/Yerevan
db-62.barker-lamb.org,Norwegian Nynorsk,1991-04-27T22:03:28,46.401324,Barbados,44.392449,Hallburgh,921492941,aa:3b:f6:9e:cf:9c,Taylor and Sons,Africa/Johannesburg
web-46.williams-jones.com,Spanish,2016-02-27T22:15:04,117.111968,Japan,86.670840,North Wayne,76557032,b6:03:d6:49:ab:9f,Jones-Myers,Africa/Luanda
srv-54.williams.com,Western Frisian,2010-07-17T16:35:31,44.567503,Netherlands Antilles,86.3976615,Sarahmouth,256260,43:8d:6d:b2:05:ea,"Faulkner, Evans and Boyle",Pacific/Kiritimati
laptop-52.hunt.org,"Sotho, Southern",2015-08-31T18:12:12,79.177942,Western Sahara,-68.778355,West Mathewport,4567,18:03:da:50:0c:de,"Kent, Jones and Mahmood",Europe/Amsterdam
srv-12.edwards.biz,Ukrainian,1979-04-17T14:35:44,-136.571233,Greece,-45.1424375,Campbellmouth,4101088,0d:0b:9b:8d:68:4b,Booth Ltd,Africa/Lusaka
desktop-22.marsh.net,Ndonga,1998-08-22T01:34:17,-143.887390,Western Sahara,-78.1873705,Lake Leonardhaven,828787918,16:2b:d8:91:e3:9e,Long Group,Africa/Lome
db-59.taylor-taylor.co.uk,Catalan,1997-04-19T09:07:56,-123.714926,Jersey,2.029136,East Rogertown,5403,4e:5c:31:da:42:e6,"Ball, Chapman and Rhodes",Africa/Tripoli
srv-33.ahmed.org,Spanish,2017-09-12T06:35:27,-51.851606,Isle of Man,64.3199815,Lake Molly,4101884,8c:ad:21:08:00:42,Bowen-Nixon,Asia/Bishkek
laptop-74.khan.biz,Ndonga,1993-09-09T20:52:33,-138.702975,Niger,-40.3332635,New Trevor,6436636,cb:f8:ad:01:9f:31,Foster Group,Pacific/Apia
db-96.sharp.biz,Slovak,2022-01-18T10:01:01,42.147285,Panama,-26.2936315,Dannyborough,309,76:b1:67:04:d1:58,"Kaur, Smith and Elliott",Asia/Rangoon
srv-80.davies-anderson.com,Chamorro,1971-06-13T19:46:41,72.532712,Swaziland,31.1741355,Melanieborough,989367109,5e:10:c8:34:60:87,Barnes-Williams,Africa/Douala
email-32.gregory.com,Interlingue,1971-05-07T09:14:37,70.088534,Cambodia,-69.7515205,North Gareth,51,85:49:03:75:6f:13,Stewart-Bailey,Africa/Mbabane
db-77.scott.info,Norwegian Nynorsk,1972-01-02T16:06:34,-165.645120,Costa Rica,44.964080,Jasonstad,35583775,21:0d:52:8a:ab:99,"Clark, McLean and Smart",Asia/Seoul
laptop-22.richards.org,Tigrinya,1973-12-29T17:09:26,62.906289,Sweden,-89.839370,West Glen,4,95:c8:b2:0f:75:2e,Harrison Group,Asia/Rangoon
laptop-91.jones.org,Avestan,1978-12-27T11:58:42,-111.338850,Reunion,-73.252249,Kirbymouth,95480,06:76:1e:70:ee:13,"Sutton, Hall and Watson",America/Paramaribo
laptop-65.green-jordan.com,French,1991-06-24T12:10:17,-41.117611,Uruguay,-27.1002575,New Patriciafurt,455,34:1b:2e:54:63:ec,"Coates, Harding and Rice",Africa/Addis_Ababa
web-77.jones.info,Abkhazian,2005-08-28T19:40:42,86.216769,Cayman Islands,-89.2129605,West Martynhaven,84852,29:9c:b0:87:91:3a,Jackson Group,Asia/Seoul
desktop-26.johnson-hughes.com,Russian,1976-12-20T19:50:39,-168.002987,Togo,82.064058,Geraldinemouth,725711,b4:a1:38:ea:b0:56,Parker Inc,Africa/Ndjamena
web-13.webster-green.info,"Sotho, Southern",1997-08-22T01:09:26,56.070620,Benin,84.6734175,North Mohammad,27235489,10:0e:d0:c7:fc:27,Dean and Sons,Europe/Zurich
laptop-40.edwards.com,Tigrinya,1983-06-18T10:33:31,-33.289441,Jordan,-73.5708895,Blakeview,624276,aa:1a:c0:f5:b8:c9,Cole-Patel,Africa/Brazzaville
lt-44.lyons-mills.com,Gujarati,2017-05-19T04:36:07,65.060316,Cote d'Ivoire,-80.796727,Smithmouth,301207,ea:34:63:de:9a:ec,Allen Ltd,Asia/Rangoon
email-35.taylor.com,Romansh,1990-03-31T10:15:14,147.380485,Russian Federation,35.629575,Christianhaven,90874,78:8d:d8:80:11:ef,West-Abbott,America/St_Kitts
web-95.noble-smith.com,South Ndebele,1988-02-21T13:33:55,78.022008,Burundi,-54.781878,East Hollieview,2,92:de:81:c5:ee:c1,"Lowe, Jones and Lane",Europe/Belgrade
desktop-83.marshall-knight.info,Maori,2002-11-23T09:12:22,163.580848,Italy,-1.9320095,North Leanneborough,6532654,ed:8f:e7:42:a4:d3,"Hughes, Andrews and James",Africa/Brazzaville
email-80.cox.com,Nauru,2002-04-26T00:34:23,5.012550,Isle of Man,13.5273265,Port Jenna,4,41:36:5d:a1:bb:06,"Holmes, Reed and Fisher",Africa/Malabo
desktop-47.humphreys.com,Tahitian,1976-02-28T21:42:15,158.870153,Korea,-66.4882465,South Thomasberg,223,82:05:f3:61:ba:17,Holden Group,Africa/Libreville
desktop-37.davies-charlton.com,Bihari languages,2018-09-10T03:19:39,48.499307,Guadeloupe,-66.3255135,Spencerchester,693086206,6d:b3:8f:4e:a5:20,"Baker, Owen and Barker",Europe/Sarajevo
laptop-22.shaw.com,Divehi,1993-11-21T21:45:09,118.118276,Peru,55.4808125,Richardtown,374,14:20:1b:49:08:a7,"Banks, James and Jones",Asia/Qyzylorda
email-48.hayward-dean.org,Lao,1994-03-18T02:22:00,-28.925354,Guadeloupe,8.8210215,West Patriciachester,273,cb:a4:80:d0:03:58,Brown-Dodd,Africa/Harare
db-88.higgins.info,Xhosa,1990-05-16T16:05:57,164.504305,Andorra,49.926311,West Kayleigh,4,c6:31:33:ef:74:d4,Cook-Taylor,Africa/Lagos
lt-22.dean.co.uk,Tigrinya,1981-10-26T04:57:38,-171.795638,French Southern Territories,81.1902165,Marcburgh,628037345,78:a6:8b:d5:cd:d7,"Wallace, Walters and Bell",Asia/Dhaka
laptop-24.berry.info,Marathi,1979-12-18T17:53:46,-161.981857,Saint Lucia,-85.2805755,Stevensonshire,5,31:d3:b0:06:81:6e,Dawson PLC,Europe/Dublin
desktop-23.singh.com,Tajik,1972-02-15T15:43:57,-87.418493,Northern Mariana Islands,-35.2998805,Lake Rogerfort,9161,a9:ea:44:bb:5f:fa,"Holt, Robertson and Alexander",Africa/Windhoek
laptop-97.edwards.com,Pushto,2014-11-14T04:28:12,11.327916,Cameroon,-87.710219,Daviesmouth,23740,af:f3:0c:19:9c:5b,Preston PLC,Europe/Vilnius
laptop-30.curtis-perry.com,Chinese,1973-10-21T10:32:25,-52.316581,Cape Verde,54.6724105,Port Jasminefurt,6,37:3a:40:dc:7f:bb,Barton Inc,Africa/Freetown
laptop-07.price.net,Inupiaq,2005-05-04T07:14:13,174.864126,Aruba,-53.467840,Edwardsfurt,13397387,85:5c:ea:fb:9b:37,Saunders-Ward,America/Lima
srv-53.jones-law.info,Fulah,1983-07-05T18:39:38,132.233182,Estonia,24.755807,Mandyland,97,48:ad:73:48:64:e8,Brown-Patel,Europe/Vaduz
laptop-47.richardson.com,Vietnamese,2017-11-01T14:07:16,-24.243216,Serbia,22.0946035,Port Heatherberg,2,7b:cc:ff:fc:65:eb,Carter-McCarthy,Pacific/Fiji
lt-99.clarke-harvey.biz,Komi,2005-05-10T15:13:57,-22.028974,Syrian Arab Republic,-14.349631,East Joanne,82378788,7e:76:0e:df:a8:92,Myers and Sons,Africa/Douala
email-70.reeves-sullivan.com,Estonian,1984-03-12T11:58:50,-86.990030,Norway,-24.367568,Katemouth,636,b1:07:4d:1f:f9:74,Morgan and Sons,Indian/Mahe
web-80.harris.info,Bihari languages,1990-03-23T14:24:17,18.071600,Antigua and Barbuda,-76.685316,Port Lesleyfort,7,73:e7:d6:3e:a7:42,"Simmons, Burgess and Holden",Pacific/Nauru
srv-67.bryant-clarke.org,Malagasy,1999-07-09T23:31:53,-49.189895,Estonia,80.410949,Bradleyfort,6,e5:f8:57:a8:7c:e2,"Wilson, Francis and Lewis",America/Guayaquil
srv-25.davies.info,Ojibwa,2010-10-10T02:51:02,149.610791,Bahamas,-56.745538,Lake Shane,2,b3:4d:e4:31:b0:c8,Murray LLC,Africa/Ndjamena
email-60.palmer-price.com,Norwegian Nynorsk,2001-10-01T05:48:19,155.495090,Bahamas,89.0176075,South Cameronview,27,01:9f:5a:d8:6e:af,John-Harris,Asia/Shanghai
desktop-63.evans.com,Chechen,2020-02-14T09:50:36,-59.309993,Pitcairn Islands,2.020151,Barnesberg,155,48:cd:53:50:07:9c,Robinson-White,Pacific/Port_Moresby
laptop-49.sharp-johnston.info,Interlingua,1990-08-22T13:14:38,-33.407972,Czech Republic,51.9860755,Baileystad,95227177,b3:3e:f2:ff:de:40,Marshall-Baker,Asia/Baghdad
lt-87.tucker.net,Bislama,1971-07-30T18:09:38,61.707682,Cuba,81.234487,Phillipborough,944,d6:46:8d:ae:fe:62,"Hart, Brown and Jarvis",Africa/Dar_es_Salaam
lt-56.dixon-gough.biz,Kirghiz,2018-02-21T21:22:24,-169.125092,Somalia,-68.9363395,Lucybury,65,ce:0a:f1:a7:6b:6a,Harding-Barry,Asia/Damascus
web-75.cooper.com,Western Frisian,1985-04-20T07:42:33,-131.371984,Japan,42.768806,Rogerton,3,d9:e4:91:0a:80:43,"Ali, Bates and Jones",America/Managua
web-25.turner-harrison.com,Interlingue,2005-01-25T08:56:46,-125.375362,Gibraltar,65.6258925,Lewisshire,415711,88:83:d3:a3:2c:27,"Moss, Wilson and Fletcher",Africa/Mogadishu
srv-29.hopkins-begum.info,Dutch,1970-06-10T13:48:26,-91.913833,Rwanda,-51.608669,Emmafurt,600,b1:f1:db:a1:88:a7,"Bradshaw, Williams and Begum",Asia/Muscat
srv-63.howard-roberts.com,Rundi,2003-08-21T04:21:40,79.023344,Georgia,4.6158955,Lake Brian,29,6c:26:82:fa:8d:1c,Jackson Ltd,Asia/Hebron
laptop-58.cross.com,Tswana,2022-08-25T07:16:53,95.723754,Marshall Islands,9.6978495,Davisonton,449,88:4f:80:1e:66:c2,"Jones, Smart and McCarthy",Europe/Paris
email-37.archer-stewart.com,Luba-Katanga,1977-12-30T16:36:21,-38.813909,Cote d'Ivoire,53.441998,Bakertown,3017494,f5:0c:66:34:22:36,Blackburn LLC,Europe/Podgorica
srv-83.moore-allen.biz,Chechen,2013-10-19T08:32:16,145.617565,Oman,-19.1105605,Reynoldsburgh,5992,c5:66:7d:42:c3:3b,Gibbs and Sons,America/Montevideo
srv-88.young-thompson.com,Haitian,2001-06-15T11:14:51,21.588600,Lao People's Democratic Republic,8.6989135,Josephshire,3,22:3f:d8:ed:14:2a,"Dixon, Brown and Brown",Asia/Muscat
db-28.evans.com,Yoruba,1976-01-19T20:19:13,-108.244996,Samoa,76.561915,Harveyton,83772,b4:72:2d:bb:fc:68,Brown-Cooke,Europe/Andorra
lt-57.bentley.com,Bosnian,1979-10-15T08:01:37,-41.232930,North Macedonia,-82.2881215,Port Russelltown,276,a7:82:88:a2:94:d3,McCarthy-Price,Asia/Pyongyang
email-17.hewitt.com,Latvian,1979-07-11T23:02:12,-144.816237,Germany,83.7348455,Michaelland,364,36:2a:f4:92:ae:af,"Clark, Allen and Murray",America/Managua
laptop-52.rogers.org,German,1980-04-25T22:32:24,-110.241349,Malta,-16.8031845,Lloydmouth,453,a9:c8:1f:52:98:36,"Wade, Law and Atkinson",Africa/Nairobi
desktop-13.simpson.com,Sango,1999-06-03T07:04:33,-174.219259,Cape Verde,61.4585315,Irenemouth,2,25:fb:a9:34:07:02,"Clarke, Chambers and Gibbons",Africa/Casablanca
desktop-40.harrison.co.uk,Yiddish,1976-01-22T11:27:26,19.887560,Cambodia,-43.6903975,Lake Linda,887,4a:9f:04:25:4b:22,Richards Inc,Pacific/Apia
db-62.wilkinson.com,Cornish,2005-10-12T18:14:04,159.790586,Hungary,8.711646,West Colinmouth,38309290,f2:4b:cd:63:1c:63,Bell LLC,Europe/Vaduz
lt-48.rose.com,Romansh,1999-11-19T04:03:58,-50.163878,Switzerland,2.497614,New Sean,7453,30:d6:39:7a:f6:04,"Jones, Robinson and Taylor",America/Santiago
db-05.howe-lees.com,Twi,2016-02-27T18:10:28,-26.677852,Lesotho,-53.098768,Leonardhaven,353850965,4b:c8:18:ae:74:82,Turner-Black,Asia/Kashgar
db-61.jones.com,Ukrainian,2011-09-03T12:46:32,98.612974,Malaysia,59.519340,East Denis,9089309,f1:7e:aa:45:4f:ad,Taylor Ltd,Asia/Dili
srv-97.barlow.com,Turkish,2018-03-21T23:54:31,-173.572929,Lithuania,-89.0153895,Suttonmouth,6330774,fd:e3:08:7d:6c:5c,Hill Group,Africa/Bamako
web-36.foster.com,Igbo,2006-06-10T09:49:50,142.441170,Spain,76.340316,East Damian,67033902,ce:97:8b:02:da:25,"Simpson, Burke and Barber",Africa/Blantyre
laptop-00.davis.com,Welsh,1987-05-11T01:32:55,107.544733,Timor-Leste,82.7305755,South Gary,93072,a4:e0:4a:81:9f:23,Wells-Howells,Africa/Lome
desktop-81.roberts.co.uk,South Ndebele,2004-02-27T05:33:14,95.403520,Sweden,52.6826545,Kellyburgh,212931,0d:f9:c0:6c:95:6e,"Watkins, Mitchell and Cole",Asia/Dhaka
db-60.collins.com,Romanian,1980-10-19T22:19:53,128.713241,Kyrgyz Republic,57.143057,New Luke,961054,0b:ad:e2:b6:dc:0a,Patel Group,Africa/Bissau
web-86.roberts-nelson.com,Church Slavic,1975-12-11T22:32:52,164.900368,Germany,77.1213865,Port Kimberleyport,5,a8:95:3a:66:4f:ca,Kelly-Hamilton,Africa/Banjul
db-42.rees-thompson.com,Latin,2021-02-14T00:10:06,-152.033784,Monaco,-0.864125,Amberburgh,3442,f5:96:ba:ef:a9:02,"Watson, Smith and White",Europe/Amsterdam
lt-65.baker-brown.org,Slovak,1995-06-27T04:47:46,132.961159,Swaziland,-78.692713,Jasonton,8656,e6:fe:d9:db:c1:82,Morley-Watson,Europe/Vatican
laptop-07.robinson-pearson.com,Avaric,2017-04-21T01:14:48,-118.954361,Iran,29.3450805,Evansburgh,75172,97:2c:3a:0d:72:f7,Gallagher-Stevenson,America/Guatemala
desktop-66.ball.co.uk,Lingala,2003-10-21T15:25:46,-31.647212,Latvia,-28.093417,Timothyberg,52368183,0d:73:11:2d:1b:15,Owens-Smith,Europe/Minsk
web-59.barber.org,North Ndebele,2015-07-30T14:55:29,-165.622407,Azerbaijan,23.020946,Iantown,880731546,4e:22:a9:d7:ff:af,Blake Inc,Asia/Amman
db-35.newman-harris.net,Sango,1988-09-08T19:02:33,-157.677638,South Africa,2.9861745,Port Graham,923,bb:a7:ac:1f:3c:ea,Kent-Collins,Asia/Kashgar
desktop-58.green.com,Zhuang,2021-01-04T20:08:30,-59.181575,New Caledonia,31.366499,Batesshire,36,4b:1f:ee:3b:ec:ad,Parker-Cook,Africa/Accra
lt-70.lawrence.com,Guarani,2018-03-31T18:41:24,-39.552148,Czech Republic,35.2763285,North Normanbury,9866110,16:89:8f:0e:10:c3,Warren-Reynolds,Europe/Sofia
lt-10.webb.com,Sango,1971-02-21T04:30:41,-101.138762,Russian Federation,-60.6919815,Rachelbury,2599093,77:fb:6e:aa:44:5d,"Anderson, Phillips and Donnelly",Africa/Conakry
lt-49.giles.com,Burmese,2018-01-26T12:38:44,94.032134,Falkland Islands (Malvinas),43.583675,Schofieldton,3,f4:cc:b4:5e:40:35,"Kelly, Lucas and Moss",Africa/Lagos
laptop-49.cooper.com,Walloon,1970-06-29T05:03:59,66.543467,Belize,-21.4314275,Pickeringport,903,cc:3a:fe:a0:c5:57,"Dennis, Richardson and Harrison",Pacific/Tongatapu
srv-40.holt.com,Kongo,1988-12-29T04:29:23,5.857078,Andorra,11.7486715,Nicolemouth,51027228,32:90:ab:16:b9:29,Evans Inc,Asia/Tashkent
email-92.lewis.info,Zhuang,2004-06-10T22:07:58,145.563898,Benin,83.321807,Lake Janetburgh,13662389,f4:1b:45:90:50:bd,"Barton, Francis and White",Africa/Gaborone
lt-44.holland.com,Tajik,1982-01-26T06:09:02,-75.296640,French Southern Territories,66.105688,North Callum,7572,12:c7:9b:b7:fd:0d,"Rose, Barton and Barnes",America/Barbados
lt-91.forster-watts.com,Northern Sami,1997-02-23T15:40:16,-144.801366,Italy,-46.8089775,Thomasfort,859,9b:0b:16:9b:63:c9,Williams-Harding,Asia/Krasnoyarsk
db-22.reid-young.net,Chinese,1980-07-07T06:15:43,138.060536,Bosnia and Herzegovina,65.993116,Dianeberg,1802771,2c:fa:c3:03:0f:4b,Cunningham-Parry,Europe/Oslo
lt-35.griffiths.com,Wolof,2002-07-20T09:51:08,44.977483,Cote d'Ivoire,77.5135435,Brownburgh,644,af:02:58:fe:a9:1b,Bradley-Roberts,Asia/Bahrain
lt-25.williams.com,Assamese,1976-10-14T09:28:27,-134.455831,Bangladesh,-18.457733,Smithchester,94,de:f7:db:7c:49:11,Edwards Group,Pacific/Efate
web-24.swift.com,Ukrainian,2017-11-15T13:44:13,-167.685826,Liechtenstein,-18.5781705,Gracestad,677892277,16:31:3e:08:12:64,Lee Inc,Africa/Windhoek
desktop-09.mitchell-turner.com,Tamil,2016-12-22T11:08:46,160.019138,Saint Pierre and Miquelon,-10.5198635,West Marc,8134207,78:a0:67:55:ac:c7,"Gibson, Murphy and Martin",Asia/Kuwait
laptop-17.peters.co.uk,Swedish,1984-03-12T10:35:53,62.072895,Nauru,-41.1065105,West Albert,105645,a8:7a:74:69:a3:bb,Hussain-Graham,Europe/Prague
email-74.thomas.com,Bislama,1998-11-02T16:31:13,49.714170,Madagascar,-37.179099,Jacquelineside,517313298,1e:1d:ac:b5:50:3b,"Taylor, George and Dale",Asia/Nicosia
email-13.evans.com,Amharic,1997-01-02T05:29:38,-156.561429,Norway,-43.748937,Vincentberg,71,61:b0:f4:82:57:a1,Smith-Kaur,America/Caracas
db-54.johnson.info,Amharic,1979-06-16T05:37:27,178.109616,Spain,-25.154033,Staceyport,64,d1:48:b3:b1:51:02,Edwards-Murray,Asia/Hebron
email-65.butler.com,Tagalog,2018-09-08T20:52:52,19.050662,Greece,24.9909995,Antonyside,56,a0:91:8a:b8:54:f3,"Browne, King and Morgan",America/Paramaribo
srv-06.mills.net,Kongo,2007-02-24T16:47:19,126.950031,North Macedonia,64.930786,West Zoe,2819795,4d:0e:f9:b2:92:63,"Williams, Webster and Ahmed",Africa/Johannesburg
laptop-62.lewis.com,Faroese,2005-08-14T09:33:41,-50.239378,Montserrat,-37.867042,West Alison,65336,45:58:94:89:3f:33,Wright-Jones,America/La_Paz
laptop-04.barrett.com,Finnish,1988-04-29T01:21:39,-52.052619,Canada,68.1930545,Knowlesstad,350140080,c0:2b:ce:be:ae:73,Coleman Inc,Asia/Jerusalem
desktop-87.atkins.org,Fulah,2009-08-10T09:23:44,19.578628,Cuba,-48.748528,Clarkhaven,610187,28:41:2a:4f:08:6d,Field-Weston,Asia/Beirut
lt-50.george.biz,Finnish,2014-03-18T22:30:37,-73.814765,Armenia,16.2202935,Port Luke,88358,a5:7d:d8:65:3a:b3,"Williams, Stanley and Brown",Africa/Dar_es_Salaam
laptop-37.king-brennan.com,Chamorro,1975-08-25T01:16:34,130.202865,Mauritius,-83.719659,Kieranhaven,7173732,00:95:24:b9:6e:ae,"Clarke, Stevens and Rose",Africa/Accra
lt-74.woodward.com,Arabic,2006-08-27T11:17:31,-23.758333,Sao Tome and Principe,87.9543125,West Tracey,3,c8:8d:eb:3f:3c:6d,Giles-Harper,Africa/Ouagadougou
db-13.nash.com,Pushto,2009-10-11T18:22:59,99.483846,Singapore,-25.795185,Allenside,740444,80:4f:ce:56:eb:d9,Hall-Hicks,Africa/Sao_Tome
lt-88.wilson.com,Finnish,1991-05-16T19:04:56,-112.876863,Nepal,62.7593135,Lake Amandaburgh,44394744,d4:f6:64:86:13:0e,Rice-Norris,Africa/Lagos
db-71.gould-bennett.com,Oriya,2019-08-03T09:39:10,-67.759252,Hong Kong,-2.7777725,East Gareth,395138959,f0:6f:3b:9c:a0:5c,"Hunter, Davis and Perry",Asia/Beirut
laptop-57.scott.info,Xhosa,1982-08-04T01:23:20,97.655012,Croatia,-74.130143,East Ashley,84555,4b:81:2f:ac:31:61,Jones Inc,Europe/Copenhagen
db-26.bryan.com,Luxembourgish,1998-01-18T13:12:15,-84.634620,Bosnia and Herzegovina,23.9484885,South Christine,20320026,f0:55:be:e6:8e:9e,Bennett Inc,America/Guatemala
laptop-80.wilson-jones.com,Tamil,1970-04-30T11:27:27,-5.225989,Angola,7.887070,Daviesland,90709838,b6:2d:c1:c2:b4:b7,Farrell-Jackson,Europe/Dublin
web-73.thomas-yates.net,Pali,1987-10-05T23:29:11,152.026483,Cape Verde,40.3972585,New Danny,233,59:12:ab:3c:c7:2e,"Cooper, Peters and Blake",Pacific/Kiritimati
db-76.spencer-gray.com,English,2016-01-19T06:23:41,56.388234,Austria,-56.9860965,Walkerborough,9861,b7:41:92:67:52:f5,"Walker, Bailey and Richards",Africa/Johannesburg
db-51.chapman.com,Zhuang,1970-04-26T14:45:36,-12.233567,Cote d'Ivoire,20.642358,West Antony,747,c3:95:e2:2d:6a:2a,Pugh Inc,Asia/Yerevan
srv-28.nicholls-marsh.net,Interlingue,1989-08-30T19:37:31,129.492463,Poland,-79.940492,Raymondbury,650,da:45:ae:b1:65:1b,Thomas-Ahmed,Pacific/Fiji
email-65.tucker-reed.com,Central Khmer,1973-03-20T12:22:13,4.045530,Burkina Faso,45.3332285,East Maurice,30119410,09:0e:24:c2:fd:9f,Taylor-Barber,Europe/Copenhagen
laptop-73.bennett.co.uk,Pali,2006-07-07T02:16:03,121.543482,United States of America,58.735121,Jakeside,527833591,32:de:0d:e4:00:2f,"Thompson, Burton and Wong",Asia/Krasnoyarsk
web-15.howard.com,Ossetian,2023-08-12T04:32:49,141.926452,Albania,58.927585,Declanmouth,877975,0e:97:68:a4:2c:49,Bell and Sons,Europe/Prague
db-90.hardy.info,Hungarian,2010-07-18T21:27:13,-111.793206,Niue,-4.309153,Lake Barryshire,8972,9a:0f:ba:9e:a4:7f,Anderson Ltd,Asia/Pyongyang
db-08.jackson.info,Thai,1986-10-31T10:40:34,-3.626792,Ireland,-66.0621465,East Tom,2135437,b5:48:5c:b9:ad:18,Atkins LLC,Asia/Brunei
web-90.atkinson.com,Malay,2017-09-07T23:17:38,10.175954,Morocco,-78.2527585,O'Connormouth,31260,13:0a:ac:cc:03:b2,"Slater, Brown and Brown",Pacific/Funafuti
desktop-85.stewart-wilson.com,Avaric,2010-02-08T21:21:18,43.694172,Slovakia (Slovak Republic),-27.3406405,Wellsburgh,8,d7:3a:46:eb:d9:22,Talbot LLC,Asia/Colombo
lt-35.gibbons.com,Kanuri,2000-12-22T20:51:04,66.679006,Kuwait,-31.8243955,Pearsontown,3,8f:1d:b9:f4:d3:b9,"Blake, Howarth and Chandler",Asia/Bangkok
srv-31.gough.info,Javanese,1970-09-07T21:06:36,-6.952149,New Caledonia,54.7466855,Duncanchester,649,5a:a2:31:6f:67:03,Hammond and Sons,Africa/Bujumbura
lt-79.watson.com,Kurdish,2015-06-16T15:40:03,45.269984,Cocos (Keeling) Islands,-20.8023155,Georginaborough,5338,ba:5d:e1:db:b6:fa,Bennett-Carter,Asia/Bahrain
email-68.khan.org,Bambara,2000-10-11T12:53:21,-162.977214,Colombia,83.0468915,Dianeport,2090889,f3:95:e6:2f:01:f0,Jones-Clark,Asia/Muscat
laptop-33.cooke.org,Kannada,2005-04-16T16:51:02,82.349525,France,17.543009,Hartfurt,1,75:45:1d:e9:61:d3,"Gibson, Davies and Powell",Africa/Malabo
desktop-75.walker.com,Tagalog,2011-05-09T14:10:37,-27.768822,Chile,15.6948145,East Marcus,46125,b0:f4:e3:54:22:3b,Carter LLC,Europe/Brussels
lt-67.hamilton.com,Rundi,2022-01-22T19:55:49,133.826610,South Georgia and the South Sandwich Islands,-15.9657605,Robertsshire,97,75:1a:9f:9c:15:7d,"Davies, Roberts and Robinson",Asia/Kuala_Lumpur
srv-92.james-thomas.com,Kikuyu,2021-07-14T23:05:09,-135.358733,Latvia,-46.964748,West Elizabethfurt,69621,a4:ae:65:af:56:c5,Davies-Robinson,Asia/Damascus
email-49.brookes-hodgson.org,Kashmiri,1972-02-28T10:46:47,-78.756942,Saint Barthelemy,67.7859725,Lake Denisemouth,5,3f:d8:ab:a9:9f:38,Griffiths Group,Asia/Manila
email-67.murray.com,Kurdish,2006-05-10T09:22:44,-42.151750,Tunisia,72.478123,Patelshire,466702380,d6:5b:74:61:4b:0a,"Reeves, Watkins and Johnson",Asia/Tehran
web-11.parkin.co.uk,Tsonga,2006-06-08T14:45:27,102.194652,Comoros,11.4465325,North Lauren,367,fd:cb:b2:cd:a6:0a,"Oliver, Turner and Hill",Asia/Aden
desktop-49.hart.org,Central Khmer,1994-06-06T16:31:41,144.328533,Jordan,-33.105634,Potterborough,22088302,7e:2d:4a:f3:52:4b,Jones-Chapman,Africa/Maputo
laptop-87.rowe.biz,Burmese,1977-12-05T12:44:37,-137.390353,Sri Lanka,76.8903615,South Clivemouth,76,32:a8:f0:bd:da:ed,"Cole, Thomas and Morris",Pacific/Nauru
lt-17.hudson-rogers.com,Marshallese,1978-08-05T05:47:20,8.522375,Palestinian Territory,81.4768985,Thomasmouth,2473,d5:7d:62:de:61:80,Evans-Willis,Asia/Pontianak
email-62.baker-stephens.com,Luxembourgish,2002-04-05T16:58:51,153.743626,Austria,-64.0157175,Amychester,7,79:0d:dd:d0:c0:27,Williams-Jackson,Asia/Dili
db-77.cole.com,Tahitian,2015-10-28T05:54:40,47.547720,Bouvet Island (Bouvetoya),-85.978750,Port Nigel,4971782,50:38:3b:da:fa:2b,Jones Inc,America/Paramaribo
web-52.morgan.biz,Dutch,1997-10-22T13:54:54,57.589491,Maldives,89.521365,East Callummouth,863,dc:8e:d8:e7:cb:f0,"Brown, Ali and Barker",Europe/Zurich
email-72.young-barton.org,Bislama,2022-03-08T02:30:28,178.149491,Nigeria,-41.700600,West Paulineside,1188,e5:c0:bf:b8:69:f6,Pearce PLC,Asia/Samarkand
email-53.oliver-holt.com,Bambara,1980-04-25T08:38:26,111.882830,Uganda,-62.994021,Port Emilychester,192,e1:95:87:4a:44:38,"Clark, Walker and Griffiths",Africa/Nairobi
db-52.odonnell-mcdonald.biz,Gaelic,1978-04-28T09:27:59,114.303821,Algeria,-35.6810095,New Patriciaberg,2,4c:45:ed:33:15:24,"Whitehouse, Connor and Lawrence",Europe/London
laptop-16.spencer.org,Rundi,1974-11-02T19:53:21,-56.691140,Wallis and Futuna,77.815677,Christinemouth,56,aa:30:f3:08:ed:11,Brown-Miller,Europe/Tallinn
db-57.evans.com,Kashmiri,1994-10-16T18:43:29,85.028694,Montserrat,85.900302,Stephensport,1,6b:93:aa:0f:e4:36,"Riley, Clarke and Lloyd",Asia/Riyadh
web-32.mason.org,Galician,1990-11-14T22:56:16,-51.317412,Kenya,52.982952,South Lorraine,870,29:a4:6f:74:96:d2,Whitehead-Evans,Asia/Saigon
desktop-42.clayton-sutton.com,Afar,1972-01-17T08:31:11,128.185534,Netherlands,81.1431485,Gailchester,3734253,46:16:9d:2f:47:ba,Howard and Sons,Europe/Copenhagen
db-26.barker.com,Lingala,1972-07-31T04:32:57,131.915566,Spain,73.4637105,West Adriantown,0,8f:6b:9b:66:58:f0,Moore-Bennett,America/Guayaquil
email-60.edwards.co.uk,Ndonga,2005-04-13T18:17:51,-52.337689,Algeria,-50.543355,Shortview,132912784,2a:5d:b8:00:18:01,Palmer Group,America/Lima
desktop-82.pearson-fletcher.com,Kazakh,2013-06-28T16:18:26,-44.487159,Mongolia,49.6767575,South Carol,0,32:55:5d:42:7e:ae,Sykes-Brown,Indian/Mahe
email-78.gill-rogers.com,Hungarian,1979-03-14T00:48:16,55.352083,Bermuda,40.9413925,Victoriabury,96756,32:1d:4a:fe:4b:2c,Hughes LLC,Asia/Kuala_Lumpur
lt-17.mills-kirby.info,Norwegian Nynorsk,2017-12-20T10:24:51,95.192462,Saint Barthelemy,-39.9664175,West Amber,874,69:a9:88:1d:6f:b8,"Russell, Allen and Gardner",Asia/Katmandu
laptop-29.brennan-cooke.com,Central Khmer,1988-02-06T13:21:04,-14.173055,Bangladesh,-2.848903,South Philipbury,369,1d:f1:b4:48:b6:6a,Hayes-Rahman,America/Tegucigalpa
lt-81.taylor.com,Latvian,1995-03-12T22:36:50,-96.598199,Zimbabwe,21.810640,West Elizabeth,7787010,e0:16:67:72:18:9c,Kirk LLC,Europe/Vaduz
email-21.collins.net,Persian,1988-05-29T15:21:26,-118.883191,Croatia,52.3011045,Foxborough,5,a8:b9:5d:60:2f:86,North-Jones,Asia/Colombo
laptop-60.walker.org,Amharic,1990-01-17T09:14:32,-26.417553,Cook Islands,54.119029,Joannetown,7,c8:fd:c6:1a:35:6e,Hudson-Smith,America/La_Paz
db-92.hayes-richardson.com,Vietnamese,1996-11-11T09:34:44,29.845776,Tajikistan,-16.141979,West Trevor,629,7b:4e:9d:d0:54:37,Turner LLC,Africa/Cairo
web-30.holmes.com,Norwegian,1984-09-22T01:10:37,-135.700295,Zambia,2.987572,Staceyburgh,191721,86:e2:b3:7a:ce:23,Gough-Warner,Asia/Rangoon
laptop-57.richards-smart.com,Javanese,1991-03-29T22:03:16,-88.206146,Botswana,39.5295935,West Christineville,97,a5:f5:1b:08:4d:cb,Cameron-Newman,Africa/Cairo
db-61.hawkins-wood.co.uk,Uzbek,2006-08-10T12:56:41,-110.136686,Christmas Island,58.492636,East Rachaelborough,24536972,3b:68:4c:5f:53:fb,Waters-Carter,Africa/Bujumbura
email-43.smith.com,Hungarian,1973-06-14T23:23:53,80.140537,Yemen,-38.058252,Whiteport,92,47:59:08:67:44:ee,"Hope, Harding and Parker",Asia/Ashgabat
laptop-33.richardson.com,Western Frisian,2006-02-13T21:17:05,70.707015,Netherlands Antilles,25.850820,Bakerview,43184039,9b:92:75:d3:69:a8,Smith-Campbell,Europe/Stockholm
srv-63.russell.net,Serbian,1975-10-06T23:00:17,-11.008325,Singapore,46.3680375,Timothyland,681475,95:88:35:e9:cc:d4,"Barrett, Peters and Brennan",Europe/Bucharest
desktop-40.smith-heath.org,Maori,1994-05-22T21:30:42,160.560980,Singapore,52.5925775,Lyndamouth,5,30:04:62:19:3e:a7,Brown-Flynn,Asia/Yerevan
desktop-97.wells.com,North Ndebele,1977-12-03T00:37:14,-4.086703,Myanmar,-51.403929,Dominictown,33199,4b:5a:c1:51:00:8a,Jackson-Riley,Europe/Riga
email-68.jones.biz,Chinese,2012-01-23T22:46:56,-160.993603,Ghana,-25.137031,Kimburgh,2187723,45:72:df:d1:5e:cc,Walker PLC,Asia/Dili
web-93.andrews.net,Chuvash,2019-04-29T05:12:13,174.634153,Tonga,-71.6192755,Jacksonview,4389306,78:2e:dd:43:7f:e5,Griffin Ltd,America/Bogota
web-80.sharp.org,Hausa,1994-10-23T00:34:59,160.374383,Sudan,56.997121,Louischester,4080695,f5:3a:31:c9:2b:3f,"Holmes, Martin and West",Asia/Pyongyang
email-11.powell.info,Haitian,2017-08-04T19:36:45,-161.649472,Morocco,4.418898,North Jack,831452782,73:2d:95:4c:0e:a5,Murphy-Francis,Africa/Kampala
db-36.lee-williams.com,Kuanyama,2003-07-22T09:57:17,61.856665,Poland,-26.5274435,West Catherineport,9,87:f5:bc:26:dc:2f,Davis-Nash,Asia/Taipei
srv-02.fraser.info,Gujarati,1987-06-11T09:06:00,168.860390,Bangladesh,-1.039823,North Glenn,98307,48:9b:64:5c:54:b4,"Jones, Taylor and Watson",Africa/Monrovia
lt-54.lloyd-harrison.com,Dzongkha,2020-12-27T10:28:16,-40.865864,Haiti,-43.0698775,Port Catherinefort,2289,8e:17:82:33:3b:b9,Atkinson-Kerr,America/St_Vincent
srv-70.stanley.net,Occitan,2008-04-17T08:27:48,158.555272,Grenada,-64.009743,Fionaville,79,79:0b:ae:3d:ea:f9,Cross-Higgins,Africa/Johannesburg
db-99.knight-marsh.com,Basque,2007-02-16T21:04:56,-2.470539,Trinidad and Tobago,-75.457615,Paigemouth,223735905,28:08:f2:83:c9:50,"Ali, Richardson and Robson",Africa/Nairobi
web-77.ford.com,Tajik,2011-10-08T04:48:35,33.290725,Barbados,48.684790,New Charles,3061,51:36:97:9d:b3:17,"Blake, Donnelly and Davies",Africa/Malabo
laptop-79.dean.co.uk,Interlingue,1990-01-05T01:11:26,-161.256048,Samoa,89.5980575,North Ryanchester,7396912,e4:08:7a:c4:4b:38,"Rees, Kelly and Wood",Europe/Vilnius
laptop-71.williams.com,Ojibwa,1974-04-04T15:06:49,-164.120374,Cocos (Keeling) Islands,73.498716,Rebeccamouth,4595,de:30:0a:24:13:de,Lewis-Francis,Pacific/Funafuti
desktop-91.winter.com,Quechua,2016-11-15T18:38:23,-115.997294,Niue,-37.1144455,Westfurt,769587727,8c:31:99:5c:26:5f,Taylor-Pollard,Africa/Johannesburg
srv-74.dean-bates.org,Greek,1999-08-03T02:38:43,71.194317,Cook Islands,-79.4069585,East Roy,0,49:bb:88:a5:cb:26,Morris-Butler,America/Panama
lt-27.butler.com,Albanian,1978-03-21T07:21:08,45.190893,Bouvet Island (Bouvetoya),29.7270225,Barbarafurt,23132,ed:05:4a:b3:ec:89,Thomas Group,Africa/Lagos
lt-39.nicholson.com,Estonian,1982-11-12T21:37:59,-113.058050,Falkland Islands (Malvinas),-26.157916,Nichollsport,7,c7:ba:ed:f5:a2:73,Gibbs Inc,America/St_Vincent
laptop-95.campbell.com,Walloon,2022-06-19T10:31:15,152.307531,Northern Mariana Islands,1.059766,New Marilyn,1,50:e2:4a:4e:29:a9,Mitchell PLC,Europe/Copenhagen
srv-98.robinson-jones.com,Polish,1973-01-29T20:18:42,95.894370,Timor-Leste,25.1157635,Katyland,6,78:15:e9:17:0d:96,"Taylor, Thomas and Taylor",Africa/Bangui
lt-37.allen.com,Herero,1990-06-09T10:57:46,150.947795,Equatorial Guinea,55.8020455,Royland,2,0b:cf:14:f5:77:ee,Elliott-Richardson,America/Yellowknife
db-45.cook.org,Aymara,2016-10-02T13:23:43,100.717787,Central African Republic,62.306454,Lloydport,3,88:ff:51:41:57:4e,Shepherd-Douglas,Europe/Podgorica
web-35.norman.com,Sindhi,2002-04-20T23:17:23,-85.780755,Vietnam,-52.5342835,Masonburgh,4546413,67:0e:a9:42:d9:ff,Williams-Baker,America/Costa_Rica
laptop-80.higgins.co.uk,Irish,1991-10-05T14:06:05,40.328876,Wallis and Futuna,-13.726884,New Nathanmouth,8689663,1f:bb:eb:8d:69:2c,Edwards-Burns,Europe/Warsaw
desktop-64.perry-howe.co.uk,Tajik,2015-11-18T07:52:53,-128.080309,Poland,48.396653,Joanchester,757744205,fe:d5:44:0f:53:6d,Jenkins-Carroll,Asia/Rangoon
laptop-94.clark.com,Cornish,2005-01-16T22:51:14,-133.720071,Cyprus,48.798213,Janetview,33750,a9:15:e9:e7:7e:35,Whittaker-Thompson,Asia/Tashkent
email-46.chamberlain-knight.com,Tibetan,1983-11-03T15:23:48,-101.496206,Ukraine,67.7786945,Janeburgh,5997,83:a9:9a:a3:59:15,Butcher Group,America/El_Salvador
desktop-50.nash.com,Hungarian,1980-01-28T20:01:58,123.946622,Rwanda,71.093896,Paulaview,80663,60:e0:33:6d:88:60,"Brown, Williams and Mitchell",Asia/Phnom_Penh
web-47.harvey-graham.com,Kinyarwanda,2019-12-07T07:04:33,-157.661148,Eritrea,67.162719,New Russell,0,14:19:2f:c5:a9:05,"Stevens, Warren and Baker",Indian/Mahe
lt-68.martin.org,Kannada,1993-10-25T08:58:58,133.846542,Georgia,-62.5680945,Harrisonmouth,47783,6d:6f:52:2f:f1:73,Brown LLC,Africa/Monrovia
desktop-34.bailey-moss.biz,Haitian,2002-10-02T02:16:13,67.618467,Romania,46.410227,Chapmanberg,991,26:59:67:13:bc:31,"Henderson, Clarke and Dunn",Africa/Kampala
email-88.smith.info,Luba-Katanga,1986-07-21T08:36:06,90.103310,Romania,15.6686195,New Amy,70105940,67:fa:da:c5:3c:60,"Scott, Frost and Middleton",Asia/Amman
lt-32.mellor-pearson.biz,Limburgan,1979-11-12T20:10:26,58.148732,French Polynesia,-70.3692655,Tracyhaven,40900,00:7c:f8:c3:53:cf,Parker LLC,America/St_Lucia
lt-85.freeman-smith.net,Tswana,2020-11-19T17:56:03,-109.031676,Guyana,6.241357,Susanmouth,240109,d5:90:86:1e:96:74,Vaughan-Holt,America/Port_of_Spain
lt-79.lewis.com,Sundanese,2000-12-18T15:37:47,-80.004478,Cambodia,-49.412593,Aliborough,57995138,36:e3:85:69:1f:65,Barnett LLC,Australia/Adelaide
srv-34.roberts.com,Bosnian,1993-01-29T04:46:05,14.591208,Suriname,44.2813875,Hardystad,437093711,20:80:5b:49:26:41,"Bevan, Clark and Taylor",Africa/Ndjamena
srv-18.smith.biz,Guarani,1975-10-08T03:25:58,152.151733,Gambia,-37.012978,New Terry,17,76:8e:33:0f:45:af,Wall-Mann,Africa/Blantyre
web-50.long.com,Avaric,2004-12-19T12:21:19,-83.423941,Luxembourg,-25.5371785,Milesmouth,822109,e5:a4:bb:f4:fa:72,Bishop-Gardiner,Africa/Mbabane
laptop-35.wilson.org,Avestan,1972-09-22T06:21:06,150.454470,Panama,25.2027855,North Thomas,70377662,8d:5c:fc:a6:7c:1e,"Richards, Harris and Hunt",America/Managua
laptop-49.young.co.uk,Cree,1978-07-06T01:30:57,179.570136,Falkland Islands (Malvinas),55.283598,West Carol,997157,06:29:70:50:a4:d2,"Smith, Kerr and Hill",Asia/Colombo
web-22.owen.info,Russian,1972-11-13T07:35:11,70.433204,Ireland,-76.608011,South Raymondberg,0,36:f8:9e:28:a5:23,Hunter LLC,Asia/Baghdad
web-58.pearce-andrews.biz,Afar,1977-05-27T22:48:01,-46.620407,Greece,17.7936525,Simmonsburgh,263,51:73:76:1d:aa:90,Yates-Nicholls,Europe/Amsterdam
srv-31.white.biz,Dzongkha,2000-10-31T12:52:25,118.638003,Sierra Leone,88.138945,South Derekberg,4728,07:d3:0b:c6:21:94,Brown Group,Africa/Freetown
lt-46.palmer.net,Bihari languages,1996-06-10T15:17:37,-162.493785,Chile,-8.177473,New Kellybury,6,98:f5:d3:66:c4:69,Kemp-Fletcher,Asia/Dili
lt-40.henry.com,Kanuri,1998-03-08T05:04:18,-175.104823,Congo,56.907861,South Trevorchester,302,f8:14:a6:69:20:87,Saunders-Morris,Asia/Pyongyang
desktop-84.archer-shaw.com,Afrikaans,1977-05-08T04:33:00,126.396556,Guinea,24.0279335,West Gerardhaven,273813973,72:0b:22:fa:f8:b3,"Howells, Hughes and Lee",Europe/Zagreb
srv-69.henderson.com,Nepali,2015-02-02T07:35:54,-125.164542,Portugal,32.454283,Lake Elaine,31077154,5b:f2:2c:b2:0d:7d,"Browne, Thorpe and Ellis",Asia/Dushanbe
srv-92.wright-griffiths.com,Breton,2009-03-29T14:02:07,108.978260,South Africa,-25.9065585,New Alex,524,8c:5c:42:5d:f8:6e,Whitehouse-Cox,Europe/Zurich
email-05.mitchell-jones.com,Nepali,2017-03-04T11:54:58,-83.168753,Bangladesh,-41.2739785,Melanieville,703,4d:67:6f:ee:9e:bd,"Johnson, James and Jones",Africa/Bujumbura
srv-96.morgan.com,English,1991-05-30T03:26:06,-173.757795,Bulgaria,-5.6898545,Kimborough,853,7f:b9:75:89:c3:a0,"Edwards, Rees and Ashton",America/Panama
email-93.lamb.com,Pushto,2011-07-17T18:01:30,-107.397915,Saudi Arabia,71.117566,Carlyshire,313982416,74:db:5e:e8:86:1a,Davies-Morris,Africa/Kampala
db-02.smith.org,Quechua,2021-09-14T14:26:19,49.094522,Malta,-73.3347285,Port Abbiechester,94811,f5:14:50:ce:6c:bd,"Lewis, Burke and Kelly",Africa/Mbabane
laptop-49.wilson.com,Aymara,2010-09-16T02:35:32,174.909067,Lebanon,42.1342705,West Kennethton,8,31:6c:90:f7:37:67,Sheppard-Clark,Asia/Nicosia
lt-04.porter.com,Guarani,1981-03-16T00:19:02,-130.491859,Namibia,68.375172,Robertsland,48153,91:14:d1:b0:34:70,Shah Inc,Africa/Nouakchott
email-99.heath.com,Kanuri,1976-11-21T03:59:55,153.116983,Zimbabwe,-25.0237695,West Mary,2,e0:31:e2:9f:3c:9e,Chapman-Riley,Europe/Sofia
db-72.armstrong.com,Sango,2007-10-07T18:46:17,106.119018,Saint Martin,-48.4375695,East Katherine,9832088,37:5f:a8:a8:96:38,"Davies, Hopkins and Carr",Africa/Mogadishu
lt-67.hicks.com,Uighur,2023-03-26T00:49:12,101.872621,Cocos (Keeling) Islands,-71.2267125,West Abigail,66912,b4:02:f2:47:36:d0,"James, Stone and Jordan",Africa/Porto-Novo
db-01.patel.co.uk,Tagalog,1983-07-02T23:45:02,-44.088935,Netherlands,3.258488,North Karl,1,37:28:f9:0d:f3:c5,"Smith, Hill and Davidson",Europe/Tallinn
desktop-71.garner-lee.biz,Greek,2022-02-14T17:18:27,-122.242780,Russian Federation,11.572800,North Terence,3523,c6:b9:80:4d:db:f0,"Patel, Matthews and Norman",Africa/Ouagadougou
srv-70.thomson.net,Tajik,1986-07-25T18:07:50,-53.306680,Grenada,11.057199,South Trevor,60,a4:02:1f:fb:33:5a,"Watts, Watson and Jones",Europe/Luxembourg
srv-78.james-evans.com,Bulgarian,2008-07-22T04:17:13,151.633602,Andorra,-21.239231,Woodport,918031027,ac:a7:6c:d6:89:25,"Harris, Mann and Murphy",Asia/Dubai
email-72.taylor.com,Swati,2018-03-17T09:50:50,-80.815534,Yemen,-74.207350,Milesmouth,50806,37:c9:d5:0e:71:d9,Bradley-Patterson,Asia/Manila
lt-57.sutton-kelly.com,Sardinian,1971-06-27T08:18:51,-35.078002,Sudan,-71.107637,Port Julia,843298088,db:81:c4:f4:dc:ad,Burrows-Sinclair,Asia/Jerusalem
web-99.begum.com,English,2023-06-24T19:27:59,-80.916277,United States Minor Outlying Islands,89.022864,New Valerieland,779,4c:5b:e8:f4:08:6d,Sanderson-Wilson,Europe/Paris
desktop-15.goodwin-jones.biz,Sundanese,1988-03-04T18:43:29,-46.804898,Bulgaria,25.029928,Jordanbury,72,21:30:a9:f8:48:0a,"Bell, Bradshaw and Potts",Europe/Lisbon
db-39.thompson-brown.org,Herero,2020-04-24T05:48:53,-86.542331,Cuba,-73.232906,Port Lewisfurt,3,26:25:b7:c4:2c:7b,"Lewis, Smith and Smith",Asia/Aden
web-16.bailey.com,Nepali,2023-07-03T18:32:12,-156.718673,Latvia,-13.230659,Neilberg,8,84:84:9b:30:0d:9f,Robinson Inc,Europe/Tirane
email-81.porter.com,Polish,1988-01-26T05:24:27,-155.157148,Luxembourg,12.269777,Coleland,757958,b4:70:2f:02:bd:f6,Benson Ltd,Indian/Mahe
email-20.lee.com,Mongolian,2015-12-10T17:55:38,84.419302,Sweden,18.3454755,South Glennfort,717624091,3a:f0:a2:22:28:5d,Winter Inc,Europe/Vienna
lt-63.pearson.net,Mongolian,1985-01-29T02:50:38,-81.539075,Samoa,-28.296946,Porterland,218267,d7:5b:1b:67:15:52,Gould-Robinson,Africa/Ndjamena
laptop-64.robertson.com,Interlingue,2013-04-25T17:07:44,-139.287602,Grenada,79.703020,Charlenestad,5200794,67:5c:a7:a1:74:67,"Young, Bentley and Woods",Asia/Taipei
lt-18.ward.biz,Haitian,2012-12-29T07:41:41,-130.241237,Cape Verde,0.760121,Irenemouth,77177,d5:ed:89:6b:8b:47,Hope-Hussain,Europe/Dublin
db-66.patterson-baker.com,Japanese,1980-02-15T17:56:05,14.008402,Brunei Darussalam,81.106073,Judithburgh,5438,f9:88:4d:31:b6:a6,Haynes-Read,Europe/Stockholm
db-54.duffy-webb.co.uk,Wolof,1988-11-24T20:31:52,68.073552,Montserrat,84.873179,Amberside,9064076,65:11:0d:9d:05:3b,"Hewitt, Ryan and Watts",Africa/Cairo
laptop-48.harris-chambers.com,Kazakh,1985-07-31T02:19:58,169.288358,Japan,-27.479131,South Daniel,4316,0a:0d:6c:f0:56:cf,Power Ltd,Asia/Kuching
lt-89.powell-roberts.com,Cornish,1991-11-01T23:02:28,-103.794141,Bhutan,82.426384,Lake Hugh,739906,c1:35:0f:1f:6d:bd,"Moore, Waters and Nolan",America/Panama
laptop-97.clark.com,Samoan,1970-06-11T09:17:25,25.227534,Netherlands,46.7645615,West Dannyburgh,45840,b9:8a:ec:b4:99:c3,"Smith, Hall and Williams",Pacific/Tongatapu
laptop-99.hyde.com,Burmese,2005-05-02T03:50:05,-12.879795,Japan,-57.2812495,Leeview,848631944,53:25:c4:94:47:05,"Marsh, Baker and Smith",America/Lima
desktop-03.gregory.com,Guarani,1999-03-11T08:50:02,-23.243454,Palau,75.7163175,Sharonton,62254,13:51:52:e0:00:e8,Law PLC,Africa/Abidjan
laptop-05.lane.com,Bengali,2011-08-12T23:20:23,50.019562,Papua New Guinea,-69.8246175,North Sylviaville,92902,eb:c9:aa:8e:40:01,"Martin, Hall and Mellor",Asia/Jerusalem
srv-90.smith.net,Slovenian,2011-09-17T11:53:58,43.935781,Saudi Arabia,31.668487,East Clare,835,ae:59:17:3e:58:c9,Jackson and Sons,Africa/Tunis
lt-05.burke.biz,Quechua,2008-01-14T12:07:28,-39.708198,Micronesia,89.6960895,Port Toby,7,c5:0b:5b:94:e3:64,Leonard-Rose,Africa/Sao_Tome
db-92.dean-lee.com,Norwegian Nynorsk,1999-01-23T23:23:18,36.282442,Serbia,81.4580515,Wardstad,93616473,8b:5c:1e:c4:0f:d1,"Bates, Kirk and Brown",Asia/Bishkek
laptop-59.collins.org,Sinhala,1978-12-17T08:39:55,-165.949213,Hong Kong,82.4245965,Anneport,45998883,df:ea:f1:dd:a8:0e,"Farrell, Pearson and Rees",Asia/Tbilisi
desktop-13.pickering.com,Pali,2003-07-27T14:18:18,-154.314114,Guatemala,44.8932735,New Kathryn,8,b1:ca:7a:a9:da:4f,Fleming-Sullivan,Asia/Makassar
laptop-43.ali.com,Marathi,2007-01-07T21:08:14,94.467125,Falkland Islands (Malvinas),87.7375755,South Jeffrey,6912,2b:22:f9:21:86:b0,James-Reeves,Europe/Belgrade
lt-92.morgan-rahman.com,Uighur,2023-05-11T16:58:50,69.844617,Qatar,12.461770,Patelburgh,375857,b5:da:80:46:c2:94,Harrison Group,Africa/Kinshasa
email-52.ali-taylor.com,Kurdish,2021-06-03T08:58:16,-75.969318,Niger,72.5186385,South Roger,1481964,82:59:e1:73:29:0c,Abbott Group,Asia/Dhaka
web-26.wallace-baker.biz,Twi,2004-07-30T18:38:45,92.057185,Tunisia,-36.6473915,North Eileen,1621,39:05:ee:1d:1f:52,"Payne, Bates and Jones",Europe/Vatican
desktop-86.francis.info,Marshallese,1986-04-03T16:47:58,12.244719,Malawi,11.3779375,Sallyhaven,218762,59:11:1b:f4:e8:04,Warner and Sons,Asia/Shanghai
desktop-50.spencer-smith.com,Kashmiri,1989-11-22T01:04:39,146.983005,Luxembourg,-81.8264675,Millerport,84331017,df:c2:5f:da:7c:cf,Mills and Sons,America/Asuncion
srv-90.newton-nash.com,Yoruba,1997-10-01T07:09:17,26.252772,Romania,42.3610575,North Hughshire,66033097,b2:b1:78:f9:26:99,"Kent, Robinson and Griffiths",Europe/Skopje
laptop-50.brown.biz,Norwegian Nynorsk,1989-11-13T15:06:18,117.234840,French Polynesia,-50.327385,North Gerardfort,772930,55:ed:f6:10:72:e7,Khan PLC,Europe/Helsinki
srv-66.hunter-cooper.co.uk,Persian,1984-09-24T08:53:23,-82.507070,French Southern Territories,-17.4060345,Garyville,87180,26:ae:c4:7f:46:f7,Fraser-Fox,Africa/Gaborone
laptop-12.wright-barnes.co.uk,Kannada,2020-05-18T08:17:08,-135.638209,Netherlands Antilles,21.997455,North Georgiaside,32308,ce:ba:f7:17:b0:a4,Patel-Rahman,America/St_Kitts
db-52.blackburn-harris.net,Ganda,2009-10-02T16:02:14,136.808380,Congo,79.8901515,Bradshawside,197,99:9a:19:45:de:e5,Jones and Sons,America/Panama
web-64.jones.biz,Maori,2020-07-12T22:01:24,89.423267,Turks and Caicos Islands,28.992883,Milesland,6313,43:e2:33:82:61:a1,"King, Potter and Taylor",Africa/Johannesburg
web-41.bell-thompson.co.uk,Aymara,1975-02-20T00:10:58,-155.021553,Czech Republic,44.139715,Lake Jasonstad,8,83:db:76:43:54:7e,Howarth-Chadwick,Europe/Simferopol
web-85.wright.com,Yoruba,2014-08-22T13:30:02,-86.319296,Uzbekistan,41.6387035,East Craigview,86395,25:0b:6d:37:4a:54,Cameron-Hughes,America/Bogota
lt-93.edwards-davies.com,Cornish,1994-12-22T09:23:04,-84.168479,Tonga,-39.9265125,Flemingport,616869,c7:15:e7:81:8b:38,Clarke-King,Europe/Zurich
desktop-43.smith-edwards.com,Tsonga,2001-10-23T06:14:49,-168.913659,Guam,54.124385,Howardborough,7447,11:88:d1:7a:38:84,"Berry, Mann and Robson",Pacific/Fiji
desktop-45.marshall-browne.com,Thai,2005-06-29T21:57:30,142.340296,Thailand,-19.802811,North Benjaminton,37271868,cd:75:de:69:04:9d,Holland Group,Africa/Banjul
db-75.francis-flynn.net,Irish,1976-07-06T01:46:02,-14.147899,Faroe Islands,-15.683596,Port Anne,825393633,79:d1:14:13:de:2f,"Taylor, Newman and Bowen",Asia/Saigon
desktop-40.white.biz,Limburgan,2018-01-20T13:17:31,161.062471,Gambia,77.139882,New Rogershire,87356536,50:d1:94:da:b9:24,"Scott, Webb and Chan",Africa/Addis_Ababa
desktop-05.harris-wallis.com,Akan,1970-12-12T03:49:13,88.892292,Korea,7.783934,Joanneton,78,8d:58:0e:a0:56:ce,Armstrong Group,Indian/Maldives
db-52.mccarthy-ashton.org,Fijian,2015-07-21T14:08:04,92.471280,Saint Martin,79.5913925,Samton,729,c2:09:ee:2e:10:3c,Singh Ltd,America/St_Vincent
web-87.arnold.com,Assamese,1979-11-11T03:10:29,92.652026,Bahrain,6.159273,Scottmouth,7,af:79:13:09:cc:79,Rahman-Moore,Asia/Bahrain
desktop-95.swift.com,Basque,2006-07-02T11:26:48,42.465682,Svalbard & Jan Mayen Islands,-18.849408,Miahshire,81338792,e7:d8:25:81:38:ba,"Davies, Jones and Lewis",America/Nassau
web-62.smith-flynn.com,Hausa,2002-06-12T13:06:56,-170.623211,Tanzania,28.2208065,East Ashleighside,70077393,c8:35:f3:dc:65:eb,"Mann, Middleton and Roberts",Asia/Tokyo
web-40.hughes-foster.net,Amharic,1974-04-24T13:17:13,-83.989122,Suriname,30.2097525,Lake Rosemaryborough,940185,d7:b4:fe:a3:a8:5d,Chan-Fletcher,Europe/Tirane
srv-65.thomas-parker.net,Sindhi,1980-06-21T14:23:21,60.148603,Vanuatu,41.364947,West Kerryview,3337,25:4e:40:44:d9:e9,Cooke PLC,America/St_Lucia
web-85.tyler.com,Ojibwa,1984-03-02T00:51:21,128.094808,United Arab Emirates,-15.194560,North Derek,6815464,14:81:8d:25:b8:3a,Stewart PLC,America/Paramaribo
db-81.jones.com,Yoruba,1997-07-13T13:59:59,168.402312,Greenland,14.8701105,Hicksmouth,302468,ce:b4:f1:36:95:85,Palmer-Moran,Europe/Istanbul
desktop-76.williams.com,Northern Sami,1972-11-26T23:54:36,84.612170,Sao Tome and Principe,56.523917,Port Nicholas,370630,41:4c:08:c6:a6:61,Newman Ltd,Asia/Yerevan
laptop-14.henderson.com,Yiddish,2000-08-15T11:09:31,-122.862516,El Salvador,34.093565,North Jaymouth,8247,52:8a:4e:f9:5a:1a,Nicholls-Shepherd,Europe/Paris
db-73.campbell.com,Chechen,2021-09-02T02:54:58,177.927844,Namibia,59.7086335,South Bernardburgh,8775448,0a:77:85:f6:41:60,Knight-Hart,Atlantic/Azores
db-11.miller-rogers.org,Malay,1990-08-04T07:40:11,147.443736,Saint Vincent and the Grenadines,-88.245103,South Josephineton,514029703,ff:9f:11:82:72:5c,O'Neill PLC,America/Panama
laptop-68.spencer.net,Albanian,2022-02-24T15:34:28,86.583303,Iran,-2.7858325,Lake Mitchell,112849,fa:fc:e7:20:d5:51,Hewitt-Brown,Africa/Djibouti
laptop-80.russell.com,Maltese,1972-10-29T02:47:20,2.387673,Qatar,-42.169416,Clarkeport,0,50:27:b2:28:6b:21,Heath-Kirby,America/Jamaica
desktop-86.freeman.net,Bulgarian,1982-09-09T06:32:08,170.703339,Guadeloupe,79.918993,Joshuaville,92,97:c7:3b:e3:fb:6a,Richards-Thompson,Africa/Addis_Ababa
lt-92.richardson-atkins.com,Zhuang,1998-09-04T01:39:53,-99.147605,Togo,-85.021220,Sophietown,3,62:a5:37:bf:88:45,Jackson Inc,Asia/Kabul
lt-06.marshall.net,Urdu,2009-01-05T16:23:37,146.061710,Guadeloupe,19.5709905,Jonesmouth,14631160,dd:b9:b6:db:05:2f,Williams and Sons,Europe/Bratislava
lt-90.smith.com,Kanuri,1988-03-13T04:42:56,-104.016602,Holy See (Vatican City State),4.3957635,Gibsonborough,52578,26:5a:d7:87:44:1a,Jennings PLC,Africa/Conakry
desktop-77.payne.co.uk,Western Frisian,1997-09-07T14:55:40,162.737310,Thailand,-61.2104315,Bennettland,481286958,1f:0f:3e:b1:bd:2a,Whitehead-Thomas,Africa/Bangui
email-10.woods.com,Croatian,1992-06-21T14:18:14,-54.711553,Christmas Island,87.7464855,Naylorland,261205454,e0:82:29:59:b3:09,Howells-Martin,Europe/Skopje
laptop-97.james.com,Northern Sami,2001-10-09T08:53:45,-89.222033,United Arab Emirates,50.7745515,Gibsonton,4258,c3:c3:dc:e7:13:1e,Reynolds LLC,Pacific/Nauru
desktop-75.sanderson-baker.co.uk,Western Frisian,2020-06-09T01:33:16,-83.541104,Zambia,87.063623,East Elliottchester,29997,da:10:2e:62:53:8d,"Thompson, Moran and Ward",Asia/Tbilisi
desktop-50.briggs.org,Uzbek,1972-02-07T13:02:07,-50.634219,Austria,-27.3331095,Storeymouth,30406,da:ca:95:09:41:d8,Jennings-White,Asia/Calcutta
srv-77.lowe.com,Central Khmer,1971-07-21T06:58:14,98.943341,Nigeria,-14.418141,Westchester,446,6f:fb:7c:f0:25:b2,"Bibi, Evans and Richards",Africa/Porto-Novo
lt-93.watts.com,Afrikaans,1970-12-21T05:03:13,166.137396,Montenegro,30.413730,Wintermouth,5026,a2:f5:2f:68:94:52,Taylor-Bevan,Europe/Vatican
email-30.cooper.info,Pushto,1973-10-27T08:15:45,17.958864,Guatemala,-7.285550,Watsontown,838137094,aa:6d:24:3a:48:2c,"Harvey, Kaur and Gill",Africa/Khartoum
srv-76.booth-watts.com,Tswana,2017-06-03T17:51:04,24.624092,Guernsey,10.502811,Charlesport,702,88:41:f0:25:c2:02,"Hall, Byrne and Bibi",Europe/Tirane
lt-73.kent.com,Kikuyu,1993-04-22T09:14:27,68.078734,Gabon,-42.916025,Bradleyland,11086,ce:af:77:95:fa:71,"Shah, Bell and Mahmood",Asia/Bahrain
desktop-65.quinn.com,Chinese,1981-05-04T14:20:44,-71.427030,Kazakhstan,-60.945649,Port Mandymouth,3377556,a2:2d:e3:37:4f:71,"Jones, Kemp and Bevan",America/Caracas
web-01.singh.com,Afar,2019-03-03T16:36:30,79.305523,Suriname,-61.8152315,New Amystad,14730,47:86:1d:5e:ae:20,"Palmer, James and Smith",Africa/Mogadishu
desktop-27.payne.com,Luxembourgish,1999-03-28T23:23:05,-99.515377,Togo,37.186015,Hazelberg,5409685,7c:94:14:2d:52:2d,Evans-Harris,Asia/Tbilisi
srv-92.king-shaw.com,Bihari languages,1981-02-10T12:03:25,-135.172319,Bermuda,19.048190,Johnsonberg,5627999,b8:73:32:7a:e5:03,Jones-Jones,Asia/Brunei
laptop-96.taylor.com,Chichewa,2023-04-29T08:03:29,-177.225007,Macao,2.157167,New Jeffrey,7153216,d7:7b:88:c0:bd:2f,Lord-Gibbons,Europe/Dublin
db-72.jackson.com,Nauru,2002-06-13T08:44:07,173.079025,Egypt,-34.121746,Debraton,5555415,a8:09:96:68:43:37,Hughes-Richardson,Africa/Lagos
srv-26.sanders-jones.biz,Luba-Katanga,2013-11-11T09:41:16,34.925366,Seychelles,0.5891975,Annton,64146091,d9:44:a8:ca:3e:fa,Hill-James,Africa/Windhoek
lt-19.allen-alexander.com,German,2013-01-07T21:33:23,-42.811114,Tokelau,-26.6053305,Sullivanland,5597290,50:30:ff:ce:1c:47,"Stevenson, Ali and Sinclair",Asia/Taipei
laptop-06.marsh.biz,Galician,2003-01-02T14:50:05,-50.013832,Cook Islands,-48.3544235,Andreachester,89205,e5:3f:90:7e:e4:62,Harding Ltd,America/La_Paz
lt-04.barnett.com,Chuvash,2013-11-25T01:19:20,-3.167708,Burundi,73.5780935,New Patrickmouth,180942800,5e:6b:c1:c1:cc:5a,"Carter, Lowe and Baker",Europe/Vienna
email-47.bates-gardner.net,Dzongkha,1997-08-24T04:16:19,88.641753,Western Sahara,60.721372,Bellfort,615742208,4b:83:11:52:ab:5e,"Smith, James and Duncan",America/Montevideo
laptop-23.norris-matthews.com,Bengali,2011-02-07T22:30:43,73.033723,Tokelau,-24.2413675,Melissafurt,94624,9c:f4:2b:19:cc:32,"Lynch, Preston and Mills",America/Belize
desktop-98.collins-chapman.biz,Kashmiri,1997-11-05T03:04:02,10.652772,Uruguay,-45.492642,Port Dianachester,1032940,d3:a1:8c:46:01:dd,Boyle Ltd,Africa/Dar_es_Salaam
web-36.gough-watson.net,Tswana,2008-05-13T05:58:40,-107.663329,Guam,-70.5188285,Thomaston,512257,60:6a:6f:17:53:39,"Ahmed, Crawford and Jarvis",Asia/Bishkek
srv-12.taylor.com,Kirghiz,2016-08-02T08:29:46,-108.131146,Saint Kitts and Nevis,-29.0308085,South Brandon,5159951,12:f7:b3:5f:ee:1f,"Lambert, Webb and Day",Asia/Kuching
web-24.rowley-dixon.com,Romansh,1987-06-03T01:46:02,-25.980131,Guyana,59.4704005,North Sandra,4540640,50:8e:9d:b4:74:ae,Morris-Dixon,America/Belize
db-75.baker-edwards.com,Tatar,1999-06-25T09:35:21,103.714523,Haiti,-47.167597,Kevinhaven,3283686,19:66:8e:0d:2c:5a,"Fisher, Fletcher and Davidson",Europe/Lisbon
desktop-31.bray.com,Kazakh,1986-07-04T11:24:34,16.820989,Netherlands Antilles,31.008295,Lake Lewis,3,21:aa:25:d7:2c:ae,Fox-Turner,Africa/Nairobi
email-29.knowles.info,North Ndebele,1989-04-15T07:03:05,96.940457,Brunei Darussalam,-72.971452,New Matthew,7,c3:2c:42:d7:2c:ae,Bennett and Sons,Europe/Istanbul
db-46.mills-jackson.com,North Ndebele,2021-01-12T15:13:48,-48.746118,Luxembourg,26.961913,North Damienview,492,93:de:0c:e2:54:a8,"Buckley, Quinn and Bartlett",Asia/Muscat
srv-79.cross.com,Samoan,1973-04-15T01:59:44,178.606450,Maldives,-28.118781,Port Linda,557669901,d7:41:e7:84:ae:e1,"Harrison, Roberts and Brown",Asia/Dushanbe
db-50.preston.com,Limburgan,1994-05-20T21:10:00,-75.521135,Ecuador,-50.3299735,Hillland,99637258,f5:33:dc:86:be:3c,Hunt-Townsend,Europe/Athens
laptop-67.parkin.com,Northern Sami,1984-07-07T04:48:14,-66.944847,Angola,8.3618125,Gregoryville,63,f9:3b:3a:38:ce:ad,Carter-Walton,Europe/Oslo
email-68.griffiths.com,Japanese,2009-06-13T09:57:17,-175.862487,Slovakia (Slovak Republic),-83.640728,North Megan,96,70:48:f2:e4:ba:09,"Lee, Booth and Hudson",Indian/Antananarivo
db-49.lowe.com,Urdu,1978-12-16T17:58:45,164.582948,Afghanistan,-58.170257,New Lindseymouth,14320373,78:ca:2b:2d:e7:89,Alexander-Hughes,Europe/Podgorica
web-66.curtis-green.com,Kuanyama,2020-12-05T14:43:41,-63.280299,Solomon Islands,-70.685445,North Keithhaven,4316,ca:ec:e9:18:fe:56,"Matthews, Edwards and Howe",Europe/Monaco
lt-35.phillips.info,Tagalog,1983-06-25T06:52:46,-48.702999,Lebanon,-49.7107735,East Ashleyberg,45455305,a0:58:51:1f:05:c4,"Newman, Parkes and George",Europe/Vatican
email-32.nolan.com,Thai,1982-07-15T05:28:35,-36.267367,Anguilla,-84.079062,Tuckerhaven,7,d4:d6:d8:77:39:83,Bradshaw-Dale,Asia/Riyadh
srv-27.cooper-rogers.com,Assamese,1986-10-15T17:03:10,-70.953321,Gibraltar,40.2618035,Russellfort,456162,92:49:47:a2:8c:1d,Foster and Sons,Asia/Colombo
desktop-58.turner.com,Chinese,1979-01-07T08:43:20,-9.938461,Guinea,16.0151305,East Julianshire,9287,18:30:22:80:b1:b4,"Clark, Peters and North",Asia/Baku
srv-14.gordon-holden.org,Igbo,1994-09-14T15:22:09,-23.601032,Kiribati,8.9897795,Conorside,3,e8:9f:0e:3e:6a:24,"Bates, James and Richards",Europe/Ljubljana
lt-35.pratt.com,Somali,1985-10-30T11:35:01,65.197039,Faroe Islands,-56.0405355,Martynport,36040,32:18:c5:47:a4:e6,"Edwards, Birch and Robson",Asia/Saigon
db-09.wilkinson.info,Akan,2007-02-22T09:09:03,157.282446,Argentina,23.5993025,South Frankview,387,c9:a3:ba:2a:cb:ff,"Holmes, Taylor and Smith",Africa/Malabo
web-37.woods-taylor.com,South Ndebele,1970-08-20T21:31:33,124.196091,Tuvalu,-63.8830765,South Robertfort,84,67:f4:ef:b8:18:a0,Barry-Dawson,Europe/Stockholm
desktop-14.scott.net,Persian,2016-08-23T10:16:22,-165.750239,Benin,31.662612,Guyfurt,5123674,b2:3d:03:17:03:54,Newman and Sons,America/Panama
srv-82.brown-hart.info,Gaelic,2018-06-14T21:35:27,-79.979444,Mongolia,-37.977221,Port Leebury,2176,c1:04:c8:40:14:5b,"Green, Thomas and Woods",Europe/Athens
web-03.nicholls.info,Bulgarian,1994-07-01T13:37:58,-97.513106,Bahrain,85.143932,West Kayleigh,412716,89:4c:58:94:46:de,"Edwards, Atkins and Watkins",Africa/Lagos
srv-64.smith.co.uk,Sichuan Yi,2017-01-23T11:44:47,51.219226,Italy,-35.533942,South Louis,2519232,70:d7:02:64:d8:78,Smith-Hussain,Asia/Dili
email-44.stewart.co.uk,Twi,1993-01-08T01:43:31,-147.804175,Syrian Arab Republic,-84.240930,Cherylstad,8819783,8f:5f:aa:55:b4:20,Smith-Ashton,Indian/Mauritius
desktop-41.king-haynes.org,North Ndebele,1975-06-15T00:56:01,12.824605,Panama,-86.857889,East Benshire,50699,7a:0b:e2:8c:1b:c5,King-Gray,Asia/Phnom_Penh
lt-22.jones-abbott.org,Aragonese,1978-07-18T17:01:29,-105.237349,Guinea-Bissau,-69.137253,New Kathryn,79039048,9e:37:3a:d8:17:b0,"Carr, Wood and Smith",Indian/Mahe
lt-83.morgan.biz,Dzongkha,2021-01-18T23:17:51,129.330698,Mongolia,-69.943088,Lynchland,838,49:44:80:18:60:54,"Ross, Ford and Simpson",Africa/Freetown
db-94.hart.com,Corsican,1985-12-21T13:20:05,-135.255573,Madagascar,25.0503425,Boothville,1959158,b1:e1:69:3b:f7:55,Davies-Holland,Africa/Nouakchott
email-36.oneill.co.uk,Greek,1985-09-27T16:37:13,-66.056588,Norfolk Island,-7.300756,New Jemmahaven,2735587,12:86:98:04:c0:62,"Johnson, White and Butler",Asia/Samarkand
laptop-34.rose.com,Finnish,1992-01-18T00:48:57,-83.693106,Korea,-71.9389855,Wattston,91817,ea:90:ec:31:f8:19,Roberts-Yates,Atlantic/Madeira
email-59.wilson.net,Central Khmer,1994-02-28T11:24:06,16.675148,Honduras,-89.239366,South Conor,66,de:22:34:42:6e:00,Anderson-Taylor,Pacific/Auckland
laptop-46.joyce-clarke.org,Akan,1993-05-28T09:23:22,-143.489623,Egypt,9.1804735,Mohamedville,12003708,a6:15:58:57:a5:d8,Long-Howard,America/Cuiaba
web-77.thorpe.net,Ossetian,1976-02-25T21:09:29,-136.026273,Ukraine,-88.061874,West Katie,5819643,29:e2:ad:2d:ad:2e,"Houghton, Lloyd and Perry",Europe/Sarajevo
web-53.barlow.info,Hungarian,2021-11-10T13:16:06,-142.648297,Seychelles,24.205838,New Alexchester,7702046,09:ab:a2:1d:fb:48,Marshall-Ford,Europe/Bratislava
desktop-81.murphy-hughes.com,Czech,2004-08-12T15:56:14,83.947032,Ireland,-74.955715,Watsonton,842856,f8:d0:b7:7f:5d:1f,"Savage, Johnson and Green",America/Managua
db-64.woods.com,Ndonga,2022-02-12T15:02:31,-87.509118,Romania,-17.0624615,New Chelsea,9353905,4a:f0:93:a3:12:9b,Kaur PLC,Asia/Muscat
desktop-20.wheeler.com,Korean,2009-10-11T18:43:58,-15.261107,Austria,29.3675655,Jordanland,47396116,00:c8:4f:61:ad:2d,Potter-Hughes,Europe/Copenhagen
email-85.whittaker.info,Irish,2005-06-25T12:35:20,123.994663,Chad,49.614109,East Marcus,785276,9f:51:7c:af:7e:ce,Ball LLC,Europe/Andorra
db-72.jackson.com,Tonga,1999-08-09T11:08:05,137.197806,Kenya,21.551588,Carlton,8,10:95:51:68:d2:a1,Davis and Sons,Asia/Beirut
web-68.lee.info,Welsh,2023-01-03T15:48:57,-1.446766,Cameroon,-76.561340,Tomfurt,26415,59:27:c3:80:e6:8a,"Buckley, Brown and Webster",America/Nassau
lt-54.archer-franklin.com,Twi,2014-01-03T02:05:48,-23.728630,Zimbabwe,21.8563805,South Chloeberg,521749,f8:f2:a0:42:cf:bc,Humphries Group,Africa/Casablanca
email-67.walsh.com,Tahitian,2009-09-08T20:01:28,87.960986,Cote d'Ivoire,27.7986775,New Eileenfurt,241688227,0a:a4:f0:86:22:31,Lee LLC,Indian/Mauritius
web-83.moran.com,Chechen,1985-01-30T23:31:49,-157.569155,Reunion,24.6655935,East Sophiefurt,167944,98:60:f0:37:c1:b2,Bradley-Ellis,America/Montevideo
desktop-28.brown-smith.com,Church Slavic,1982-12-03T03:10:50,136.945282,Botswana,51.504317,Brownmouth,55,9c:ee:83:ee:ab:65,Morgan Inc,Asia/Ulaanbaatar
db-04.mccarthy-hardy.net,Sardinian,1978-02-24T08:49:32,-18.916534,Kyrgyz Republic,4.9845595,Nelsonton,50,57:39:ff:20:f0:0b,"Reed, Smith and Collins",Africa/Sao_Tome
srv-72.phillips.org,Catalan,1999-12-28T14:58:50,41.314747,Switzerland,11.7198045,South Harrietbury,833462,bc:4d:ee:d8:30:7f,Webster-Pugh,America/Costa_Rica
db-19.smith.biz,Russian,1979-04-03T20:20:39,37.095338,Slovakia (Slovak Republic),-69.239025,Jacobside,62699,16:56:a8:f5:9c:c5,"Ward, Collins and Barker",Asia/Singapore
web-64.young-wright.com,Bislama,2002-09-15T22:23:21,137.523776,Venezuela,-22.9546385,West Junehaven,97562,f7:0b:0f:20:a8:e0,Atkinson PLC,Africa/Kigali
srv-71.gardner-russell.net,Igbo,2020-05-20T09:47:18,-77.381236,Lebanon,-85.4279725,South Paulinemouth,5603253,83:ed:04:30:72:b3,Tucker-Evans,Asia/Tbilisi
laptop-21.elliott-barnes.net,Sichuan Yi,1985-08-29T11:03:36,8.684055,Nicaragua,88.552304,East Clive,314,60:eb:67:37:a4:8c,Johnson LLC,Africa/Maputo
db-14.butler.com,Yoruba,1997-11-11T00:42:51,-64.144546,Hungary,-29.4274335,East Caroltown,56342309,87:e5:42:81:4a:f8,Green-Dixon,Asia/Aden
email-63.brown-fowler.info,Cornish,2005-08-22T06:47:48,5.339777,Benin,-43.3338465,South Albertland,92,b5:3f:96:0b:21:2d,"Morgan, Gray and Gray",Africa/Blantyre
lt-36.barlow.com,Corsican,2021-12-22T22:27:22,65.698190,Peru,-24.250704,East Anne,640418,0f:39:96:95:04:1c,Day LLC,America/Costa_Rica
desktop-05.rose.com,Western Frisian,2007-10-31T03:23:53,129.015036,Pakistan,-63.8982895,New Ricky,15412191,2a:8b:33:5b:3b:f3,Morgan-Brooks,Europe/Athens
lt-73.lewis.com,Abkhazian,2013-08-11T21:54:40,-26.641518,Zimbabwe,57.195908,Lake Ronaldburgh,4027160,9b:db:af:69:01:02,"Davis, Cunningham and Scott",Africa/Bujumbura
web-51.johnson-jordan.com,Yoruba,1998-01-13T01:00:40,-152.693903,Algeria,-8.361779,Jackhaven,964,97:64:83:9e:26:c0,Ellis and Sons,Africa/Bissau
desktop-06.harris.com,Kurdish,1985-03-05T02:31:54,-3.325741,Cook Islands,-40.2600255,Lake Simon,86751827,ab:95:de:62:15:cf,Graham PLC,Europe/Bucharest
web-24.kemp.org,Dzongkha,2014-05-19T01:41:23,173.754629,Uzbekistan,58.5747385,Evansland,427,56:4f:e0:f9:c4:3e,Shaw-Green,Africa/Tripoli
db-44.burke-singh.co.uk,Tagalog,2010-05-09T19:15:17,-169.085454,Costa Rica,42.4864535,Lake Kevinberg,2430805,50:78:71:d5:12:24,Moore and Sons,America/Guyana
lt-18.clarke.org,Belarusian,2000-08-01T06:18:51,92.367001,Gambia,-2.0009275,Lake William,48,1b:0d:c2:e2:84:5c,"Smith, Wilson and Cooper",America/St_Vincent
email-14.jones.biz,Icelandic,2022-03-12T16:42:40,-55.775222,Belarus,-69.0891355,Port James,7,c1:42:19:1d:c1:c6,"Wilson, Phillips and Clarke",Africa/Kigali
desktop-66.fletcher-wood.com,Faroese,1975-06-19T19:39:57,-117.898496,Sri Lanka,-25.242516,Goughbury,37,85:84:f4:5d:64:f2,Gill-Parsons,America/Tegucigalpa
lt-04.green.org,Assamese,2016-01-26T10:29:16,117.956621,Lesotho,-86.890344,Khanview,834708042,e8:b8:1c:8f:9f:2d,"Brown, Humphreys and Walker",America/Dominica
lt-24.watts-howe.org,Telugu,1971-09-01T19:21:53,-114.170136,Belarus,74.6265685,Bethanland,862168,61:87:f8:87:e3:11,Harris-Peacock,Asia/Thimphu
laptop-32.davies.biz,Sanskrit,2018-03-29T17:08:09,-133.381327,El Salvador,-7.374928,Olivermouth,9867,ea:d0:8f:ea:ef:e3,"Chandler, Collins and Taylor",Asia/Katmandu
email-65.chandler.com,Yoruba,2008-07-30T20:49:41,-49.123349,Holy See (Vatican City State),72.418270,West Deborahfort,35,36:12:b3:ca:51:d8,"Jones, Hooper and Fleming",Europe/Vaduz
desktop-27.cooke-allen.com,Tswana,2016-09-01T01:09:11,79.058389,Tonga,60.0839335,Morleyside,928835969,99:91:e5:9f:6a:1b,Blake-Davies,Africa/Maputo
desktop-63.hudson.biz,Kanuri,1983-12-18T02:30:22,22.245857,Kuwait,-53.6262895,Victoriastad,9934478,c8:dc:45:ea:46:bd,"Elliott, Green and Franklin",America/Grenada
lt-25.wilson.com,Latvian,1987-05-29T10:02:48,-155.024457,Greenland,-38.9303665,New Conorshire,311392,93:79:91:fe:57:32,Jones and Sons,America/El_Salvador
email-19.sharpe.info,Aragonese,1984-04-09T15:48:36,-71.080310,Angola,37.383803,East Jacquelineberg,12,6c:0e:44:1b:93:25,Fox-Reeves,Asia/Tbilisi
email-75.gordon.com,Ukrainian,1998-06-05T19:33:28,117.914968,Russian Federation,55.542328,Harpertown,0,7e:9d:e1:43:ba:2b,"Arnold, Middleton and Thomas",Africa/Kampala
email-04.holloway-rowley.org,Divehi,1992-07-11T11:04:25,-93.455229,South Africa,71.603307,Suttonmouth,833864,86:5c:4f:11:fb:27,"John, Marshall and Thomas",Africa/Bangui
db-65.parkinson.org,Sindhi,1987-05-08T14:16:54,140.023602,Pitcairn Islands,-5.4451385,Lorrainebury,82494,c3:87:00:43:60:c5,Patel Group,Pacific/Kwajalein
laptop-30.davis.org,Lingala,2009-11-02T06:18:19,-126.764113,Saint Martin,-73.201914,New Annette,91180410,29:3b:6b:6c:85:14,"Coleman, King and Grant",America/Dawson
db-02.hughes.com,Amharic,1986-10-13T21:37:32,-156.366271,Yemen,-5.388861,Owenburgh,31755101,a3:44:ed:3e:d6:b1,Singh-Johnson,America/Nassau
laptop-08.hill-duncan.net,German,2001-02-23T23:53:57,123.524621,Tuvalu,29.435169,Westview,59936709,2e:e3:f2:f8:1f:75,Robinson-Ryan,America/Cancun
email-64.west-scott.net,Kuanyama,1999-08-04T08:12:31,-8.605372,Palestinian Territory,-10.2213135,West Sam,66,d9:6e:a4:04:4f:00,Walker LLC,Europe/Lisbon
web-64.jenkins.co.uk,Nepali,1972-12-28T09:11:40,-170.115232,United Arab Emirates,33.990880,Graemechester,8694249,15:f9:f8:20:4d:e4,"McCarthy, Lawson and Mason",Europe/Riga
lt-25.webster.biz,Malayalam,2013-04-09T22:21:28,33.337632,Gabon,83.204930,Carolineton,740650905,09:99:da:b2:5e:09,Wilkins-Cook,Asia/Yerevan
srv-66.dobson-hope.info,Hindi,1976-05-19T11:41:10,-140.931454,Cameroon,-82.4574065,East Alicestad,4349,ad:66:50:4c:5f:94,Preston and Sons,Pacific/Galapagos
lt-44.turner-jones.info,Kirghiz,2003-02-10T21:14:36,-82.283172,French Guiana,7.9517675,North Frank,5910819,45:f4:58:85:3e:0f,"Riley, Freeman and Bradley",Asia/Aden
laptop-73.west-morris.info,Hungarian,1993-05-24T06:31:46,101.421211,Brazil,-14.898649,Port Yvonneport,50,32:7b:c5:01:20:86,Hayes Inc,Asia/Choibalsan
web-21.shah.com,Kikuyu,1979-02-28T07:30:38,-85.439963,Niger,-64.5602745,Jordanhaven,483,89:d3:ac:dd:f4:1d,Howell LLC,Africa/Accra
laptop-17.edwards.com,Mongolian,1991-03-29T05:09:00,-90.103242,American Samoa,89.449587,Allenville,687,82:6e:de:b2:93:d9,Williams-Moore,America/Guatemala
lt-94.taylor.co.uk,Croatian,2003-11-09T17:53:47,120.438154,France,0.0311315,Kimberleyberg,55393,44:8e:f1:f2:9e:73,Hughes Inc,Asia/Thimphu
srv-05.wright.com,Ossetian,1993-11-12T11:09:10,-147.791643,Belarus,25.6051355,Hayesburgh,3209,d3:12:b1:69:ee:ba,West LLC,Asia/Colombo
lt-65.bennett-butcher.biz,Tatar,2007-04-27T12:43:32,155.191957,Western Sahara,43.294805,South Marc,470822,de:40:58:db:31:6b,"Watkins, Smith and Martin",Pacific/Nauru
web-11.goodwin-bryant.info,Japanese,1980-08-10T20:26:26,144.449464,Costa Rica,52.5352335,East Paigefurt,91820983,8f:a2:e4:b6:24:b9,Walker-Black,Asia/Rangoon
lt-28.white.com,Korean,1989-06-23T12:44:04,77.861017,Guernsey,-55.3144415,North Shaunview,60587022,2a:ff:21:25:6b:7f,"Fisher, Simpson and Martin",America/Dominica
laptop-99.spencer.com,Sinhala,2014-01-19T19:43:02,120.943225,Kuwait,80.924133,East Deborahshire,42529,93:7d:17:fc:6c:ba,"Simmons, Robinson and Hunt",Europe/Oslo
lt-14.davis.com,Kinyarwanda,2016-10-28T12:23:50,-122.222774,Uruguay,12.201680,East Kimberleychester,5,4f:49:b9:d8:be:b6,"Miller, Hardy and Robinson",Australia/Lord_Howe
lt-71.matthews.co.uk,Luba-Katanga,2000-06-07T16:52:25,20.723011,Holy See (Vatican City State),60.007294,Mitchellberg,8016,84:be:b6:75:dd:37,Todd and Sons,Pacific/Port_Moresby
db-42.taylor.co.uk,Haitian,2000-09-06T17:34:41,-124.385957,Guinea-Bissau,72.741165,Stephensstad,1,fc:20:05:e0:5d:1e,"Bailey, Johnson and Thompson",Asia/Baku
laptop-59.brown.com,Uighur,2001-08-04T23:09:38,-127.655505,Zambia,-10.1226585,Duncantown,26383187,1a:13:ed:cc:02:a0,Gregory PLC,Asia/Qatar
db-40.curtis-cole.org,Haitian,2011-04-26T17:05:36,-105.631590,Brunei Darussalam,-49.9448975,Farrellburgh,79,6a:03:64:75:8d:b2,Patterson and Sons,Asia/Karachi
web-14.long.com,Chinese,1997-11-18T12:56:25,25.286149,Montserrat,76.0226445,Nicholasfort,50582,6f:39:49:85:de:3f,Hill and Sons,Asia/Tbilisi
desktop-50.byrne.biz,Slovenian,2022-10-22T07:28:01,-25.883714,Solomon Islands,85.2800155,East Kate,3,4f:99:3a:10:48:ea,"Williams, White and Whitehouse",Africa/Mbabane
laptop-51.weston-morgan.co.uk,Ewe,1976-04-15T01:35:22,-44.142862,Spain,-43.268090,Joyceside,83162223,8f:42:87:8b:6b:ca,Stevens-Dean,Africa/Bissau
web-02.watts.com,Croatian,2020-04-04T20:28:11,166.872547,Cook Islands,19.0922355,Hammondhaven,57,67:fb:35:a1:03:0f,White-Barton,Asia/Seoul
web-69.hewitt-jordan.net,North Ndebele,1999-01-03T08:53:25,-88.226980,Haiti,42.319864,Port Glennport,39599438,9b:f8:be:f3:a6:98,Jackson-Wells,Europe/Berlin
web-72.simpson.biz,Latin,1989-11-02T14:50:25,31.516424,Thailand,44.5802315,New Judith,96,54:02:59:bc:2b:19,White PLC,Europe/Skopje
email-20.nixon.com,Kinyarwanda,1992-07-07T18:49:08,89.458704,Aruba,-67.926029,Schofieldfort,5625546,ad:83:4e:87:5d:fd,"James, Evans and Foster",Asia/Nicosia
web-40.watson.com,Kirghiz,2003-04-25T11:57:13,122.329432,Svalbard & Jan Mayen Islands,-28.0382505,Jemmaland,618,e8:d7:0e:0e:8b:3f,Young-Lawrence,Pacific/Auckland
lt-74.jenkins-burns.com,Czech,2014-07-27T06:24:55,96.600382,Uganda,-11.339152,East Marie,992,27:a1:44:46:a9:76,Morris PLC,Europe/Sarajevo
desktop-31.buckley-patel.com,Venda,1975-10-28T04:35:10,-97.810448,Tanzania,41.2422305,Walkerborough,75,47:71:19:3d:39:53,Fuller PLC,Asia/Saigon
db-97.robinson.net,Javanese,2008-06-10T01:48:12,156.124303,Barbados,88.654110,Lawsonport,85,b3:af:9f:5a:ca:26,"Begum, Cooper and Barrett",Atlantic/Reykjavik
web-92.whitehead.com,Hungarian,2011-01-26T11:58:04,-170.217318,Palau,71.326336,Sarabury,3398093,b6:65:65:9a:2b:79,Whitehead and Sons,Europe/Simferopol
db-26.evans.com,Aymara,1992-05-12T04:14:40,120.567671,Burkina Faso,-79.729277,North Natasha,0,52:40:07:59:d6:5c,"Martin, Mason and Harris",Asia/Damascus
srv-32.davis.com,Indonesian,2004-02-22T16:28:05,78.519676,Somalia,9.140481,North Kathrynmouth,7,93:5e:05:b4:13:78,"Shaw, Jones and Humphreys",Africa/Dakar
desktop-12.collier.net,Romanian,2012-05-15T12:00:44,-179.132432,Tanzania,86.5479055,Lake Gordonfurt,27555,ee:e5:1f:be:f3:fd,Barnes-O'Donnell,Africa/Freetown
desktop-74.mahmood-wilson.info,Kazakh,2001-12-04T17:27:07,-164.073735,Christmas Island,-77.0978145,North Geraldineborough,69487,43:5d:27:b1:85:1e,"Morton, Day and Williams",Africa/Douala
desktop-54.butler-cooper.info,Luxembourgish,1979-08-15T22:10:28,9.468693,Samoa,31.466040,East Pamela,6,b5:de:92:19:5b:10,"Todd, Hooper and Jones",Africa/Gaborone
lt-03.oconnor-webb.org,Xhosa,2021-02-15T11:43:08,41.816539,Timor-Leste,-51.871727,Lake Bethanyview,1,d7:e3:a0:7d:ae:ad,Leach Group,Europe/Warsaw
web-57.wilson.com,Kazakh,2019-08-08T01:48:39,157.457695,Qatar,-8.0683025,Annhaven,7,38:d0:2a:c8:e3:6c,Thorpe LLC,Africa/Nouakchott
email-79.holt-evans.com,Maori,2021-10-26T17:55:57,174.620183,Barbados,-66.770221,New Natasha,69942,3c:5c:45:6a:7e:25,Davies-Owen,Asia/Dushanbe
lt-33.russell-perry.info,Lingala,2019-10-03T23:28:58,165.604965,Niger,45.2486575,Jenniferville,94,c8:fe:b3:9e:39:e5,Miller-Lowe,Europe/Podgorica
laptop-60.perkins.com,Mongolian,1999-06-29T21:51:23,108.277771,Poland,16.126620,Saunderschester,231,cb:ed:54:2d:ff:08,"Ford, Chambers and Stevens",America/Belize
lt-59.murray.com,Wolof,2012-09-13T23:57:44,-122.759916,New Caledonia,-4.1727465,Jayneville,712862,01:4d:bc:7a:36:69,"Jones, Price and Cooper",Asia/Qyzylorda
db-23.gibson.info,Malay,2010-03-15T03:29:38,34.129765,Montserrat,38.619852,Jeanside,9219,1f:22:49:a5:c1:9e,Macdonald PLC,Africa/Ceuta
web-42.taylor.org,Bashkir,1975-05-19T23:39:49,-163.983026,Tuvalu,-5.8768185,Wilsonview,598,43:6e:25:02:02:d5,Cox and Sons,Asia/Damascus
srv-34.brown-kent.com,Greek,1972-04-27T01:03:23,-166.217177,Nigeria,-55.7689745,West Gordon,936,a6:8a:de:4b:0c:c8,Jones-Barnes,Pacific/Port_Moresby
laptop-04.myers-byrne.org,Bashkir,1979-10-17T23:44:55,33.426612,Puerto Rico,-8.029157,Faulknerborough,48340,dd:f6:44:e1:8c:9b,"Smith, Hartley and Sims",Europe/Prague
email-29.rogers.org,Tsonga,2019-06-07T04:44:42,-48.186853,Chad,21.188841,North Douglas,10858547,89:ae:ad:ed:3a:ec,Clarke-Rhodes,Pacific/Efate
lt-05.cooper.com,Russian,1978-04-10T00:27:00,-82.067000,Israel,52.5048555,West Bernardland,3887,25:5f:2b:27:66:6c,"Whitehead, Stevenson and Cooper",America/Jamaica
srv-32.wright.co.uk,Serbian,2012-11-21T05:57:56,-69.605115,Estonia,15.914812,North Kyle,62088,b8:0c:b4:81:3b:55,Edwards-Mills,Africa/Freetown
db-16.jones.com,Turkish,1992-02-12T07:03:15,33.739530,Montenegro,63.837673,Port Kathryntown,1,e5:7d:2a:62:ed:83,Holt Group,Europe/Monaco
db-91.russell.com,Galician,1981-06-05T07:11:33,72.630250,Gambia,-34.809522,Port Jill,439561,51:ee:4d:1c:26:ef,Farmer Inc,Atlantic/Cape_Verde
laptop-23.brennan.net,Haitian,2014-07-23T17:31:26,-91.122701,Niue,6.864274,Swiftfurt,8043485,c8:ce:14:2f:cf:db,Tucker LLC,Asia/Dubai
lt-10.cox.info,Tigrinya,1986-05-20T05:10:42,24.043077,Tajikistan,64.800160,Laurenshire,537574480,f3:6d:9f:bf:e0:f2,Long-Jones,Asia/Yerevan
srv-34.pearson-pratt.com,Turkmen,1972-10-31T15:54:04,-67.051427,Suriname,12.3734005,East Donnafort,7342679,41:18:40:c8:ee:67,Taylor-Davies,Africa/Ndjamena
srv-38.walton-hill.info,Guarani,2019-04-01T20:27:27,178.764528,Vanuatu,41.3290415,Hiltonmouth,2303192,a6:04:2d:83:2e:2f,Dyer Ltd,Africa/Asmera
db-67.burns.info,Hausa,1992-06-25T16:39:19,-115.899651,Ecuador,58.859563,Coopermouth,2699,5d:c0:8e:20:19:6d,Phillips PLC,Asia/Colombo
desktop-10.shah.com,Panjabi,1982-08-15T00:44:06,-117.253970,Singapore,59.5377905,Port Raymondberg,7,f9:9a:84:da:1e:5d,Todd Ltd,Europe/Tallinn
web-47.richards.com,Luba-Katanga,1981-09-05T17:38:34,-39.360805,British Virgin Islands,72.053822,Lake Marcus,469867,06:62:bb:1b:67:3c,Freeman-Webster,Asia/Rangoon
email-79.jones.net,Bislama,2014-06-21T03:24:33,-5.935073,Guadeloupe,-51.253563,Smithburgh,1,6b:ea:62:2a:5d:70,Allen-Oliver,Indian/Maldives
desktop-80.perry.com,Samoan,1974-11-16T02:25:17,-134.711693,Brazil,-66.3547035,New Marian,59967,5c:f0:59:c8:11:f2,Ward Ltd,America/Lima
laptop-41.carpenter.com,Romansh,2008-03-18T14:45:01,-62.342722,Holy See (Vatican City State),-19.2804785,Patelstad,50,08:16:61:e7:b7:70,Archer and Sons,Pacific/Kwajalein
srv-86.robinson-williams.com,Uighur,2015-10-16T07:32:51,178.929456,Greece,65.035452,Foxton,774908409,63:f4:a7:10:83:28,Hayes-Cooper,America/Port_of_Spain
desktop-21.baxter.com,Bihari languages,1984-08-09T23:36:47,64.498191,Solomon Islands,35.351421,Brendaborough,7812269,e5:1f:c6:03:c7:e8,Walker-Knight,Asia/Tashkent
srv-86.bennett.net,Swahili,1972-12-09T11:47:03,-112.973977,Djibouti,45.3593475,New Paulview,1,a1:5f:29:0e:23:79,Hughes-Hammond,America/Dominica
email-65.evans-richards.com,Kalaallisut,2021-09-30T09:14:39,-84.700467,Faroe Islands,44.639502,Eleanorhaven,99,7e:db:72:4d:a3:09,"Howard, Parker and Slater",Asia/Vientiane
lt-30.webster.com,Afar,1993-08-05T16:48:34,96.745830,New Zealand,-18.212053,Port Shane,967,e8:bd:c8:7f:9f:fd,"Taylor, Stokes and Wheeler",Asia/Bishkek
email-34.holden.com,Sinhala,1992-01-25T12:02:21,151.501273,Jamaica,-80.038884,Port Ryan,33,83:fc:12:3d:05:f7,Robinson-Goodwin,Asia/Aden
web-16.carpenter-jones.com,Tigrinya,1980-03-25T15:12:38,70.992987,Swaziland,-32.474876,Oliverview,302,5d:fa:d4:d7:9c:e6,Hunt-Howe,America/St_Vincent
srv-80.collins-baker.biz,Nepali,2000-11-19T11:23:20,-122.681531,Svalbard & Jan Mayen Islands,6.8196805,Lisastad,4433,ea:7e:ae:df:96:7a,Hancock PLC,America/El_Salvador
desktop-73.matthews.com,Ndonga,1996-09-26T05:28:50,10.152233,Saint Kitts and Nevis,26.079779,West Vincentchester,144,8e:b4:52:51:86:14,"Watson, Hussain and Nelson",Africa/Lome
srv-66.mcdonald-nolan.com,Albanian,2009-07-10T19:43:09,127.220161,Guinea-Bissau,41.2868365,South Dennis,8570603,55:33:de:94:91:1e,Pearson-Kemp,America/Panama
laptop-11.moran.com,Azerbaijani,2013-04-16T13:21:37,-3.985818,Uruguay,44.6452565,Hallshire,4001683,3b:b3:0f:2a:17:cc,Jones LLC,Indian/Comoro
lt-12.saunders.info,Corsican,1999-12-06T18:19:35,166.558707,Malaysia,89.8536085,Kennethchester,34612,2a:fe:85:5f:e7:05,"Field, Burgess and Lewis",Europe/Luxembourg
